{
"type": "FeatureCollection",
"name": "cmrl_phase2_line",
"crs": { "type": "name", "properties": { "name": "urn:ogc:def:crs:OGC:1.3:CRS84" } },
"features": [
{ "type": "Feature", "properties": { "name": "CMRL Phase II Corridor 5 (Red Line)", "corridor": "C5_red", "phase": "II", "status": "proposed", "station_count": 45, "geometry_note": "Approximate station points for Corridor 5 (Madhavaram Milk Colony → Sholinganallur), curated from public CMRL / Wikipedia station names and known Chennai place locations. NOT official CMRL CAD. Indicative for scenario planning only." }, "geometry": { "type": "LineString", "coordinates": [ [ 80.2315, 13.1472 ], [ 80.228, 13.1385 ], [ 80.224, 13.13 ], [ 80.22, 13.122 ], [ 80.2165, 13.115 ], [ 80.214, 13.1105 ], [ 80.211, 13.107 ], [ 80.2085, 13.1125 ], [ 80.205, 13.12 ], [ 80.202, 13.1155 ], [ 80.2065, 13.108 ], [ 80.209, 13.1045 ], [ 80.2055, 13.098 ], [ 80.2, 13.0905 ], [ 80.1948, 13.0852 ], [ 80.19, 13.08 ], [ 80.186, 13.075 ], [ 80.182, 13.068 ], [ 80.1785, 13.06 ], [ 80.176, 13.0505 ], [ 80.1705, 13.043 ], [ 80.165, 13.038 ], [ 80.16, 13.035 ], [ 80.1565, 13.0358 ], [ 80.162, 13.028 ], [ 80.168, 13.022 ], [ 80.174, 13.016 ], [ 80.182, 13.01 ], [ 80.19, 13.006 ], [ 80.2015, 13.0043 ], [ 80.1986, 12.995 ], [ 80.205, 12.988 ], [ 80.208, 12.98 ], [ 80.205, 12.972 ], [ 80.2, 12.962 ], [ 80.192, 12.955 ], [ 80.188, 12.945 ], [ 80.185, 12.935 ], [ 80.188, 12.925 ], [ 80.192, 12.918 ], [ 80.198, 12.912 ], [ 80.205, 12.905 ], [ 80.212, 12.9 ], [ 80.22, 12.897 ], [ 80.2278, 12.899 ] ] } }
]
}
