{
"type": "FeatureCollection",
"name": "cmrl_phase2_stations",
"crs": { "type": "name", "properties": { "name": "urn:ogc:def:crs:OGC:1.3:CRS84" } },
"features": [
{ "type": "Feature", "properties": { "name": "Madhavaram Milk Colony", "seq": 1, "corridor": "C5_red", "phase": "II", "status": "proposed", "geometry_note": "Approximate station points for Corridor 5 (Madhavaram Milk Colony → Sholinganallur), curated from public CMRL / Wikipedia station names and known Chennai place locations. NOT official CMRL CAD. Indicative for scenario planning only." }, "geometry": { "type": "Point", "coordinates": [ 80.2315, 13.1472 ] } },
{ "type": "Feature", "properties": { "name": "Venugopal Nagar", "seq": 2, "corridor": "C5_red", "phase": "II", "status": "proposed", "geometry_note": "Approximate station points for Corridor 5 (Madhavaram Milk Colony → Sholinganallur), curated from public CMRL / Wikipedia station names and known Chennai place locations. NOT official CMRL CAD. Indicative for scenario planning only." }, "geometry": { "type": "Point", "coordinates": [ 80.228, 13.1385 ] } },
{ "type": "Feature", "properties": { "name": "Assisi Nagar", "seq": 3, "corridor": "C5_red", "phase": "II", "status": "proposed", "geometry_note": "Approximate station points for Corridor 5 (Madhavaram Milk Colony → Sholinganallur), curated from public CMRL / Wikipedia station names and known Chennai place locations. NOT official CMRL CAD. Indicative for scenario planning only." }, "geometry": { "type": "Point", "coordinates": [ 80.224, 13.13 ] } },
{ "type": "Feature", "properties": { "name": "Manjambakkam", "seq": 4, "corridor": "C5_red", "phase": "II", "status": "proposed", "geometry_note": "Approximate station points for Corridor 5 (Madhavaram Milk Colony → Sholinganallur), curated from public CMRL / Wikipedia station names and known Chennai place locations. NOT official CMRL CAD. Indicative for scenario planning only." }, "geometry": { "type": "Point", "coordinates": [ 80.22, 13.122 ] } },
{ "type": "Feature", "properties": { "name": "Velmurugan Nagar", "seq": 5, "corridor": "C5_red", "phase": "II", "status": "proposed", "geometry_note": "Approximate station points for Corridor 5 (Madhavaram Milk Colony → Sholinganallur), curated from public CMRL / Wikipedia station names and known Chennai place locations. NOT official CMRL CAD. Indicative for scenario planning only." }, "geometry": { "type": "Point", "coordinates": [ 80.2165, 13.115 ] } },
{ "type": "Feature", "properties": { "name": "MMBT", "seq": 6, "corridor": "C5_red", "phase": "II", "status": "proposed", "geometry_note": "Approximate station points for Corridor 5 (Madhavaram Milk Colony → Sholinganallur), curated from public CMRL / Wikipedia station names and known Chennai place locations. NOT official CMRL CAD. Indicative for scenario planning only." }, "geometry": { "type": "Point", "coordinates": [ 80.214, 13.1105 ] } },
{ "type": "Feature", "properties": { "name": "Shastri Nagar", "seq": 7, "corridor": "C5_red", "phase": "II", "status": "proposed", "geometry_note": "Approximate station points for Corridor 5 (Madhavaram Milk Colony → Sholinganallur), curated from public CMRL / Wikipedia station names and known Chennai place locations. NOT official CMRL CAD. Indicative for scenario planning only." }, "geometry": { "type": "Point", "coordinates": [ 80.211, 13.107 ] } },
{ "type": "Feature", "properties": { "name": "Retteri Junction", "seq": 8, "corridor": "C5_red", "phase": "II", "status": "proposed", "geometry_note": "Approximate station points for Corridor 5 (Madhavaram Milk Colony → Sholinganallur), curated from public CMRL / Wikipedia station names and known Chennai place locations. NOT official CMRL CAD. Indicative for scenario planning only." }, "geometry": { "type": "Point", "coordinates": [ 80.2085, 13.1125 ] } },
{ "type": "Feature", "properties": { "name": "Kolathur Junction", "seq": 9, "corridor": "C5_red", "phase": "II", "status": "proposed", "geometry_note": "Approximate station points for Corridor 5 (Madhavaram Milk Colony → Sholinganallur), curated from public CMRL / Wikipedia station names and known Chennai place locations. NOT official CMRL CAD. Indicative for scenario planning only." }, "geometry": { "type": "Point", "coordinates": [ 80.205, 13.12 ] } },
{ "type": "Feature", "properties": { "name": "Srinivasa Nagar", "seq": 10, "corridor": "C5_red", "phase": "II", "status": "proposed", "geometry_note": "Approximate station points for Corridor 5 (Madhavaram Milk Colony → Sholinganallur), curated from public CMRL / Wikipedia station names and known Chennai place locations. NOT official CMRL CAD. Indicative for scenario planning only." }, "geometry": { "type": "Point", "coordinates": [ 80.202, 13.1155 ] } },
{ "type": "Feature", "properties": { "name": "Villivakkam", "seq": 11, "corridor": "C5_red", "phase": "II", "status": "proposed", "geometry_note": "Approximate station points for Corridor 5 (Madhavaram Milk Colony → Sholinganallur), curated from public CMRL / Wikipedia station names and known Chennai place locations. NOT official CMRL CAD. Indicative for scenario planning only." }, "geometry": { "type": "Point", "coordinates": [ 80.2065, 13.108 ] } },
{ "type": "Feature", "properties": { "name": "Villivakkam Bus Terminus", "seq": 12, "corridor": "C5_red", "phase": "II", "status": "proposed", "geometry_note": "Approximate station points for Corridor 5 (Madhavaram Milk Colony → Sholinganallur), curated from public CMRL / Wikipedia station names and known Chennai place locations. NOT official CMRL CAD. Indicative for scenario planning only." }, "geometry": { "type": "Point", "coordinates": [ 80.209, 13.1045 ] } },
{ "type": "Feature", "properties": { "name": "Nadhamuni", "seq": 13, "corridor": "C5_red", "phase": "II", "status": "proposed", "geometry_note": "Approximate station points for Corridor 5 (Madhavaram Milk Colony → Sholinganallur), curated from public CMRL / Wikipedia station names and known Chennai place locations. NOT official CMRL CAD. Indicative for scenario planning only." }, "geometry": { "type": "Point", "coordinates": [ 80.2055, 13.098 ] } },
{ "type": "Feature", "properties": { "name": "Anna Nagar Depot", "seq": 14, "corridor": "C5_red", "phase": "II", "status": "proposed", "geometry_note": "Approximate station points for Corridor 5 (Madhavaram Milk Colony → Sholinganallur), curated from public CMRL / Wikipedia station names and known Chennai place locations. NOT official CMRL CAD. Indicative for scenario planning only." }, "geometry": { "type": "Point", "coordinates": [ 80.2, 13.0905 ] } },
{ "type": "Feature", "properties": { "name": "Thirumangalam", "seq": 15, "corridor": "C5_red", "phase": "II", "status": "proposed", "geometry_note": "Approximate station points for Corridor 5 (Madhavaram Milk Colony → Sholinganallur), curated from public CMRL / Wikipedia station names and known Chennai place locations. NOT official CMRL CAD. Indicative for scenario planning only." }, "geometry": { "type": "Point", "coordinates": [ 80.1948, 13.0852 ] } },
{ "type": "Feature", "properties": { "name": "Kendriya Vidyalaya", "seq": 16, "corridor": "C5_red", "phase": "II", "status": "proposed", "geometry_note": "Approximate station points for Corridor 5 (Madhavaram Milk Colony → Sholinganallur), curated from public CMRL / Wikipedia station names and known Chennai place locations. NOT official CMRL CAD. Indicative for scenario planning only." }, "geometry": { "type": "Point", "coordinates": [ 80.19, 13.08 ] } },
{ "type": "Feature", "properties": { "name": "Grain Market", "seq": 17, "corridor": "C5_red", "phase": "II", "status": "proposed", "geometry_note": "Approximate station points for Corridor 5 (Madhavaram Milk Colony → Sholinganallur), curated from public CMRL / Wikipedia station names and known Chennai place locations. NOT official CMRL CAD. Indicative for scenario planning only." }, "geometry": { "type": "Point", "coordinates": [ 80.186, 13.075 ] } },
{ "type": "Feature", "properties": { "name": "Sai Nagar Bus Stop", "seq": 18, "corridor": "C5_red", "phase": "II", "status": "proposed", "geometry_note": "Approximate station points for Corridor 5 (Madhavaram Milk Colony → Sholinganallur), curated from public CMRL / Wikipedia station names and known Chennai place locations. NOT official CMRL CAD. Indicative for scenario planning only." }, "geometry": { "type": "Point", "coordinates": [ 80.182, 13.068 ] } },
{ "type": "Feature", "properties": { "name": "Elango Nagar Bus Stop", "seq": 19, "corridor": "C5_red", "phase": "II", "status": "proposed", "geometry_note": "Approximate station points for Corridor 5 (Madhavaram Milk Colony → Sholinganallur), curated from public CMRL / Wikipedia station names and known Chennai place locations. NOT official CMRL CAD. Indicative for scenario planning only." }, "geometry": { "type": "Point", "coordinates": [ 80.1785, 13.06 ] } },
{ "type": "Feature", "properties": { "name": "Alwarthirunagar", "seq": 20, "corridor": "C5_red", "phase": "II", "status": "proposed", "geometry_note": "Approximate station points for Corridor 5 (Madhavaram Milk Colony → Sholinganallur), curated from public CMRL / Wikipedia station names and known Chennai place locations. NOT official CMRL CAD. Indicative for scenario planning only." }, "geometry": { "type": "Point", "coordinates": [ 80.176, 13.0505 ] } },
{ "type": "Feature", "properties": { "name": "Valasaravakkam", "seq": 21, "corridor": "C5_red", "phase": "II", "status": "proposed", "geometry_note": "Approximate station points for Corridor 5 (Madhavaram Milk Colony → Sholinganallur), curated from public CMRL / Wikipedia station names and known Chennai place locations. NOT official CMRL CAD. Indicative for scenario planning only." }, "geometry": { "type": "Point", "coordinates": [ 80.1705, 13.043 ] } },
{ "type": "Feature", "properties": { "name": "Karambakkam", "seq": 22, "corridor": "C5_red", "phase": "II", "status": "proposed", "geometry_note": "Approximate station points for Corridor 5 (Madhavaram Milk Colony → Sholinganallur), curated from public CMRL / Wikipedia station names and known Chennai place locations. NOT official CMRL CAD. Indicative for scenario planning only." }, "geometry": { "type": "Point", "coordinates": [ 80.165, 13.038 ] } },
{ "type": "Feature", "properties": { "name": "Alapakkam", "seq": 23, "corridor": "C5_red", "phase": "II", "status": "proposed", "geometry_note": "Approximate station points for Corridor 5 (Madhavaram Milk Colony → Sholinganallur), curated from public CMRL / Wikipedia station names and known Chennai place locations. NOT official CMRL CAD. Indicative for scenario planning only." }, "geometry": { "type": "Point", "coordinates": [ 80.16, 13.035 ] } },
{ "type": "Feature", "properties": { "name": "Porur Junction", "seq": 24, "corridor": "C5_red", "phase": "II", "status": "proposed", "geometry_note": "Approximate station points for Corridor 5 (Madhavaram Milk Colony → Sholinganallur), curated from public CMRL / Wikipedia station names and known Chennai place locations. NOT official CMRL CAD. Indicative for scenario planning only." }, "geometry": { "type": "Point", "coordinates": [ 80.1565, 13.0358 ] } },
{ "type": "Feature", "properties": { "name": "Mugalivakkam", "seq": 25, "corridor": "C5_red", "phase": "II", "status": "proposed", "geometry_note": "Approximate station points for Corridor 5 (Madhavaram Milk Colony → Sholinganallur), curated from public CMRL / Wikipedia station names and known Chennai place locations. NOT official CMRL CAD. Indicative for scenario planning only." }, "geometry": { "type": "Point", "coordinates": [ 80.162, 13.028 ] } },
{ "type": "Feature", "properties": { "name": "DLF IT SEZ", "seq": 26, "corridor": "C5_red", "phase": "II", "status": "proposed", "geometry_note": "Approximate station points for Corridor 5 (Madhavaram Milk Colony → Sholinganallur), curated from public CMRL / Wikipedia station names and known Chennai place locations. NOT official CMRL CAD. Indicative for scenario planning only." }, "geometry": { "type": "Point", "coordinates": [ 80.168, 13.022 ] } },
{ "type": "Feature", "properties": { "name": "Sathya Nagar", "seq": 27, "corridor": "C5_red", "phase": "II", "status": "proposed", "geometry_note": "Approximate station points for Corridor 5 (Madhavaram Milk Colony → Sholinganallur), curated from public CMRL / Wikipedia station names and known Chennai place locations. NOT official CMRL CAD. Indicative for scenario planning only." }, "geometry": { "type": "Point", "coordinates": [ 80.174, 13.016 ] } },
{ "type": "Feature", "properties": { "name": "CTC Nandambakkam", "seq": 28, "corridor": "C5_red", "phase": "II", "status": "proposed", "geometry_note": "Approximate station points for Corridor 5 (Madhavaram Milk Colony → Sholinganallur), curated from public CMRL / Wikipedia station names and known Chennai place locations. NOT official CMRL CAD. Indicative for scenario planning only." }, "geometry": { "type": "Point", "coordinates": [ 80.182, 13.01 ] } },
{ "type": "Feature", "properties": { "name": "Butt Road", "seq": 29, "corridor": "C5_red", "phase": "II", "status": "proposed", "geometry_note": "Approximate station points for Corridor 5 (Madhavaram Milk Colony → Sholinganallur), curated from public CMRL / Wikipedia station names and known Chennai place locations. NOT official CMRL CAD. Indicative for scenario planning only." }, "geometry": { "type": "Point", "coordinates": [ 80.19, 13.006 ] } },
{ "type": "Feature", "properties": { "name": "Alandur", "seq": 30, "corridor": "C5_red", "phase": "II", "status": "proposed", "geometry_note": "Approximate station points for Corridor 5 (Madhavaram Milk Colony → Sholinganallur), curated from public CMRL / Wikipedia station names and known Chennai place locations. NOT official CMRL CAD. Indicative for scenario planning only." }, "geometry": { "type": "Point", "coordinates": [ 80.2015, 13.0043 ] } },
{ "type": "Feature", "properties": { "name": "St. Thomas Mount", "seq": 31, "corridor": "C5_red", "phase": "II", "status": "proposed", "geometry_note": "Approximate station points for Corridor 5 (Madhavaram Milk Colony → Sholinganallur), curated from public CMRL / Wikipedia station names and known Chennai place locations. NOT official CMRL CAD. Indicative for scenario planning only." }, "geometry": { "type": "Point", "coordinates": [ 80.1986, 12.995 ] } },
{ "type": "Feature", "properties": { "name": "Adambakkam", "seq": 32, "corridor": "C5_red", "phase": "II", "status": "proposed", "geometry_note": "Approximate station points for Corridor 5 (Madhavaram Milk Colony → Sholinganallur), curated from public CMRL / Wikipedia station names and known Chennai place locations. NOT official CMRL CAD. Indicative for scenario planning only." }, "geometry": { "type": "Point", "coordinates": [ 80.205, 12.988 ] } },
{ "type": "Feature", "properties": { "name": "Vanuvampet", "seq": 33, "corridor": "C5_red", "phase": "II", "status": "proposed", "geometry_note": "Approximate station points for Corridor 5 (Madhavaram Milk Colony → Sholinganallur), curated from public CMRL / Wikipedia station names and known Chennai place locations. NOT official CMRL CAD. Indicative for scenario planning only." }, "geometry": { "type": "Point", "coordinates": [ 80.208, 12.98 ] } },
{ "type": "Feature", "properties": { "name": "Puzhithivakkam", "seq": 34, "corridor": "C5_red", "phase": "II", "status": "proposed", "geometry_note": "Approximate station points for Corridor 5 (Madhavaram Milk Colony → Sholinganallur), curated from public CMRL / Wikipedia station names and known Chennai place locations. NOT official CMRL CAD. Indicative for scenario planning only." }, "geometry": { "type": "Point", "coordinates": [ 80.205, 12.972 ] } },
{ "type": "Feature", "properties": { "name": "Madipakkam", "seq": 35, "corridor": "C5_red", "phase": "II", "status": "proposed", "geometry_note": "Approximate station points for Corridor 5 (Madhavaram Milk Colony → Sholinganallur), curated from public CMRL / Wikipedia station names and known Chennai place locations. NOT official CMRL CAD. Indicative for scenario planning only." }, "geometry": { "type": "Point", "coordinates": [ 80.2, 12.962 ] } },
{ "type": "Feature", "properties": { "name": "Kilkattalai", "seq": 36, "corridor": "C5_red", "phase": "II", "status": "proposed", "geometry_note": "Approximate station points for Corridor 5 (Madhavaram Milk Colony → Sholinganallur), curated from public CMRL / Wikipedia station names and known Chennai place locations. NOT official CMRL CAD. Indicative for scenario planning only." }, "geometry": { "type": "Point", "coordinates": [ 80.192, 12.955 ] } },
{ "type": "Feature", "properties": { "name": "Echangadu", "seq": 37, "corridor": "C5_red", "phase": "II", "status": "proposed", "geometry_note": "Approximate station points for Corridor 5 (Madhavaram Milk Colony → Sholinganallur), curated from public CMRL / Wikipedia station names and known Chennai place locations. NOT official CMRL CAD. Indicative for scenario planning only." }, "geometry": { "type": "Point", "coordinates": [ 80.188, 12.945 ] } },
{ "type": "Feature", "properties": { "name": "Kovilambakkam", "seq": 38, "corridor": "C5_red", "phase": "II", "status": "proposed", "geometry_note": "Approximate station points for Corridor 5 (Madhavaram Milk Colony → Sholinganallur), curated from public CMRL / Wikipedia station names and known Chennai place locations. NOT official CMRL CAD. Indicative for scenario planning only." }, "geometry": { "type": "Point", "coordinates": [ 80.185, 12.935 ] } },
{ "type": "Feature", "properties": { "name": "Vellakkal", "seq": 39, "corridor": "C5_red", "phase": "II", "status": "proposed", "geometry_note": "Approximate station points for Corridor 5 (Madhavaram Milk Colony → Sholinganallur), curated from public CMRL / Wikipedia station names and known Chennai place locations. NOT official CMRL CAD. Indicative for scenario planning only." }, "geometry": { "type": "Point", "coordinates": [ 80.188, 12.925 ] } },
{ "type": "Feature", "properties": { "name": "Medavakkam I", "seq": 40, "corridor": "C5_red", "phase": "II", "status": "proposed", "geometry_note": "Approximate station points for Corridor 5 (Madhavaram Milk Colony → Sholinganallur), curated from public CMRL / Wikipedia station names and known Chennai place locations. NOT official CMRL CAD. Indicative for scenario planning only." }, "geometry": { "type": "Point", "coordinates": [ 80.192, 12.918 ] } },
{ "type": "Feature", "properties": { "name": "Medavakkam II", "seq": 41, "corridor": "C5_red", "phase": "II", "status": "proposed", "geometry_note": "Approximate station points for Corridor 5 (Madhavaram Milk Colony → Sholinganallur), curated from public CMRL / Wikipedia station names and known Chennai place locations. NOT official CMRL CAD. Indicative for scenario planning only." }, "geometry": { "type": "Point", "coordinates": [ 80.198, 12.912 ] } },
{ "type": "Feature", "properties": { "name": "Perumbakkam", "seq": 42, "corridor": "C5_red", "phase": "II", "status": "proposed", "geometry_note": "Approximate station points for Corridor 5 (Madhavaram Milk Colony → Sholinganallur), curated from public CMRL / Wikipedia station names and known Chennai place locations. NOT official CMRL CAD. Indicative for scenario planning only." }, "geometry": { "type": "Point", "coordinates": [ 80.205, 12.905 ] } },
{ "type": "Feature", "properties": { "name": "Global Hospital", "seq": 43, "corridor": "C5_red", "phase": "II", "status": "proposed", "geometry_note": "Approximate station points for Corridor 5 (Madhavaram Milk Colony → Sholinganallur), curated from public CMRL / Wikipedia station names and known Chennai place locations. NOT official CMRL CAD. Indicative for scenario planning only." }, "geometry": { "type": "Point", "coordinates": [ 80.212, 12.9 ] } },
{ "type": "Feature", "properties": { "name": "ELCOT", "seq": 44, "corridor": "C5_red", "phase": "II", "status": "proposed", "geometry_note": "Approximate station points for Corridor 5 (Madhavaram Milk Colony → Sholinganallur), curated from public CMRL / Wikipedia station names and known Chennai place locations. NOT official CMRL CAD. Indicative for scenario planning only." }, "geometry": { "type": "Point", "coordinates": [ 80.22, 12.897 ] } },
{ "type": "Feature", "properties": { "name": "Sholinganallur", "seq": 45, "corridor": "C5_red", "phase": "II", "status": "proposed", "geometry_note": "Approximate station points for Corridor 5 (Madhavaram Milk Colony → Sholinganallur), curated from public CMRL / Wikipedia station names and known Chennai place locations. NOT official CMRL CAD. Indicative for scenario planning only." }, "geometry": { "type": "Point", "coordinates": [ 80.2278, 12.899 ] } }
]
}
