{
"type": "FeatureCollection",
"name": "corridor_aois",
"crs": { "type": "name", "properties": { "name": "urn:ogc:def:crs:OGC:1.3:CRS84" } },
"features": [
{ "type": "Feature", "properties": { "name": "OMR → Mahabalipuram", "label": "OMR → Mahabalipuram", "kind": "corridor_aoi", "note": "Buffer around OSM OMR / Rajiv Gandhi Salai toward Mahabalipuram." }, "geometry": { "type": "Polygon", "coordinates": [ [ [ 80.157736574690944, 12.615838450082739 ], [ 80.157736050185747, 12.615840490523309 ], [ 80.157656750185751, 12.616229890523309 ], [ 80.157432714127637, 12.617980109369862 ], [ 80.157415414127627, 12.618301809369862 ], [ 80.157407409985936, 12.619418802355755 ], [ 80.157503303291065, 12.620531700316416 ], [ 80.157570403291075, 12.621035100316416 ], [ 80.157599642893786, 12.621240843858025 ], [ 80.157755842893778, 12.622275543858025 ], [ 80.157919258958387, 12.623141346300368 ], [ 80.158052858958385, 12.623729746300368 ], [ 80.158242570220153, 12.624458547096975 ], [ 80.158365770220158, 12.624877447096976 ], [ 80.158650648031738, 12.625727408871981 ], [ 80.158719558283522, 12.62591006428832 ], [ 80.158998883996688, 12.627132986052844 ], [ 80.159035979109916, 12.627290493295144 ], [ 80.159164579109913, 12.627820493295143 ], [ 80.159421796202224, 12.628724473893413 ], [ 80.159748971515256, 12.629605551568297 ], [ 80.15991975606866, 12.630015510910116 ], [ 80.160016188222002, 12.630262756134899 ], [ 80.160065441394437, 12.63039738945926 ], [ 80.160078471867479, 12.630466406361348 ], [ 80.160063507946788, 12.630878422005587 ], [ 80.160054809502597, 12.631117879176335 ], [ 80.160050894746732, 12.631243890627427 ], [ 80.160030469188442, 12.63203529142533 ], [ 80.160017433131102, 12.632351970541784 ], [ 80.160002764403131, 12.632468434208461 ], [ 80.159931249377891, 12.633232692856824 ], [ 80.159902218783216, 12.633705573499178 ], [ 80.159814597899739, 12.634587437863694 ], [ 80.159759697747575, 12.636079727973247 ], [ 80.159770108195104, 12.636488077777736 ], [ 80.159792066846023, 12.637942814428373 ], [ 80.159820482117681, 12.638606616474922 ], [ 80.159870082117678, 12.639309316474922 ], [ 80.159899996065576, 12.639659867253208 ], [ 80.159983196065582, 12.640490867253208 ], [ 80.160040368699683, 12.640966085637496 ], [ 80.160095368699672, 12.641357285637495 ], [ 80.160447107699554, 12.643007291436048 ], [ 80.160538307699554, 12.643323991436048 ], [ 80.160918959594056, 12.644437371311939 ], [ 80.161406822033229, 12.645508119112906 ], [ 80.161648122033228, 12.645975519112906 ], [ 80.162198388458876, 12.646930969949347 ], [ 80.162261888458886, 12.647030369949347 ], [ 80.16236960171824, 12.647185457604525 ], [ 80.16236818553412, 12.6472653 ], [ 80.1623656, 12.6472653 ], [ 80.1623656, 12.647402 ], [ 80.162365892531213, 12.647407729520511 ], [ 80.162368364773442, 12.647522878956337 ], [ 80.162371767967116, 12.647522805890247 ], [ 80.162390916591974, 12.64789785112503 ], [ 80.162392096759646, 12.648184113795301 ], [ 80.162463242723064, 12.649081258676842 ], [ 80.162474928451417, 12.649180986569721 ], [ 80.162502886993906, 12.649464080143947 ], [ 80.162528486993907, 12.649693080143948 ], [ 80.162703230491417, 12.65079191883385 ], [ 80.162724630491411, 12.650895318833848 ], [ 80.162837101191698, 12.651386542290568 ], [ 80.162885401191701, 12.651578842290569 ], [ 80.1632271031649, 12.652703115443662 ], [ 80.163274003164901, 12.652834015443663 ], [ 80.163484531467319, 12.65333315572351 ], [ 80.16351964464468, 12.653445620805613 ], [ 80.163959552676275, 12.65449373700126 ], [ 80.164033326808337, 12.654648525211263 ], [ 80.164049187523531, 12.654756453640944 ], [ 80.164238668219468, 12.656124517779233 ], [ 80.164247443664067, 12.656186680150391 ], [ 80.164607543664061, 12.658690180150391 ], [ 80.164608571875334, 12.658690032253894 ], [ 80.164636277310962, 12.658905640667681 ], [ 80.164933789235363, 12.660811594966031 ], [ 80.16495658541298, 12.660961336270208 ], [ 80.164967938455405, 12.661034397534864 ], [ 80.165001136221306, 12.661243784561067 ], [ 80.165106579455752, 12.66192096444456 ], [ 80.165115241202912, 12.661975758687566 ], [ 80.165315700581829, 12.66322513342134 ], [ 80.165359062015895, 12.663524603113416 ], [ 80.165643976204748, 12.665493710053072 ], [ 80.165659879427125, 12.665600244885368 ], [ 80.166029993632463, 12.668005638149827 ], [ 80.166053345228818, 12.668158500018155 ], [ 80.166238683909512, 12.669407453380453 ], [ 80.16628914455643, 12.66971918815268 ], [ 80.166327626774574, 12.669938581028482 ], [ 80.166384855354536, 12.670312152476884 ], [ 80.166498736323916, 12.671069577809874 ], [ 80.16652497823064, 12.671275472996058 ], [ 80.166556809059784, 12.671626230191006 ], [ 80.166571992841739, 12.671782221919367 ], [ 80.166812692841745, 12.674098121919368 ], [ 80.166827665165385, 12.674234582571625 ], [ 80.166828814494934, 12.674244532481781 ], [ 80.1668871631, 12.675396524196641 ], [ 80.166904439482195, 12.675607219112461 ], [ 80.166921406041851, 12.676365081399551 ], [ 80.16692939352113, 12.676610040309745 ], [ 80.166940093521134, 12.676859840309746 ], [ 80.16697238054806, 12.677364563201508 ], [ 80.166985949859423, 12.67752389769274 ], [ 80.167044502250562, 12.678598067922691 ], [ 80.167175183583623, 12.681480076924394 ], [ 80.167233556349558, 12.68313516192767 ], [ 80.167249513656699, 12.683585883685051 ], [ 80.167285618603387, 12.684183524974642 ], [ 80.167296652962904, 12.684312587572469 ], [ 80.167310787949063, 12.684478550102451 ], [ 80.167390258811423, 12.685172257752674 ], [ 80.167457358811433, 12.685637757752673 ], [ 80.167494390921476, 12.685877480975618 ], [ 80.167538090921468, 12.686142580975618 ], [ 80.167541142495409, 12.686161085564834 ], [ 80.167635678889241, 12.686860366218365 ], [ 80.167660707649375, 12.687035742149567 ], [ 80.167883516344759, 12.688518614847082 ], [ 80.167891888921176, 12.688591350925877 ], [ 80.16792603629338, 12.689287702011503 ], [ 80.167966270747527, 12.690111959216102 ], [ 80.168025682687727, 12.690854663294775 ], [ 80.168070782687721, 12.691259763294775 ], [ 80.168280481762096, 12.692524461584533 ], [ 80.168367681762106, 12.692918561584532 ], [ 80.168765038824304, 12.694310359835423 ], [ 80.168897738824299, 12.694687359835424 ], [ 80.16895372174055, 12.694829915326798 ], [ 80.168992450646911, 12.695133967588635 ], [ 80.169016350646913, 12.695267267588635 ], [ 80.169033411686712, 12.695360311280957 ], [ 80.169094911686713, 12.695688411280956 ], [ 80.169157204915763, 12.69599816582066 ], [ 80.169245804915761, 12.69641056582066 ], [ 80.169525450535701, 12.697472850854794 ], [ 80.169901063883657, 12.698505113311406 ], [ 80.16995261118393, 12.698614449791631 ], [ 80.170122926379094, 12.699177399861759 ], [ 80.170313597641226, 12.69968316782712 ], [ 80.170613218139607, 12.700515275437361 ], [ 80.170629202058578, 12.700559395231579 ], [ 80.170998402058586, 12.70157229523158 ], [ 80.171103269233413, 12.70184932282042 ], [ 80.17123698476999, 12.702189806584178 ], [ 80.171289849392096, 12.702568649653758 ], [ 80.17138234939209, 12.703114049653758 ], [ 80.171507314729823, 12.703850706268129 ], [ 80.171516845625362, 12.704213201050234 ], [ 80.171614455910287, 12.705457218988501 ], [ 80.171652555910299, 12.705747918988502 ], [ 80.171678613585485, 12.705946483770923 ], [ 80.171970600676232, 12.707434817970027 ], [ 80.172102800676242, 12.707937917970026 ], [ 80.172354630257544, 12.708771861862118 ], [ 80.172556130257533, 12.709360961862119 ], [ 80.172968355263251, 12.710404149437332 ], [ 80.173109155263262, 12.710716849437333 ], [ 80.173398210318737, 12.711314123590112 ], [ 80.173550510318734, 12.711607823590112 ], [ 80.173568008119943, 12.711641436909703 ], [ 80.173726608119935, 12.711944936909703 ], [ 80.174260707999181, 12.712861515304398 ], [ 80.174282377426678, 12.713028418685981 ], [ 80.174443542914574, 12.713972754644574 ], [ 80.174679523443089, 12.714901225380432 ], [ 80.174814923443094, 12.715356925380432 ], [ 80.175163917893187, 12.71636501043298 ], [ 80.175411767575, 12.71691673720046 ], [ 80.175148161341212, 12.717764200234063 ], [ 80.1749272321848, 12.71877393537584 ], [ 80.174794015614538, 12.719798936885157 ], [ 80.1747495, 12.7208316 ], [ 80.1747495, 12.7208605 ], [ 80.174794015614538, 12.721893163114906 ], [ 80.174927232184814, 12.722918164624284 ], [ 80.175148161341269, 12.723927899766117 ], [ 80.175455163951014, 12.724914877043682 ], [ 80.175464963951015, 12.724942177043681 ], [ 80.175906225044017, 12.725981408735173 ], [ 80.176118370137885, 12.726755566730491 ], [ 80.176192258535636, 12.727119344079895 ], [ 80.176195216443986, 12.727142191695284 ], [ 80.176232766601288, 12.727408726041382 ], [ 80.176320666601299, 12.727985726041382 ], [ 80.176435713530608, 12.728616064421017 ], [ 80.176434278280766, 12.728616357906208 ], [ 80.17646437828077, 12.728763557906207 ], [ 80.176512721402133, 12.728988924007053 ], [ 80.176677021402128, 12.729720524007055 ], [ 80.176832634069925, 12.73033665070286 ], [ 80.177037434069916, 12.73106565070286 ], [ 80.177057628858094, 12.731137501071487 ], [ 80.177092744966657, 12.731417545403282 ], [ 80.177175670409184, 12.731952846597546 ], [ 80.177185111403986, 12.732053820448851 ], [ 80.177198482335129, 12.732188613777758 ], [ 80.177240882335127, 12.732592813777757 ], [ 80.177248977101385, 12.732667714547507 ], [ 80.177293477101387, 12.733067714547508 ], [ 80.177434870980278, 12.734002114497628 ], [ 80.1774947975629, 12.734314440690461 ], [ 80.177504079487036, 12.734405058549591 ], [ 80.177531832839676, 12.734629281679185 ], [ 80.177542997499728, 12.734719529347965 ], [ 80.17755082658141, 12.734802284682484 ], [ 80.177578510401219, 12.735095553924692 ], [ 80.177580402842281, 12.73511542489609 ], [ 80.177598660937022, 12.7353054633752 ], [ 80.177632286917984, 12.735676086173454 ], [ 80.177654669519868, 12.735899531082708 ], [ 80.177672769519873, 12.736064631082709 ], [ 80.177850749588757, 12.737190942939801 ], [ 80.178134831848624, 12.738295276482702 ], [ 80.17818803184862, 12.738467676482701 ], [ 80.178276000224969, 12.738752331405779 ], [ 80.1783583617202, 12.739008613874683 ], [ 80.178407061720208, 12.739154513874682 ], [ 80.17872789672461, 12.740006606024556 ], [ 80.179112413618796, 12.740831919837609 ], [ 80.179199613618792, 12.741001919837609 ], [ 80.179439891877365, 12.741446996777896 ], [ 80.179528291877361, 12.741602796777896 ], [ 80.180328320494255, 12.742831328379197 ], [ 80.181272190110676, 12.743953133099486 ], [ 80.181602390110683, 12.744300133099486 ], [ 80.181721292607023, 12.744423313484877 ], [ 80.183740392607021, 12.746485413484876 ], [ 80.184091022759262, 12.746829151982055 ], [ 80.184636822759259, 12.747342751982055 ], [ 80.185818205543015, 12.74831995205362 ], [ 80.188055305543017, 12.749941352053622 ], [ 80.189340463596622, 12.750872794129307 ], [ 80.189416192804714, 12.750927232655886 ], [ 80.189525592804713, 12.751005232655887 ], [ 80.189587070284219, 12.751048774438546 ], [ 80.189758473694283, 12.751169365771892 ], [ 80.190450120880087, 12.75165603851541 ], [ 80.190857567844105, 12.752007712638388 ], [ 80.191121235517414, 12.752228772367143 ], [ 80.191171241722031, 12.752269491243707 ], [ 80.191528209552672, 12.752945406280691 ], [ 80.191774678916914, 12.753442800687512 ], [ 80.191852730578802, 12.75359749754077 ], [ 80.19292377916392, 12.755682723121005 ], [ 80.193463005540224, 12.756741987312514 ], [ 80.194160381880579, 12.758153476260331 ], [ 80.194500276069647, 12.758764016169772 ], [ 80.194513559657196, 12.758791028075798 ], [ 80.195114959657204, 12.759876028075798 ], [ 80.195530763441639, 12.760625097721107 ], [ 80.196693970246343, 12.762728947576681 ], [ 80.1967043705165, 12.762747718511127 ], [ 80.197250892981344, 12.763732032776641 ], [ 80.198170570622679, 12.765396322959036 ], [ 80.198653047939146, 12.766373473249201 ], [ 80.1987837472156, 12.76665710585368 ], [ 80.198920035940915, 12.766940809661319 ], [ 80.19906171514728, 12.76728705629321 ], [ 80.199074639664616, 12.767322324646885 ], [ 80.19923725435136, 12.767741579346959 ], [ 80.199394299111262, 12.768125004874866 ], [ 80.201110922455769, 12.772806893038755 ], [ 80.201669003914162, 12.774403214815724 ], [ 80.20178496853741, 12.77473489965757 ], [ 80.201891322359913, 12.775026902629589 ], [ 80.202203622359917, 12.77585100262959 ], [ 80.202223180152984, 12.775902258033447 ], [ 80.202291750859402, 12.776080736396965 ], [ 80.202927058964761, 12.777738778681185 ], [ 80.203209317642887, 12.778485996488712 ], [ 80.203297141223288, 12.778711580416678 ], [ 80.20349967346354, 12.779216675608081 ], [ 80.203753395257706, 12.779909781021157 ], [ 80.203761074110233, 12.779906970060223 ], [ 80.203848147603253, 12.780141137875086 ], [ 80.203858390737793, 12.780172741100616 ], [ 80.203856294031183, 12.780173509841116 ], [ 80.203954994031193, 12.780442709841116 ], [ 80.203959064929023, 12.780441217279396 ], [ 80.203983032267729, 12.780503884860911 ], [ 80.20400267234686, 12.780556703167067 ], [ 80.204008344131012, 12.780570067980934 ], [ 80.204313897004269, 12.781368999385776 ], [ 80.204411775964829, 12.781589870360547 ], [ 80.204468495881656, 12.781744863454398 ], [ 80.204482295881661, 12.781776963454398 ], [ 80.204936417268868, 12.782718091781131 ], [ 80.205028107035815, 12.782888705477292 ], [ 80.205070004440387, 12.78298236980876 ], [ 80.205275404440386, 12.78342196980876 ], [ 80.20537746917806, 12.783634921230432 ], [ 80.205900169178065, 12.78469852123043 ], [ 80.206080457697865, 12.785050595100776 ], [ 80.206423558966137, 12.785694241330491 ], [ 80.206438267636102, 12.785725352137858 ], [ 80.206815742681783, 12.786457602279963 ], [ 80.207607742681773, 12.787872502279964 ], [ 80.207630086613506, 12.787912242180363 ], [ 80.207992886613511, 12.788554642180364 ], [ 80.208022262726544, 12.788606357924236 ], [ 80.208092762726551, 12.788729757924235 ], [ 80.208227583067114, 12.788965593199071 ], [ 80.208262051529957, 12.789025486227201 ], [ 80.208316451529953, 12.789119386227201 ], [ 80.208499575895374, 12.789435354040384 ], [ 80.208651619294542, 12.789697646516371 ], [ 80.208782296502392, 12.789923101553144 ], [ 80.208848020110537, 12.790052933350768 ], [ 80.209214591783677, 12.790777284571869 ], [ 80.209264831635949, 12.790875437384745 ], [ 80.209297032585383, 12.790937641592722 ], [ 80.209420123317713, 12.791276412691763 ], [ 80.209521586911379, 12.791545566473152 ], [ 80.20978163020736, 12.792211108614731 ], [ 80.210126357889635, 12.793130140837869 ], [ 80.210126878840924, 12.793131543946412 ], [ 80.210142412115744, 12.793194488182772 ], [ 80.210222156824983, 12.793500265036077 ], [ 80.210271682507042, 12.793680420101195 ], [ 80.210512279842689, 12.794626900704669 ], [ 80.210616719285341, 12.795005198368234 ], [ 80.210642778714472, 12.795193931809488 ], [ 80.210767812784241, 12.79609917856485 ], [ 80.210771929306773, 12.796129678254511 ], [ 80.210788099839291, 12.796245245280883 ], [ 80.211001499839284, 12.797718145280882 ], [ 80.211108541257417, 12.798340918467822 ], [ 80.21113928771392, 12.798495331255427 ], [ 80.21120316376215, 12.798845325753041 ], [ 80.211299719580211, 12.799374462874315 ], [ 80.211328280479265, 12.799536524339421 ], [ 80.21135926928828, 12.799869381770471 ], [ 80.211364723181262, 12.799926484199393 ], [ 80.211546701326043, 12.801784861223986 ], [ 80.211584745660559, 12.802224667596912 ], [ 80.211593064444543, 12.802316706658088 ], [ 80.211618807085557, 12.802589789972972 ], [ 80.211626700054282, 12.802681155099902 ], [ 80.211753300054283, 12.803978855099903 ], [ 80.211762016776774, 12.804064988650902 ], [ 80.211862573979843, 12.805024086544011 ], [ 80.211867244659416, 12.80511790047937 ], [ 80.211918631408182, 12.805780234231825 ], [ 80.211953531408184, 12.806111034231826 ], [ 80.2121312143544, 12.807259166444835 ], [ 80.212419092545531, 12.808384735169964 ], [ 80.212539692545533, 12.808776235169963 ], [ 80.212768851074017, 12.809448708584503 ], [ 80.21288585107402, 12.809761408584503 ], [ 80.213299216545678, 12.810733513757805 ], [ 80.213796470500142, 12.811665499801634 ], [ 80.213868870500136, 12.811787899801635 ], [ 80.214511540641993, 12.812762812423321 ], [ 80.214600040641997, 12.812883812423321 ], [ 80.21476653594388, 12.81310600895582 ], [ 80.214839835943877, 12.813201508955821 ], [ 80.2150969616265, 12.813524830843894 ], [ 80.215290461626495, 12.813759730843893 ], [ 80.215688199375634, 12.814218411560418 ], [ 80.215781210737759, 12.814320346281514 ], [ 80.216328267709883, 12.81493491433738 ], [ 80.216553479007658, 12.815188984690128 ], [ 80.216613230319595, 12.81529832616236 ], [ 80.216864671507565, 12.815736289266113 ], [ 80.216998447971889, 12.815958346580999 ], [ 80.217132579140127, 12.816193446496078 ], [ 80.217262136882169, 12.816561785718534 ], [ 80.217365287765006, 12.816860502598161 ], [ 80.217443374360656, 12.817480444848085 ], [ 80.217553604026733, 12.818185693763075 ], [ 80.217667104026731, 12.818792893763074 ], [ 80.217695197957596, 12.818942968796348 ], [ 80.217997602240828, 12.820187130904264 ], [ 80.218099102240828, 12.820525030904264 ], [ 80.218410448155666, 12.821429102438222 ], [ 80.218422983623498, 12.821461277310899 ], [ 80.218463772094978, 12.822343968470348 ], [ 80.218497772094977, 12.822692568470348 ], [ 80.218518778244857, 12.822907931523012 ], [ 80.218666284292908, 12.823947253117105 ], [ 80.21889111821568, 12.824914069248621 ], [ 80.218679870709224, 12.825439629836481 ], [ 80.218652500893882, 12.825507747735355 ], [ 80.218507259272002, 12.825887718908856 ], [ 80.218080659272005, 12.827063118908857 ], [ 80.21792189168653, 12.827500656255351 ], [ 80.217847582765543, 12.827705456436199 ], [ 80.217529261305771, 12.828721183611297 ], [ 80.217517561305769, 12.828765283611297 ], [ 80.217305821615469, 12.829718211806663 ], [ 80.216989421615466, 12.831477311806662 ], [ 80.216959246257289, 12.831652518435485 ], [ 80.216668546257296, 12.833418518435485 ], [ 80.216637885531114, 12.833614918402944 ], [ 80.216498418474302, 12.834559560768225 ], [ 80.216392010013891, 12.835206378324925 ], [ 80.216335937780556, 12.83549777294782 ], [ 80.216274291410897, 12.835733621220964 ], [ 80.216241289746577, 12.835847901520067 ], [ 80.216237368352552, 12.83586151090242 ], [ 80.216216668352558, 12.83593351090242 ], [ 80.216199880801682, 12.835992469066399 ], [ 80.216062980801681, 12.836477969066399 ], [ 80.215945488155839, 12.836933283606195 ], [ 80.215924436264586, 12.837009144606395 ], [ 80.21592110411332, 12.837021101149203 ], [ 80.215902180625747, 12.837089790967751 ], [ 80.215884780625743, 12.837153690967751 ], [ 80.215440481071823, 12.838786158661986 ], [ 80.21529325899813, 12.839387997612766 ], [ 80.215110058998135, 12.840230597612766 ], [ 80.214950157952188, 12.841129529905752 ], [ 80.214680657952186, 12.84307022990575 ], [ 80.214577732801644, 12.844204018324335 ], [ 80.214533557270499, 12.845228850668995 ], [ 80.214528181791465, 12.845353283054148 ], [ 80.214517531274979, 12.845758282697711 ], [ 80.214499231274971, 12.847702982697712 ], [ 80.214497118017988, 12.847930400389245 ], [ 80.21449668687859, 12.848087562660869 ], [ 80.214500586878586, 12.849112462660868 ], [ 80.214500715132772, 12.849138654994931 ], [ 80.214500815132766, 12.849155354994933 ], [ 80.214501839567887, 12.849255976354669 ], [ 80.214503896874746, 12.849399098187945 ], [ 80.214502831090215, 12.849627109464477 ], [ 80.214501834805546, 12.849846962330824 ], [ 80.214501247528176, 12.849965396598618 ], [ 80.214504765430831, 12.850321475293452 ], [ 80.214526565430845, 12.851203275293452 ], [ 80.21453640736101, 12.851475904897503 ], [ 80.214596453705724, 12.852740379381117 ], [ 80.214598548069688, 12.852860739486147 ], [ 80.214554638261859, 12.85329841616204 ], [ 80.214450750667396, 12.854336229102785 ], [ 80.214317318218477, 12.855581340598651 ], [ 80.214300588276885, 12.855748488733727 ], [ 80.214217488276887, 12.856641788733729 ], [ 80.214168048229212, 12.857980352606674 ], [ 80.214181948229211, 12.858714852606674 ], [ 80.214283047786509, 12.860058559934146 ], [ 80.21431192258926, 12.860277254316481 ], [ 80.214365197891553, 12.860681648713905 ], [ 80.214433753088812, 12.861134971237618 ], [ 80.214463853088816, 12.861311171237618 ], [ 80.214505450248069, 12.861554528630956 ], [ 80.214465678885688, 12.862282291934973 ], [ 80.214448001283031, 12.86300660361268 ], [ 80.214452001283036, 12.863697203612681 ], [ 80.21445502929592, 12.863906075059148 ], [ 80.214485329295911, 12.865211875059147 ], [ 80.214502081932821, 12.865566664460715 ], [ 80.214368177332332, 12.866969751778539 ], [ 80.214313900250602, 12.868107347517057 ], [ 80.214313800250608, 12.868596647517059 ], [ 80.214387857902182, 12.869930229249789 ], [ 80.214535157902176, 12.871249929249789 ], [ 80.214562900311947, 12.871498409155212 ], [ 80.214570443265359, 12.87156126583324 ], [ 80.214599222997748, 12.872968571221332 ], [ 80.214599940421721, 12.873004890809259 ], [ 80.214613857382787, 12.873392330047428 ], [ 80.214623257382783, 12.873572730047428 ], [ 80.214644197356677, 12.87389241488539 ], [ 80.214722597356669, 12.87488581488539 ], [ 80.214769950285358, 12.87536369089235 ], [ 80.214850667917062, 12.876040057307087 ], [ 80.214849903388142, 12.876337827162962 ], [ 80.214849399235618, 12.876412945889891 ], [ 80.214848273681952, 12.876488575834056 ], [ 80.214816426936125, 12.876989138217173 ], [ 80.214788362031328, 12.877401007121064 ], [ 80.214761858509291, 12.877790283135896 ], [ 80.214743167548491, 12.87804590427584 ], [ 80.214723484576851, 12.878314109616662 ], [ 80.214693775951957, 12.878948644555951 ], [ 80.21467327946057, 12.879957471863564 ], [ 80.214671282958122, 12.880055599959071 ], [ 80.214669558385836, 12.880164790085985 ], [ 80.214645158385835, 12.882334990085985 ], [ 80.214644696994327, 12.882385473845044 ], [ 80.214637655987175, 12.883386230005028 ], [ 80.214624050182067, 12.88375520327445 ], [ 80.214623298287833, 12.884618712441371 ], [ 80.214639438293446, 12.885078135520178 ], [ 80.214650836031709, 12.885554665386447 ], [ 80.214652143681647, 12.885610894333414 ], [ 80.214734171824432, 12.886759923985167 ], [ 80.214925997311383, 12.887895794021469 ], [ 80.215007597311384, 12.888268894021468 ], [ 80.215145370615758, 12.888833062843116 ], [ 80.215271770484236, 12.889301198844187 ], [ 80.215304840845548, 12.891941964460836 ], [ 80.215311041941888, 12.892436851980552 ], [ 80.215378390153035, 12.893564897484337 ], [ 80.215393012095177, 12.893701368944214 ], [ 80.215519954713102, 12.894887534280992 ], [ 80.215595316780679, 12.896176185336016 ], [ 80.215655815118097, 12.897278196380171 ], [ 80.215662788218637, 12.897405405657228 ], [ 80.215680953153935, 12.8977361891929 ], [ 80.215746568737586, 12.898930372914748 ], [ 80.215769064040131, 12.89933988740014 ], [ 80.215772985171029, 12.89940775837022 ], [ 80.215828885171035, 12.900329958370222 ], [ 80.215845554770468, 12.900604558363646 ], [ 80.215855560149052, 12.900770092894264 ], [ 80.21587870762913, 12.90115162882609 ], [ 80.215888990942659, 12.901321253580258 ], [ 80.215908909817983, 12.901597137523504 ], [ 80.215911290084321, 12.90162554308602 ], [ 80.215922247352523, 12.90190629587188 ], [ 80.215929666669737, 12.902098109953174 ], [ 80.215941260365682, 12.90233645813591 ], [ 80.215995041415781, 12.903254010479442 ], [ 80.216007822081636, 12.903476607076451 ], [ 80.216034502623373, 12.903941503814323 ], [ 80.216061562199769, 12.904460803393361 ], [ 80.216070966708216, 12.904642359903624 ], [ 80.216072936880181, 12.904680313113074 ], [ 80.216079699996598, 12.904809561030561 ], [ 80.216084154087326, 12.904889551470863 ], [ 80.216089154087328, 12.904974251470863 ], [ 80.216158016734923, 12.906131987374811 ], [ 80.21617256149527, 12.906377156246119 ], [ 80.216185067217978, 12.906587336158369 ], [ 80.216230726868048, 12.907355393147864 ], [ 80.216234807521914, 12.907424764263503 ], [ 80.21627878521727, 12.907964391379483 ], [ 80.216306485217274, 12.908230091379483 ], [ 80.216335171100468, 12.908479850952453 ], [ 80.216406971100469, 12.909052050952454 ], [ 80.216438670850565, 12.909286021323821 ], [ 80.216480070850551, 12.90957052132382 ], [ 80.216550472979421, 12.910054123005997 ], [ 80.216595605931502, 12.910339931768375 ], [ 80.216697431841553, 12.910937871886796 ], [ 80.21691701725355, 12.912381673931499 ], [ 80.216934911052022, 12.912499333153823 ], [ 80.216983353431871, 12.912817811797179 ], [ 80.217034573951963, 12.913154403964093 ], [ 80.217095368804422, 12.913553371814103 ], [ 80.217208890717188, 12.914300416531461 ], [ 80.217450202488891, 12.916187729578198 ], [ 80.217490979309929, 12.916478352853229 ], [ 80.21771413510946, 12.917938804421929 ], [ 80.217739713044665, 12.918126769453528 ], [ 80.217828323772309, 12.918778976340693 ], [ 80.217886553405606, 12.919207641349169 ], [ 80.217935605509965, 12.919570942749839 ], [ 80.218081719194188, 12.920652127534094 ], [ 80.218278252222873, 12.922215989614411 ], [ 80.218293134258346, 12.922329992679975 ], [ 80.21846133425835, 12.923572092679976 ], [ 80.218472484975237, 12.923652396022806 ], [ 80.218644461996746, 12.924860929087481 ], [ 80.218646709871891, 12.924876755497735 ], [ 80.218669982787461, 12.925115949192701 ], [ 80.218787470568657, 12.925944393222679 ], [ 80.21879295881152, 12.925988766250002 ], [ 80.219013171148873, 12.927772945790911 ], [ 80.219047634643744, 12.928029397335894 ], [ 80.21923880533457, 12.92934438057738 ], [ 80.219254106876335, 12.92946392725174 ], [ 80.219391318750212, 12.930535301036327 ], [ 80.219614270757731, 12.931764368516509 ], [ 80.219721580014379, 12.932219559409861 ], [ 80.21985758939897, 12.932796850343987 ], [ 80.219958549070313, 12.933194753626454 ], [ 80.219996849070313, 12.933335553626454 ], [ 80.220102803534147, 12.933724161755011 ], [ 80.220123585238269, 12.933800671975144 ], [ 80.220126834145148, 12.93381260886955 ], [ 80.220148134145148, 12.93389070886955 ], [ 80.220317123748288, 12.934455330979166 ], [ 80.220341723748291, 12.934530730979166 ], [ 80.220627553683656, 12.935405517042692 ], [ 80.220661547312545, 12.935509573329892 ], [ 80.220827535981797, 12.936030338451298 ], [ 80.221032382247486, 12.936619613289793 ], [ 80.221168982247477, 12.936981913289792 ], [ 80.221187923439729, 12.937031813970753 ], [ 80.221364923439737, 12.937495013970754 ], [ 80.221543761528693, 12.937932854083856 ], [ 80.221590075858856, 12.938050775866955 ], [ 80.221620159351289, 12.938127414796883 ], [ 80.221965445920915, 12.938921538594288 ], [ 80.222259145920916, 12.939535438594287 ], [ 80.222430880233617, 12.939894354763222 ], [ 80.222779806465695, 12.940629881500245 ], [ 80.222820864629753, 12.940716429064608 ], [ 80.222893340665294, 12.940872050999182 ], [ 80.222946277887914, 12.940985861188961 ], [ 80.222985427064657, 12.941070076294585 ], [ 80.2230772943348, 12.941263175323867 ], [ 80.223411677874452, 12.941950181505316 ], [ 80.223956280411926, 12.943094586026602 ], [ 80.224052168722224, 12.943291432801276 ], [ 80.224533311528987, 12.944256690266631 ], [ 80.224615837728734, 12.94456857891662 ], [ 80.224620036362964, 12.944567467951769 ], [ 80.224725624387673, 12.944986211188015 ], [ 80.224753655565763, 12.945081495322652 ], [ 80.224844300056503, 12.945426038598498 ], [ 80.225366154618968, 12.946973081716397 ], [ 80.225492489949275, 12.947277462184925 ], [ 80.225546325489574, 12.947407242520546 ], [ 80.226143413368533, 12.948642053550762 ], [ 80.226877508641252, 12.949800663211564 ], [ 80.22714180864125, 12.950169363211563 ], [ 80.227935432924696, 12.95116109098093 ], [ 80.228170932924698, 12.95142539098093 ], [ 80.228782771777873, 12.952063133636058 ], [ 80.229003571777866, 12.952276933636059 ], [ 80.22912807235528, 12.952395699176627 ], [ 80.229327397317107, 12.952887961013177 ], [ 80.229387891021233, 12.953067551697316 ], [ 80.229546661076867, 12.953567318428666 ], [ 80.230006948234106, 12.955015992769285 ], [ 80.230063798318781, 12.955194935654422 ], [ 80.230206672807938, 12.955617294294088 ], [ 80.230213172807936, 12.955635394294088 ], [ 80.230220685970892, 12.955656254956756 ], [ 80.230416385970898, 12.956198054956754 ], [ 80.230650167490253, 12.956794891748242 ], [ 80.230801607374232, 12.957153038147373 ], [ 80.231162593051579, 12.958130092358708 ], [ 80.231390966493237, 12.958702545350889 ], [ 80.231472266493228, 12.95889204535089 ], [ 80.231508322627874, 12.958975219158777 ], [ 80.231664554416597, 12.959331914454005 ], [ 80.231816214069539, 12.959738911970479 ], [ 80.231852183378834, 12.959834202163879 ], [ 80.232163283378824, 12.960647902163878 ], [ 80.23225613039655, 12.960883279021287 ], [ 80.232330230396556, 12.961065479021288 ], [ 80.232452265518305, 12.961354648376963 ], [ 80.232658465518298, 12.961825948376962 ], [ 80.232814139606248, 12.962167143492428 ], [ 80.232920839606251, 12.962391643492428 ], [ 80.232968736204384, 12.962489955127541 ], [ 80.233203839858959, 12.963118902500122 ], [ 80.233479595434488, 12.963793412333537 ], [ 80.233674695434487, 12.964232112333537 ], [ 80.233819295640671, 12.964557061884317 ], [ 80.234079993558737, 12.965143232968817 ], [ 80.234175318568944, 12.965352160854323 ], [ 80.234281618568943, 12.965579360854324 ], [ 80.234473465039997, 12.965989360191786 ], [ 80.234855205868186, 12.966805319966758 ], [ 80.234970363987102, 12.967044536448446 ], [ 80.235313663987114, 12.967737936448446 ], [ 80.235516380381412, 12.968124285350143 ], [ 80.235623919419126, 12.968338862078069 ], [ 80.235666340822391, 12.968429178614054 ], [ 80.235888146687216, 12.969035800789191 ], [ 80.236073835845346, 12.969581616828089 ], [ 80.236361989895599, 12.970342900868964 ], [ 80.236528989895589, 12.970742600868965 ], [ 80.236699660428286, 12.971131584374536 ], [ 80.236986860428289, 12.971755884374536 ], [ 80.237041565404908, 12.971873130271611 ], [ 80.237216142028942, 12.972242085830715 ], [ 80.237255930037151, 12.972333369977866 ], [ 80.23729566867523, 12.97242978860624 ], [ 80.237453045647158, 12.972842120691332 ], [ 80.237538666261059, 12.973060043297837 ], [ 80.237819666261061, 12.973755243297836 ], [ 80.237862100038114, 12.973858832059996 ], [ 80.237963685508802, 12.974103560693917 ], [ 80.238082277501832, 12.974412207108923 ], [ 80.238119358073419, 12.974511056920043 ], [ 80.238275460082434, 12.975106741694402 ], [ 80.238290977012667, 12.975165350078315 ], [ 80.238386607145856, 12.975522897768029 ], [ 80.238387748753496, 12.975527175694467 ], [ 80.238400845511535, 12.975581091643319 ], [ 80.238549792973316, 12.976195126059043 ], [ 80.238697497671509, 12.976746454962305 ], [ 80.238782178252691, 12.977034909452648 ], [ 80.238810334025189, 12.977132813036912 ], [ 80.239133414367572, 12.978255992414415 ], [ 80.239280997411143, 12.97876918571966 ], [ 80.239566288318287, 12.979761254100204 ], [ 80.239685874124078, 12.980151933711587 ], [ 80.23984477412408, 12.980641133711588 ], [ 80.240008138800192, 12.981110735913314 ], [ 80.240112838800187, 12.981392735913314 ], [ 80.240414713731283, 12.982122195528389 ], [ 80.240124450038678, 12.98323373570676 ], [ 80.239883174022154, 12.984386378150129 ], [ 80.239756038531709, 12.985557119490252 ], [ 80.239744267951636, 12.986734684848036 ], [ 80.239847975639037, 12.987907733625361 ], [ 80.240066162832193, 12.989064968721244 ], [ 80.240396728269175, 12.990195245329108 ], [ 80.240836488424108, 12.991287678267344 ], [ 80.241381208166302, 12.992331746809572 ], [ 80.24202564154686, 12.993317396004986 ], [ 80.242763582320066, 12.994235133513024 ], [ 80.243587923712852, 12.995076121019794 ], [ 80.244490726866985, 12.995832259355879 ], [ 80.245463297294563, 12.996496266495754 ], [ 80.246496268610713, 12.997061747687676 ], [ 80.247579692736977, 12.997523257038647 ], [ 80.248703135706762, 12.997876349961329 ], [ 80.249855778150135, 12.998117625977857 ], [ 80.251026519490253, 12.998244761468296 ], [ 80.252204084848046, 12.998256532048375 ], [ 80.253377133625364, 12.998152824360972 ], [ 80.254534368721252, 12.997934637167809 ], [ 80.255664645329119, 12.99760407173083 ], [ 80.256757078267341, 12.997164311575901 ], [ 80.257801146809584, 12.996619591833706 ], [ 80.258786796004998, 12.99597515845314 ], [ 80.25970453351303, 12.995237217679941 ], [ 80.260545521019793, 12.994412876287155 ], [ 80.26130165935588, 12.993510073133022 ], [ 80.261965666495755, 12.992537502705442 ], [ 80.262531147687682, 12.991504531389293 ], [ 80.262992657038652, 12.990421107263026 ], [ 80.263243321084218, 12.989623564345337 ], [ 80.263423074609861, 12.989198130616504 ], [ 80.263772876906529, 12.988073658708608 ], [ 80.263802760284094, 12.987957836828063 ], [ 80.26381263771529, 12.987919713409402 ], [ 80.263816479198368, 12.987904847467226 ], [ 80.263860679198373, 12.987733347467227 ], [ 80.263879467497816, 12.98765947719629 ], [ 80.264250767497813, 12.98617997719629 ], [ 80.26454329120898, 12.984538504287519 ], [ 80.264588191208972, 12.984119804287518 ], [ 80.264607804159695, 12.983921373139669 ], [ 80.264616904159695, 12.983820773139669 ], [ 80.264657300087492, 12.983188617967384 ], [ 80.264685100087505, 12.982446017967384 ], [ 80.264686798468531, 12.982398088584532 ], [ 80.264725398468528, 12.981243588584533 ], [ 80.264728254702163, 12.98115780312779 ], [ 80.264732241603852, 12.981011075613273 ], [ 80.264738241603865, 12.980726075613273 ], [ 80.264740413653811, 12.980581537364461 ], [ 80.264744813653806, 12.980092837364461 ], [ 80.264735244428763, 12.979493645650326 ], [ 80.264731844428766, 12.979410645650326 ], [ 80.264705767555441, 12.978971276966483 ], [ 80.26469876755543, 12.978881276966483 ], [ 80.264691682587753, 12.978790886287172 ], [ 80.264689322616249, 12.978761258450721 ], [ 80.264676022616257, 12.978596858450722 ], [ 80.264574119823749, 12.977730474694845 ], [ 80.264513619823745, 12.977339274694843 ], [ 80.264424429197192, 12.976834257317851 ], [ 80.264352329197195, 12.976471457317851 ], [ 80.26412298605463, 12.975521551593156 ], [ 80.263817113528162, 12.974593456145262 ], [ 80.263726313528153, 12.974351556145262 ], [ 80.263014969759467, 12.972801382857448 ], [ 80.262886069759475, 12.972566182857449 ], [ 80.262391306432534, 12.971743327258931 ], [ 80.262339840688441, 12.971671448807914 ], [ 80.26232721793852, 12.971627085814527 ], [ 80.262009757568237, 12.970510209740358 ], [ 80.261998037299719, 12.970468833640883 ], [ 80.261994643258745, 12.970456875271612 ], [ 80.261879073848348, 12.970050486118643 ], [ 80.261812068342493, 12.969814741564637 ], [ 80.261687008853031, 12.969343825247069 ], [ 80.261401346032585, 12.968237159183811 ], [ 80.261210504660951, 12.967576638726856 ], [ 80.261170254398522, 12.967450949582851 ], [ 80.26106164098438, 12.967087630063693 ], [ 80.260764997245516, 12.966218121155544 ], [ 80.260493697245522, 12.965512521155544 ], [ 80.260478817390734, 12.965474019280986 ], [ 80.260228617390737, 12.964829919280985 ], [ 80.260086156382727, 12.964479631168324 ], [ 80.259908802628644, 12.964062504623625 ], [ 80.259851495094026, 12.9639144235516 ], [ 80.259770335819425, 12.963700250897732 ], [ 80.259725945869405, 12.963584905578331 ], [ 80.259504145869414, 12.963017305578331 ], [ 80.259109629862948, 12.962118097720555 ], [ 80.258982629862942, 12.961858097720555 ], [ 80.258913557744449, 12.961718980481594 ], [ 80.258820395649238, 12.961534353453601 ], [ 80.258790716385747, 12.961472107619883 ], [ 80.258734937792369, 12.961346364626062 ], [ 80.258624606479628, 12.961009167533783 ], [ 80.258400514549294, 12.960383475320072 ], [ 80.258307320154827, 12.960144343576552 ], [ 80.258250192966301, 12.959987168013857 ], [ 80.258160409824754, 12.959731586025683 ], [ 80.258093309824744, 12.959550586025683 ], [ 80.257823612770039, 12.958917253513732 ], [ 80.257826325993946, 12.95891612404094 ], [ 80.257790025993941, 12.958828924040938 ], [ 80.257742469893088, 12.958726704817737 ], [ 80.257646187660754, 12.958500604209657 ], [ 80.25755248766076, 12.958306704209658 ], [ 80.257548064703201, 12.958308841554283 ], [ 80.257375206203534, 12.957937291716396 ], [ 80.257345008171797, 12.957873688563982 ], [ 80.257252180306281, 12.95768254273475 ], [ 80.257016480306291, 12.957207942734749 ], [ 80.257010994441359, 12.957196910745534 ], [ 80.256851504498201, 12.95687659150801 ], [ 80.256696494042416, 12.956520239878929 ], [ 80.256523409561609, 12.956140528152345 ], [ 80.256394448661183, 12.955870171335091 ], [ 80.256335442969316, 12.955739288611698 ], [ 80.25619696548506, 12.955414325156399 ], [ 80.256189426974643, 12.955396673780102 ], [ 80.256066626974643, 12.955109773780103 ], [ 80.255911523668274, 12.95476270533741 ], [ 80.255594888533992, 12.954083283725817 ], [ 80.255356824459625, 12.953507181626527 ], [ 80.255352225342563, 12.953495169850246 ], [ 80.255080204413474, 12.952796699963697 ], [ 80.255017983213904, 12.952636830182975 ], [ 80.255010586549233, 12.952617872925988 ], [ 80.254808086549232, 12.952100172925986 ], [ 80.254608367650377, 12.951620466658037 ], [ 80.254528767650385, 12.951440366658037 ], [ 80.254465957235396, 12.951300672159428 ], [ 80.254194330154547, 12.950706719771736 ], [ 80.254192326599807, 12.950702055670044 ], [ 80.254057219902734, 12.950381255193543 ], [ 80.254026746729664, 12.950309550618421 ], [ 80.25393034206742, 12.950084736903525 ], [ 80.253894233075684, 12.950000325045876 ], [ 80.253843420797224, 12.949881599713372 ], [ 80.253610188203723, 12.949321734132212 ], [ 80.253410212230762, 12.948838664600816 ], [ 80.253303278434089, 12.948550029819188 ], [ 80.253241883540696, 12.948384313521531 ], [ 80.253021192180015, 12.947788532111588 ], [ 80.253001204573494, 12.947727383678263 ], [ 80.252937604573489, 12.947536783678263 ], [ 80.252908543475726, 12.947450776693431 ], [ 80.252846625240949, 12.947269788633902 ], [ 80.252828689185591, 12.947209037478666 ], [ 80.252725077590839, 12.946875996211908 ], [ 80.252696492555827, 12.946788612489971 ], [ 80.25236528993463, 12.945733590814534 ], [ 80.252241463315016, 12.945360633398295 ], [ 80.252134063315012, 12.945054033398295 ], [ 80.252092397863251, 12.944935102872291 ], [ 80.251990576776052, 12.944644285109542 ], [ 80.251749291570988, 12.944012763008443 ], [ 80.251664310977375, 12.943807849351074 ], [ 80.251602576985732, 12.943640340474573 ], [ 80.251444822650626, 12.943235078106083 ], [ 80.251312207855506, 12.942911849907649 ], [ 80.251153215340281, 12.942509215302142 ], [ 80.25110243311326, 12.942382721534583 ], [ 80.250726233113255, 12.941460821534584 ], [ 80.25029067272088, 12.94051337193023 ], [ 80.250147772720879, 12.94023507193023 ], [ 80.249966253647415, 12.939895108858899 ], [ 80.249804653647416, 12.939603808858898 ], [ 80.249306992011341, 12.938785511001713 ], [ 80.249206692011342, 12.938634511001714 ], [ 80.248552141549908, 12.937741424093906 ], [ 80.248468841549908, 12.937638124093905 ], [ 80.247432747403153, 12.936509130033311 ], [ 80.247336783699453, 12.936417116286814 ], [ 80.24697448062625, 12.935388682496678 ], [ 80.246690480626242, 12.934731782496677 ], [ 80.246540283265219, 12.934398409594955 ], [ 80.246354983265221, 12.934003309594956 ], [ 80.246283848679624, 12.933854310209007 ], [ 80.246103048679629, 12.933482210209007 ], [ 80.24605094742266, 12.933376309932601 ], [ 80.245631554029771, 12.932534335358559 ], [ 80.245483492138092, 12.932236638308368 ], [ 80.245238956222508, 12.931735723648135 ], [ 80.245009093139942, 12.931264718091516 ], [ 80.24479678323145, 12.930820069037896 ], [ 80.244710484824097, 12.930637632760417 ], [ 80.244629544448486, 12.930466821389762 ], [ 80.244003597094363, 12.929128052123046 ], [ 80.243930688715196, 12.92897655275986 ], [ 80.243694281839183, 12.928392564882246 ], [ 80.24362018055713, 12.928194999907705 ], [ 80.243572604137796, 12.928071511532165 ], [ 80.243554756072811, 12.928016036383093 ], [ 80.243487766772091, 12.92781502318728 ], [ 80.24332503130816, 12.927247035044775 ], [ 80.24322494485493, 12.926895476893639 ], [ 80.243224494783973, 12.926893752072079 ], [ 80.243215634604766, 12.92685664584439 ], [ 80.24320946457577, 12.92680914325555 ], [ 80.24317283201492, 12.926493153499194 ], [ 80.243164525255793, 12.926413592007584 ], [ 80.243099602105303, 12.925899500585313 ], [ 80.24294056889552, 12.924827033269478 ], [ 80.242931615030159, 12.92476526537367 ], [ 80.242797143409291, 12.923648743430769 ], [ 80.242729797170725, 12.923089304852844 ], [ 80.242707705358185, 12.922904237475786 ], [ 80.24269194527858, 12.922777909506733 ], [ 80.242572445278569, 12.921859709506732 ], [ 80.242543098609659, 12.921648851501795 ], [ 80.242483598609667, 12.921247451501795 ], [ 80.242337518528771, 12.920262456825501 ], [ 80.242187012952726, 12.919150776055812 ], [ 80.241984923184376, 12.917548955862264 ], [ 80.241971699973476, 12.917447621420013 ], [ 80.24177608191998, 12.91599670510919 ], [ 80.241731019258367, 12.915655460014911 ], [ 80.24166228715535, 12.915079099809144 ], [ 80.241614800956327, 12.914680355402686 ], [ 80.241551976191602, 12.914226713320042 ], [ 80.241487460378224, 12.91381836716792 ], [ 80.241404453209668, 12.91324680112348 ], [ 80.241381734360118, 12.913083538770149 ], [ 80.241304177524441, 12.912519408630875 ], [ 80.24130189310074, 12.912519722694354 ], [ 80.241261332262241, 12.912210379542596 ], [ 80.241162647133734, 12.911587580578569 ], [ 80.241131284682339, 12.911342351985976 ], [ 80.24110081767391, 12.911103793318661 ], [ 80.241061046182296, 12.910819485666302 ], [ 80.241017346182304, 12.910532185666302 ], [ 80.240940539981253, 12.910027244898815 ], [ 80.24086163695064, 12.909508524974997 ], [ 80.240826899364421, 12.909280606548812 ], [ 80.240765940828183, 12.90888006436194 ], [ 80.240748583229859, 12.908765719957042 ], [ 80.24052752642308, 12.907312389516571 ], [ 80.240521764269474, 12.9072694352806 ], [ 80.240486489063954, 12.907025510937466 ], [ 80.240392501983877, 12.906419594229627 ], [ 80.240325014943153, 12.905984477783401 ], [ 80.240312027819357, 12.905900827698218 ], [ 80.240293563498085, 12.905721413096257 ], [ 80.240252532987, 12.905091984467468 ], [ 80.240238980148121, 12.904882855260219 ], [ 80.240228722932116, 12.904725961322326 ], [ 80.240147199483999, 12.903474524677412 ], [ 80.24001324190381, 12.900901976535565 ], [ 80.240006919348744, 12.900779970980759 ], [ 80.240001564328338, 12.900677305718716 ], [ 80.239991910395801, 12.900475370249023 ], [ 80.239953608793897, 12.89993256584517 ], [ 80.239949977811264, 12.899893686400446 ], [ 80.23994749247818, 12.899851435737821 ], [ 80.239940323860921, 12.899729770211863 ], [ 80.239939498757295, 12.899715903389518 ], [ 80.23989651750999, 12.899000537342427 ], [ 80.239812323815528, 12.897564672033782 ], [ 80.23980252652818, 12.89741384694511 ], [ 80.239781996270267, 12.897125843851043 ], [ 80.239772851781765, 12.896976504058692 ], [ 80.239724004555598, 12.896088041151501 ], [ 80.2397169996934, 12.895960752505257 ], [ 80.239672509629614, 12.895150993620998 ], [ 80.239606285978269, 12.893926602954382 ], [ 80.239569143528513, 12.893240718588659 ], [ 80.239499605433863, 12.892446449237328 ], [ 80.239410695552721, 12.891712516904292 ], [ 80.239409175250003, 12.891610296137925 ], [ 80.23937697433945, 12.889441574690299 ], [ 80.239363352122112, 12.888130705775653 ], [ 80.239279445991116, 12.886833377907065 ], [ 80.239196645991115, 12.886139577907064 ], [ 80.23915011840073, 12.88575000920553 ], [ 80.238820064296533, 12.884045536862427 ], [ 80.238739928269737, 12.883748693278667 ], [ 80.238740203659134, 12.883736133226297 ], [ 80.23874832626386, 12.882580374648194 ], [ 80.238766912800372, 12.880926076596658 ], [ 80.238775929185621, 12.880414187590297 ], [ 80.238787654500314, 12.879751970800378 ], [ 80.238805971238165, 12.87959213636184 ], [ 80.238855305637799, 12.87916126306134 ], [ 80.238919526253284, 12.878368897956925 ], [ 80.238934028401175, 12.878065374129081 ], [ 80.238950155340021, 12.877840148857787 ], [ 80.238958830311589, 12.877708902903512 ], [ 80.238974589776092, 12.877448822180995 ], [ 80.238984248342405, 12.877290441404886 ], [ 80.238987433135236, 12.877238004844433 ], [ 80.239006952564722, 12.876263351224196 ], [ 80.239004852564733, 12.876161451224197 ], [ 80.239002627248894, 12.876070287164142 ], [ 80.238972327248888, 12.874996287164141 ], [ 80.238870988957927, 12.873742404343902 ], [ 80.238726454083093, 12.872662779623921 ], [ 80.238694211338895, 12.872254215994111 ], [ 80.238661866116828, 12.870680509700815 ], [ 80.238612770932676, 12.869815150335953 ], [ 80.238552670932677, 12.869169350335953 ], [ 80.238540949793901, 12.869043549416059 ], [ 80.238518269758202, 12.868822339081857 ], [ 80.238490140616918, 12.86857095964306 ], [ 80.238467410492817, 12.868367080312703 ], [ 80.238457332373926, 12.868276770166684 ], [ 80.238520016412565, 12.867619913769433 ], [ 80.238590104154952, 12.866885642185848 ], [ 80.238632406097807, 12.865209014132432 ], [ 80.238596881026808, 12.864415043236646 ], [ 80.238554814535846, 12.863352966840923 ], [ 80.238554255318945, 12.863257089102904 ], [ 80.238590819902981, 12.862634997891474 ], [ 80.23862371461729, 12.862075487796345 ], [ 80.238605879181051, 12.860410462886572 ], [ 80.238526379181053, 12.859420662886571 ], [ 80.238508514939753, 12.859198720216263 ], [ 80.238375730543524, 12.858140147685145 ], [ 80.238320270780747, 12.857815608764808 ], [ 80.238422450187173, 12.856862354186394 ], [ 80.238431158451206, 12.856778322615252 ], [ 80.238538816462196, 12.855702541451793 ], [ 80.238653574142688, 12.854558560187703 ], [ 80.238712098502759, 12.853177404336117 ], [ 80.238697498502759, 12.852222204336117 ], [ 80.238696955535957, 12.852222212635233 ], [ 80.238685569386007, 12.851833653138216 ], [ 80.238683769386014, 12.851795353138217 ], [ 80.238620113057308, 12.850467939470986 ], [ 80.238603610149852, 12.849798545040112 ], [ 80.238602942534612, 12.849746304147239 ], [ 80.238600271383874, 12.849532414225605 ], [ 80.238594760355952, 12.849087778102721 ], [ 80.238600649957064, 12.848136387760993 ], [ 80.238614675694393, 12.84664818320962 ], [ 80.238617829588122, 12.846531213558888 ], [ 80.238634792241257, 12.846088468619858 ], [ 80.238640318594975, 12.84577858345251 ], [ 80.238755842271644, 12.844946047077631 ], [ 80.238786010650244, 12.844796349009389 ], [ 80.239056986624448, 12.843803398394231 ], [ 80.239142514380731, 12.843490129284561 ], [ 80.239159936927109, 12.843426281183925 ], [ 80.239174010459379, 12.843374245911132 ], [ 80.239223010459384, 12.843191445911131 ], [ 80.239298974520096, 12.842907985829347 ], [ 80.239519498515151, 12.842101776330997 ], [ 80.239567088968286, 12.841922349405204 ], [ 80.239749488968286, 12.841212549405203 ], [ 80.239776124358258, 12.841106912235428 ], [ 80.239819924358258, 12.840929812235428 ], [ 80.239930747834975, 12.840437519091472 ], [ 80.240033447834975, 12.839931919091473 ], [ 80.240066192360715, 12.839770699877391 ], [ 80.240193707155001, 12.839022185100918 ], [ 80.240200793451663, 12.838970820186967 ], [ 80.240501506193425, 12.836961749656885 ], [ 80.240528915261393, 12.836778756752224 ], [ 80.240574949184705, 12.836471181081995 ], [ 80.240794393125896, 12.83526790235438 ], [ 80.240878080618103, 12.834829577618418 ], [ 80.240952743360481, 12.834622906019524 ], [ 80.241074572787539, 12.834273308533174 ], [ 80.241095046568816, 12.834225426540744 ], [ 80.241132848105593, 12.834156711794019 ], [ 80.241198539331435, 12.834037265330037 ], [ 80.241280209678095, 12.833899440904043 ], [ 80.241860293799718, 12.832792934196524 ], [ 80.242184193799716, 12.832088134196525 ], [ 80.242607167004991, 12.83104035714525 ], [ 80.242929714906552, 12.829957441667124 ], [ 80.242983614906549, 12.829739441667124 ], [ 80.243235734399505, 12.828394856052276 ], [ 80.243258534399516, 12.828218156052277 ], [ 80.243334793134949, 12.827415482055432 ], [ 80.243361193134945, 12.826984082055432 ], [ 80.243363557783212, 12.826944361503642 ], [ 80.243373044278954, 12.826780429397461 ], [ 80.243380177053325, 12.826674109463065 ], [ 80.243391477053322, 12.826489109463065 ], [ 80.24341330096594, 12.825866937508716 ], [ 80.243414882092864, 12.825693571591669 ], [ 80.243417634904461, 12.825449805378518 ], [ 80.243418038495349, 12.825407444945442 ], [ 80.243420938495348, 12.825033844945443 ], [ 80.2433583292311, 12.823712965038474 ], [ 80.243283919591931, 12.823244789345964 ], [ 80.243167478012225, 12.822390288183669 ], [ 80.24315917801222, 12.822346488183669 ], [ 80.242917943025532, 12.821321572050202 ], [ 80.242796636649103, 12.820891714600101 ], [ 80.242687948057821, 12.820484381668592 ], [ 80.242610386090405, 12.820207100423055 ], [ 80.242502466584213, 12.819838400920316 ], [ 80.242509275596049, 12.819028823310035 ], [ 80.242454136827902, 12.817774457819244 ], [ 80.242268233594643, 12.816532719901602 ], [ 80.241953601114616, 12.815317203768119 ], [ 80.241917601114622, 12.815203103768118 ], [ 80.241686141102164, 12.814538152150757 ], [ 80.241647741102156, 12.814437452150758 ], [ 80.241281158491532, 12.813578184851579 ], [ 80.241266782764711, 12.813547820747349 ], [ 80.241209197559598, 12.813071936080012 ], [ 80.240975130897723, 12.811756647212835 ], [ 80.240925630897721, 12.811546947212834 ], [ 80.240589524115023, 12.810387414865621 ], [ 80.24051454450273, 12.810170253370186 ], [ 80.240358293092484, 12.809698806647102 ], [ 80.240172997921775, 12.809139524889265 ], [ 80.240098604800906, 12.808915040269152 ], [ 80.240064944783541, 12.808813546118385 ], [ 80.239980469014654, 12.808567771152608 ], [ 80.239660042210645, 12.807667356226796 ], [ 80.239653594555122, 12.807647036342715 ], [ 80.239477315510825, 12.807132275996887 ], [ 80.239424215510823, 12.806987975996886 ], [ 80.239160501456567, 12.806331687105123 ], [ 80.239072201456565, 12.806129387105123 ], [ 80.238848558528957, 12.805646505735105 ], [ 80.238652758528957, 12.805247205735105 ], [ 80.238408117558976, 12.804775063602291 ], [ 80.238351217558986, 12.804670963602291 ], [ 80.238260222171746, 12.804504560016428 ], [ 80.238102627546084, 12.804216386978332 ], [ 80.238028435770019, 12.803985298250721 ], [ 80.237623374406908, 12.803021375773085 ], [ 80.237135942812756, 12.802096372155901 ], [ 80.236569841477674, 12.801217309854806 ], [ 80.236532841477683, 12.801165009854806 ], [ 80.235680344875504, 12.800095022586564 ], [ 80.235560404008751, 12.799975421108407 ], [ 80.235521486420524, 12.799549634228795 ], [ 80.235495103138291, 12.799307681850275 ], [ 80.235489201695188, 12.799233006879668 ], [ 80.235471079546258, 12.79902643669185 ], [ 80.235448579546258, 12.798793136691851 ], [ 80.235426390933242, 12.798563318192391 ], [ 80.235391349182152, 12.798200158226454 ], [ 80.235369860747582, 12.797946531958647 ], [ 80.235349074708054, 12.797725517819231 ], [ 80.235293790819128, 12.797190797179164 ], [ 80.235254328198153, 12.796781804393248 ], [ 80.235130655252121, 12.795868535950438 ], [ 80.235027506946253, 12.795278293713697 ], [ 80.234895849092183, 12.794435967537472 ], [ 80.234878247403117, 12.794326661954223 ], [ 80.234867238297866, 12.794260249303045 ], [ 80.234858213409808, 12.794196654771913 ], [ 80.234836013409819, 12.794049454771914 ], [ 80.234804955287927, 12.79385441760693 ], [ 80.234632696255304, 12.792827177062865 ], [ 80.234486034520572, 12.791653883184972 ], [ 80.234358648021754, 12.790854763201413 ], [ 80.234253048021756, 12.790310963201414 ], [ 80.234236810857823, 12.790228878331146 ], [ 80.234200310857815, 12.790047678331145 ], [ 80.23411788775617, 12.789670025649425 ], [ 80.233938887756182, 12.788908925649425 ], [ 80.233890570784837, 12.788711036045436 ], [ 80.233545570784827, 12.787348336045437 ], [ 80.233405013068449, 12.786840321483888 ], [ 80.233361603771556, 12.786695852390112 ], [ 80.233327169602845, 12.786571126352863 ], [ 80.233116456582906, 12.785911055805586 ], [ 80.233120304315051, 12.785909795451081 ], [ 80.233080604315049, 12.785788595451081 ], [ 80.233045653229851, 12.785689260265782 ], [ 80.233037972549141, 12.78566520009559 ], [ 80.233013450197873, 12.785597735378044 ], [ 80.232907137432051, 12.785295581718614 ], [ 80.232293037432058, 12.783664581718615 ], [ 80.232261551582368, 12.783581883759839 ], [ 80.23201381101903, 12.782938335860587 ], [ 80.231696359072671, 12.782071555596026 ], [ 80.231263461549133, 12.781106037654324 ], [ 80.231279809480455, 12.781098629085022 ], [ 80.231153009480465, 12.780818829085023 ], [ 80.231034088105744, 12.780564377468044 ], [ 80.230758988105734, 12.779993277468044 ], [ 80.230594578450109, 12.779664914922984 ], [ 80.230240678450116, 12.778984314922983 ], [ 80.230117584262601, 12.77874774233493 ], [ 80.229922167519831, 12.778387347596437 ], [ 80.22943170793279, 12.777518576193774 ], [ 80.229409846918742, 12.777479805591941 ], [ 80.229365438328699, 12.777401071783908 ], [ 80.229167706900441, 12.777050970681538 ], [ 80.229026336530836, 12.776796990601412 ], [ 80.228642867558136, 12.776106290411969 ], [ 80.22788771453142, 12.774745955170127 ], [ 80.227697189334307, 12.774402829080312 ], [ 80.227689513213846, 12.774389026197543 ], [ 80.227647105063753, 12.77431288761751 ], [ 80.227554865757952, 12.774114120962906 ], [ 80.227405165757958, 12.773806620962906 ], [ 80.227284952317049, 12.773566551382471 ], [ 80.227123724637536, 12.773253375938319 ], [ 80.226667196464277, 12.772060063844632 ], [ 80.226652996464281, 12.772028263844632 ], [ 80.226217191311903, 12.771178419287226 ], [ 80.226216270156669, 12.771175798699325 ], [ 80.226043135790846, 12.77071383115919 ], [ 80.225963135790849, 12.77051303115919 ], [ 80.225628666514254, 12.769673606298435 ], [ 80.22561590010811, 12.769641699117889 ], [ 80.225448200108104, 12.769224299117889 ], [ 80.225385904705149, 12.769069252779675 ], [ 80.225295936465059, 12.768829926784402 ], [ 80.225274886550977, 12.768774349778557 ], [ 80.225071386550979, 12.768241049778556 ], [ 80.224802387837968, 12.767536344807656 ], [ 80.224698406019542, 12.767254737207169 ], [ 80.224599639708188, 12.766985021925931 ], [ 80.224464318699432, 12.766615437664163 ], [ 80.224332671073412, 12.766256015327027 ], [ 80.224231388459714, 12.765979481768003 ], [ 80.224099517863394, 12.765584221072233 ], [ 80.223845846831424, 12.764822908835907 ], [ 80.223742301927828, 12.764525243987912 ], [ 80.222649501927819, 12.761511843987911 ], [ 80.222595812743123, 12.761366722112369 ], [ 80.222004912743131, 12.759800622112369 ], [ 80.221890710385324, 12.75950948789106 ], [ 80.221823723888349, 12.759345055880203 ], [ 80.22166698287333, 12.758935768569819 ], [ 80.221601803758773, 12.7587592357795 ], [ 80.221557126725727, 12.758640176696408 ], [ 80.221342526725735, 12.758077376696409 ], [ 80.221126186550208, 12.757548231200067 ], [ 80.220943986550196, 12.757131231200066 ], [ 80.220845192442212, 12.756911176833999 ], [ 80.220701586064393, 12.756599723615604 ], [ 80.220506838225177, 12.756171635187915 ], [ 80.220476808527991, 12.75610571973165 ], [ 80.220289044938255, 12.755712674508269 ], [ 80.219679844938256, 12.754494774508268 ], [ 80.219334782124733, 12.75385423592201 ], [ 80.218825797530002, 12.752974383155246 ], [ 80.218133613477249, 12.751732274863031 ], [ 80.217793624579258, 12.751115163296017 ], [ 80.216645498281366, 12.749022510967235 ], [ 80.216596601328021, 12.748934269693867 ], [ 80.216371670502369, 12.748532345518493 ], [ 80.215954619731804, 12.747763428215181 ], [ 80.215711416488872, 12.747336157558822 ], [ 80.215593250080047, 12.747138107594996 ], [ 80.215199190840579, 12.74633025887846 ], [ 80.21507037268421, 12.746073991472954 ], [ 80.214929352029543, 12.745801610476841 ], [ 80.214705683810735, 12.745369373630771 ], [ 80.21424584332253, 12.744457320563349 ], [ 80.213813849758353, 12.743602516979225 ], [ 80.213685014941362, 12.743347433990222 ], [ 80.213640164770652, 12.743259534114356 ], [ 80.211731664770653, 12.739556834114357 ], [ 80.21089141556412, 12.738166631498055 ], [ 80.210650415564118, 12.737822831498054 ], [ 80.209768976712525, 12.736711464422221 ], [ 80.209613276712531, 12.736537364422222 ], [ 80.209577891796656, 12.736497853973704 ], [ 80.209173025379926, 12.736067640799705 ], [ 80.208973325379915, 12.735865640799705 ], [ 80.208093929954217, 12.735060380214275 ], [ 80.207980114446627, 12.73496611507286 ], [ 80.207782126459961, 12.734797090069991 ], [ 80.20692841460108, 12.734068106892915 ], [ 80.206816420998877, 12.733972483110566 ], [ 80.206581975382335, 12.733772256577627 ], [ 80.205904671656342, 12.733193994708666 ], [ 80.205815805131337, 12.733118061349378 ], [ 80.20557751680991, 12.73291448781502 ], [ 80.20476485815206, 12.732278573550817 ], [ 80.204440398612476, 12.732046460187888 ], [ 80.203562023249091, 12.731417936883087 ], [ 80.201062233604546, 12.729619674516933 ], [ 80.201025985432622, 12.729232376741439 ], [ 80.200915412885195, 12.728436104724842 ], [ 80.20089898800407, 12.728130518888072 ], [ 80.20087098800407, 12.727848018888073 ], [ 80.200729197202932, 12.726848220527904 ], [ 80.200594600932675, 12.726260292485176 ], [ 80.2005983578849, 12.726259451888559 ], [ 80.200588557884899, 12.726215651888559 ], [ 80.20054734963891, 12.726053894784773 ], [ 80.20050384968188, 12.725863883244733 ], [ 80.200462249681877, 12.725711883244733 ], [ 80.200460353112931, 12.725712402305707 ], [ 80.200414813144249, 12.725533641641098 ], [ 80.200344300916257, 12.725287293871235 ], [ 80.200295474045888, 12.725116399824916 ], [ 80.200241982843536, 12.724926837613594 ], [ 80.200142763232179, 12.724573827779729 ], [ 80.200024132053912, 12.724151551759409 ], [ 80.199993463932287, 12.724014991821598 ], [ 80.19997677613668, 12.723907810900975 ], [ 80.199933483556009, 12.723573408304716 ], [ 80.199815003228693, 12.722881940501486 ], [ 80.200047134100075, 12.722303961879145 ], [ 80.200366531711666, 12.721226725019161 ], [ 80.200583775468715, 12.72012433704897 ], [ 80.200696960786019, 12.719006462650505 ], [ 80.200703060786012, 12.718893762650504 ], [ 80.200714370105914, 12.717858575315695 ], [ 80.200709770105917, 12.717715875315696 ], [ 80.200620706232868, 12.716593205625383 ], [ 80.200426788385286, 12.715483829460405 ], [ 80.200382088385282, 12.715283929460405 ], [ 80.200126928235562, 12.714329284770619 ], [ 80.199939928235565, 12.713729784770619 ], [ 80.199760681854954, 12.713199051722835 ], [ 80.199704273605249, 12.713044063057859 ], [ 80.199503675740544, 12.712405848554425 ], [ 80.199298775740544, 12.711828748554426 ], [ 80.199150174769969, 12.711432515937096 ], [ 80.19909317476997, 12.711288315937097 ], [ 80.199053775905625, 12.711203351216325 ], [ 80.198914632782035, 12.710819508116758 ], [ 80.198709468507062, 12.710292624568208 ], [ 80.198698341694779, 12.710265927624254 ], [ 80.198554694397501, 12.70989956975361 ], [ 80.198497105605227, 12.709719625943851 ], [ 80.198487193990971, 12.709690036250258 ], [ 80.198472026340511, 12.709641577398482 ], [ 80.198466995941899, 12.709643151916348 ], [ 80.198229234243598, 12.708897994517946 ], [ 80.198150634243589, 12.708686094517946 ], [ 80.19798850261094, 12.708274461083837 ], [ 80.197964974905005, 12.708066578881361 ], [ 80.197905177781905, 12.707615084068706 ], [ 80.197846277781906, 12.707227084068705 ], [ 80.197649920343125, 12.706223763715842 ], [ 80.197603220343126, 12.706029463715844 ], [ 80.197276835813625, 12.704912817729864 ], [ 80.197211735813625, 12.704724517729863 ], [ 80.196755770414953, 12.703594885093958 ], [ 80.196187627166694, 12.702517300950451 ], [ 80.195498753803335, 12.701357537221924 ], [ 80.195410527980329, 12.700653586006585 ], [ 80.195343527980327, 12.700273786006585 ], [ 80.195102391923811, 12.698907954345511 ], [ 80.195042356196083, 12.698314535294557 ], [ 80.194800500682305, 12.696843688332432 ], [ 80.194744600682313, 12.696599588332433 ], [ 80.194589977349352, 12.695996698541199 ], [ 80.194561177349343, 12.6958953985412 ], [ 80.194486083852567, 12.695631508808212 ], [ 80.194167192965423, 12.694667762350768 ], [ 80.193977892965421, 12.694167662350768 ], [ 80.193931215400823, 12.694046336724675 ], [ 80.193643755207162, 12.693311070894287 ], [ 80.193399234702113, 12.69258611206836 ], [ 80.193206737151826, 12.692056755371436 ], [ 80.192890591779715, 12.691247068077562 ], [ 80.192745605253108, 12.690850722999791 ], [ 80.192606073460169, 12.689823846796132 ], [ 80.192549673460164, 12.689529446796133 ], [ 80.192447234551324, 12.689048316535528 ], [ 80.192394134551321, 12.688821816535528 ], [ 80.191954996780822, 12.687411323384403 ], [ 80.191935617854284, 12.68701586308557 ], [ 80.191871494693061, 12.68623281163045 ], [ 80.191793994693057, 12.68555861163045 ], [ 80.191739225463323, 12.685145512747946 ], [ 80.191498604901483, 12.683544504305122 ], [ 80.19139248694232, 12.682759681059702 ], [ 80.19134071381265, 12.682414634839947 ], [ 80.191308272414901, 12.682217956166253 ], [ 80.191250139594118, 12.680570123076071 ], [ 80.19124528835475, 12.680449759194257 ], [ 80.191109388354747, 12.677451959194258 ], [ 80.191103861424637, 12.67734132997788 ], [ 80.191032161424644, 12.67602782997788 ], [ 80.191007045148211, 12.675667468472639 ], [ 80.190996561207427, 12.675543894875211 ], [ 80.190977777991804, 12.674707106360563 ], [ 80.190968965677598, 12.674443592636637 ], [ 80.190960703086148, 12.674257684329051 ], [ 80.190959138898833, 12.67422207606508 ], [ 80.19094950007333, 12.674035714163466 ], [ 80.190860100073337, 12.672533714163466 ], [ 80.19084694647475, 12.672339338748138 ], [ 80.190815446474744, 12.671923938748138 ], [ 80.190776537672036, 12.67150731793733 ], [ 80.190534662302738, 12.669328448479629 ], [ 80.190493904654915, 12.668879719415127 ], [ 80.190447123514133, 12.668450530341275 ], [ 80.190376123514127, 12.667892530341275 ], [ 80.190336868705856, 12.667610741384751 ], [ 80.190200068705863, 12.666707241384751 ], [ 80.190120828563963, 12.666183976286261 ], [ 80.190109448177978, 12.666110369288152 ], [ 80.190061909423704, 12.665809089197552 ], [ 80.189882345102433, 12.664608093568985 ], [ 80.189855711546826, 12.664424932571968 ], [ 80.18983778616446, 12.664305857032335 ], [ 80.189478506524239, 12.661997943708302 ], [ 80.18914014749636, 12.65967351765077 ], [ 80.189113570945139, 12.659499870883776 ], [ 80.188902954022979, 12.658188017154835 ], [ 80.188799499494593, 12.657523185180983 ], [ 80.188793538604173, 12.657485277618475 ], [ 80.188765318786324, 12.657307668143394 ], [ 80.18870732705372, 12.656923813913357 ], [ 80.188471566787314, 12.655350540349758 ], [ 80.188457607309473, 12.655248504060946 ], [ 80.188096485572558, 12.652755946517448 ], [ 80.187893506681391, 12.651342450027549 ], [ 80.187710416567157, 12.650065835395404 ], [ 80.187667722253394, 12.649750910262981 ], [ 80.187540693352091, 12.648995774878783 ], [ 80.187468293352097, 12.648635974878783 ], [ 80.187235638053068, 12.647683014744533 ], [ 80.187135038053057, 12.647333614744534 ], [ 80.186744312938373, 12.646194844172467 ], [ 80.18660871293838, 12.645856044172467 ], [ 80.186505719319598, 12.645624427399136 ], [ 80.186506375303878, 12.645517234708235 ], [ 80.186457738574831, 12.644362002068206 ], [ 80.186424038574827, 12.643989702068206 ], [ 80.186402844009379, 12.643776727458997 ], [ 80.186362644009378, 12.643406327458997 ], [ 80.186310272826262, 12.642991344533092 ], [ 80.18619907282627, 12.642218844533092 ], [ 80.186013435008817, 12.641226997558938 ], [ 80.185923435008817, 12.640837497558937 ], [ 80.185478791223034, 12.639355986309898 ], [ 80.185347391223033, 12.639002686309897 ], [ 80.184870154234289, 12.637893736906026 ], [ 80.184562754234292, 12.637268136906027 ], [ 80.184224922998283, 12.636663180377079 ], [ 80.184136835703669, 12.636480237424299 ], [ 80.183905428640543, 12.636075862042487 ], [ 80.183920369525595, 12.635932306322207 ], [ 80.183962208164417, 12.635530695330884 ], [ 80.18396835996667, 12.635470154835717 ], [ 80.183999663658511, 12.63515412711873 ], [ 80.184056667188599, 12.634579599420585 ], [ 80.184099131226162, 12.634017527181756 ], [ 80.184145831226161, 12.633118827181756 ], [ 80.184156098017468, 12.63287241469197 ], [ 80.184165705869432, 12.632566188225956 ], [ 80.18510581451963, 12.632847063872891 ], [ 80.186244680395333, 12.633070318635308 ], [ 80.187399786383878, 12.633182516349301 ], [ 80.187678186383891, 12.633196016349302 ], [ 80.188780809476953, 12.633198766821518 ], [ 80.189060757999826, 12.633186591338202 ], [ 80.189086195982696, 12.633185653532381 ], [ 80.189142031438266, 12.633183464894516 ], [ 80.189233531438262, 12.633179664894516 ], [ 80.190035738942427, 12.633145854968189 ], [ 80.191058513366229, 12.633058805219575 ], [ 80.19140901336624, 12.633013805219575 ], [ 80.19214081347026, 12.632871125194942 ], [ 80.192879548860574, 12.632900296661546 ], [ 80.193807973547848, 12.632865021826888 ], [ 80.194014873547857, 12.632849121826887 ], [ 80.19468874920031, 12.632766404069763 ], [ 80.195066481205629, 12.632747330105779 ], [ 80.196238276065301, 12.632630302223404 ], [ 80.197392957674069, 12.632398981881071 ], [ 80.198519405816825, 12.632055596820129 ], [ 80.199606772182193, 12.631603454026431 ], [ 80.200644584837633, 12.631046907882244 ], [ 80.201622849079953, 12.630391318231176 ], [ 80.202532143689751, 12.629642998759948 ], [ 80.203363711662831, 12.628809156194144 ], [ 80.204109544545048, 12.627897820893494 ], [ 80.204762459558026, 12.626917769515131 ], [ 80.20531616877328, 12.625878440489581 ], [ 80.205765339668375, 12.624789843123512 ], [ 80.206105646482044, 12.623662461204649 ], [ 80.206333811873634, 12.62250715203716 ], [ 80.206447638485713, 12.621335041879885 ], [ 80.206446030105781, 12.620157418794376 ], [ 80.206329002223399, 12.618985623934703 ], [ 80.206097681881076, 12.617830942325934 ], [ 80.205754296820132, 12.616704494183173 ], [ 80.205302154026427, 12.615617127817815 ], [ 80.204745607882245, 12.614579315162372 ], [ 80.20409001823117, 12.613601050920042 ], [ 80.203341698759942, 12.612691756310255 ], [ 80.202507856194146, 12.61186018833717 ], [ 80.201596520893489, 12.611114355454953 ], [ 80.200616469515126, 12.61046144044197 ], [ 80.199577140489581, 12.609907731226718 ], [ 80.198488543123517, 12.609458560331628 ], [ 80.197361161204654, 12.609118253517963 ], [ 80.196205852037153, 12.608890088126364 ], [ 80.195033741879882, 12.608776261514285 ], [ 80.193856118794372, 12.608777869894222 ], [ 80.192832896702313, 12.608829538540393 ], [ 80.192612265657658, 12.60880751034955 ], [ 80.192305965657667, 12.60878731034955 ], [ 80.191373312402575, 12.608762351333711 ], [ 80.191005855799105, 12.608592342419898 ], [ 80.189690327775992, 12.608159509059208 ], [ 80.189455127776, 12.608096909059208 ], [ 80.188021301554485, 12.607807540232779 ], [ 80.187894001554483, 12.607789840232778 ], [ 80.18773574953164, 12.607768908570154 ], [ 80.187538149531633, 12.607744108570154 ], [ 80.187205182371997, 12.607707032598988 ], [ 80.186463440239265, 12.60763490682651 ], [ 80.185936839171774, 12.607572992097039 ], [ 80.185764261137578, 12.607553966063305 ], [ 80.18526586113758, 12.607502666063304 ], [ 80.184357417811995, 12.607409248436854 ], [ 80.183613656290305, 12.60735605480436 ], [ 80.183270615554719, 12.607342214544135 ], [ 80.183269829513108, 12.607341922563039 ], [ 80.182973829513116, 12.607248222563038 ], [ 80.182670572534889, 12.607156611404074 ], [ 80.182459272534885, 12.607095811404074 ], [ 80.181495776995831, 12.606861208651116 ], [ 80.180516200911896, 12.606706959498013 ], [ 80.180359300911888, 12.606688859498012 ], [ 80.179184222445585, 12.606611468824092 ], [ 80.178566127123261, 12.606631508150659 ], [ 80.178530992279292, 12.60659038758061 ], [ 80.177681930601167, 12.605774364918469 ], [ 80.176756973179295, 12.605045494226143 ], [ 80.175765027859285, 12.604410794926839 ], [ 80.17471564761685, 12.60387637952177 ], [ 80.17361893855734, 12.603447394723432 ], [ 80.17248546258854, 12.603127971889936 ], [ 80.171326135703637, 12.602921187237786 ], [ 80.170152122854304, 12.602829032216221 ], [ 80.169871782758278, 12.602834594793858 ], [ 80.169847477777438, 12.602833087922162 ], [ 80.169726404480173, 12.60283747942567 ], [ 80.168974730426044, 12.602852394328474 ], [ 80.168824665850295, 12.602870186789266 ], [ 80.168670627481703, 12.602875773983563 ], [ 80.167910679512005, 12.602978553910605 ], [ 80.167805297351578, 12.602991048584636 ], [ 80.167784463771838, 12.602995624085253 ], [ 80.167503628007481, 12.603033606000492 ], [ 80.166357718197645, 12.603305063964351 ], [ 80.165243933790094, 12.60368753358655 ], [ 80.164173001137527, 12.604177331475553 ], [ 80.163155233906821, 12.604769740609933 ], [ 80.162200433752773, 12.605459055765886 ], [ 80.161317795922798, 12.606238638461639 ], [ 80.160515820701718, 12.607100980889671 ], [ 80.159802231549321, 12.608037778220996 ], [ 80.159183900719214, 12.609040008585206 ], [ 80.158666783075304, 12.61009801995602 ], [ 80.158255858743203, 12.611201623105568 ], [ 80.157955085148856, 12.612340189732231 ], [ 80.157767358906398, 12.61350275481699 ], [ 80.157694487922157, 12.614678122222555 ], [ 80.157736574690944, 12.615838450082739 ] ] ] } },
{ "type": "Feature", "properties": { "name": "Toward Tambaram", "label": "Toward Tambaram", "kind": "corridor_aoi", "note": "Focus AOI for Tambaram / southern GST approaches (not official wards)." }, "geometry": { "type": "Polygon", "coordinates": [ [ [ 80.19, 12.86 ], [ 80.19, 13.02 ], [ 80.05, 13.02 ], [ 80.05, 12.86 ], [ 80.19, 12.86 ] ] ] } },
{ "type": "Feature", "properties": { "name": "Toward Chengalpattu", "label": "Toward Chengalpattu", "kind": "corridor_aoi", "note": "Focus AOI along approaches to Chengalpattu (not official wards)." }, "geometry": { "type": "Polygon", "coordinates": [ [ [ 80.1, 12.65 ], [ 80.1, 12.88 ], [ 79.9, 12.88 ], [ 79.9, 12.65 ], [ 80.1, 12.65 ] ] ] } }
]
}
