{
"type": "FeatureCollection",
"name": "healthcare",
"crs": { "type": "name", "properties": { "name": "urn:ogc:def:crs:OGC:1.3:CRS84" } },
"features": [
{ "type": "Feature", "properties": { "name": null, "layer": "healthcare", "id": null, "Name": null, "description": null, "timestamp": null, "begin": null, "end": null, "altitudeMode": null, "tessellate": -1, "extrude": 0, "visibility": -1, "drawOrder": null, "icon": null }, "geometry": { "type": "Point", "coordinates": [ 80.2762573, 13.0461172, 0.0 ] } },
{ "type": "Feature", "properties": { "name": null, "layer": "healthcare", "id": null, "Name": null, "description": null, "timestamp": null, "begin": null, "end": null, "altitudeMode": null, "tessellate": -1, "extrude": 0, "visibility": -1, "drawOrder": null, "icon": null }, "geometry": { "type": "Point", "coordinates": [ 80.2731132, 13.0506075, 0.0 ] } },
{ "type": "Feature", "properties": { "name": null, "layer": "healthcare", "id": null, "Name": null, "description": null, "timestamp": null, "begin": null, "end": null, "altitudeMode": null, "tessellate": -1, "extrude": 0, "visibility": -1, "drawOrder": null, "icon": null }, "geometry": { "type": "Point", "coordinates": [ 80.2355184, 13.0492127, 0.0 ] } },
{ "type": "Feature", "properties": { "name": null, "layer": "healthcare", "id": null, "Name": null, "description": null, "timestamp": null, "begin": null, "end": null, "altitudeMode": null, "tessellate": -1, "extrude": 0, "visibility": -1, "drawOrder": null, "icon": null }, "geometry": { "type": "Point", "coordinates": [ 80.2778035, 13.051218, 0.0 ] } },
{ "type": "Feature", "properties": { "name": null, "layer": "healthcare", "id": null, "Name": null, "description": null, "timestamp": null, "begin": null, "end": null, "altitudeMode": null, "tessellate": -1, "extrude": 0, "visibility": -1, "drawOrder": null, "icon": null }, "geometry": { "type": "Point", "coordinates": [ 80.2392416, 13.0578174, 0.0 ] } },
{ "type": "Feature", "properties": { "name": null, "layer": "healthcare", "id": null, "Name": null, "description": null, "timestamp": null, "begin": null, "end": null, "altitudeMode": null, "tessellate": -1, "extrude": 0, "visibility": -1, "drawOrder": null, "icon": null }, "geometry": { "type": "Point", "coordinates": [ 80.2248058, 13.0765627, 0.0 ] } },
{ "type": "Feature", "properties": { "name": null, "layer": "healthcare", "id": null, "Name": null, "description": null, "timestamp": null, "begin": null, "end": null, "altitudeMode": null, "tessellate": -1, "extrude": 0, "visibility": -1, "drawOrder": null, "icon": null }, "geometry": { "type": "Point", "coordinates": [ 80.2429439, 13.0731916, 0.0 ] } },
{ "type": "Feature", "properties": { "name": null, "layer": "healthcare", "id": null, "Name": null, "description": null, "timestamp": null, "begin": null, "end": null, "altitudeMode": null, "tessellate": -1, "extrude": 0, "visibility": -1, "drawOrder": null, "icon": null }, "geometry": { "type": "Point", "coordinates": [ 80.2199318, 13.0684099, 0.0 ] } },
{ "type": "Feature", "properties": { "name": null, "layer": "healthcare", "id": null, "Name": null, "description": null, "timestamp": null, "begin": null, "end": null, "altitudeMode": null, "tessellate": -1, "extrude": 0, "visibility": -1, "drawOrder": null, "icon": null }, "geometry": { "type": "Point", "coordinates": [ 80.2136758, 13.066556, 0.0 ] } },
{ "type": "Feature", "properties": { "name": null, "layer": "healthcare", "id": null, "Name": null, "description": null, "timestamp": null, "begin": null, "end": null, "altitudeMode": null, "tessellate": -1, "extrude": 0, "visibility": -1, "drawOrder": null, "icon": null }, "geometry": { "type": "Point", "coordinates": [ 80.2345248, 13.0805976, 0.0 ] } },
{ "type": "Feature", "properties": { "name": null, "layer": "healthcare", "id": null, "Name": null, "description": null, "timestamp": null, "begin": null, "end": null, "altitudeMode": null, "tessellate": -1, "extrude": 0, "visibility": -1, "drawOrder": null, "icon": null }, "geometry": { "type": "Point", "coordinates": [ 80.2205546, 13.0790817, 0.0 ] } },
{ "type": "Feature", "properties": { "name": null, "layer": "healthcare", "id": null, "Name": null, "description": null, "timestamp": null, "begin": null, "end": null, "altitudeMode": null, "tessellate": -1, "extrude": 0, "visibility": -1, "drawOrder": null, "icon": null }, "geometry": { "type": "Point", "coordinates": [ 80.212152, 13.0782373, 0.0 ] } },
{ "type": "Feature", "properties": { "name": null, "layer": "healthcare", "id": null, "Name": null, "description": null, "timestamp": null, "begin": null, "end": null, "altitudeMode": null, "tessellate": -1, "extrude": 0, "visibility": -1, "drawOrder": null, "icon": null }, "geometry": { "type": "Point", "coordinates": [ 80.239758, 13.0854127, 0.0 ] } },
{ "type": "Feature", "properties": { "name": null, "layer": "healthcare", "id": null, "Name": null, "description": null, "timestamp": null, "begin": null, "end": null, "altitudeMode": null, "tessellate": -1, "extrude": 0, "visibility": -1, "drawOrder": null, "icon": null }, "geometry": { "type": "Point", "coordinates": [ 80.2011961, 13.0999668, 0.0 ] } },
{ "type": "Feature", "properties": { "name": null, "layer": "healthcare", "id": null, "Name": null, "description": null, "timestamp": null, "begin": null, "end": null, "altitudeMode": null, "tessellate": -1, "extrude": 0, "visibility": -1, "drawOrder": null, "icon": null }, "geometry": { "type": "Point", "coordinates": [ 80.2115135, 13.1082623, 0.0 ] } },
{ "type": "Feature", "properties": { "name": null, "layer": "healthcare", "id": null, "Name": null, "description": null, "timestamp": null, "begin": null, "end": null, "altitudeMode": null, "tessellate": -1, "extrude": 0, "visibility": -1, "drawOrder": null, "icon": null }, "geometry": { "type": "Point", "coordinates": [ 80.2307182, 13.1007275, 0.0 ] } },
{ "type": "Feature", "properties": { "name": null, "layer": "healthcare", "id": null, "Name": null, "description": null, "timestamp": null, "begin": null, "end": null, "altitudeMode": null, "tessellate": -1, "extrude": 0, "visibility": -1, "drawOrder": null, "icon": null }, "geometry": { "type": "Point", "coordinates": [ 80.2572279, 13.0943681, 0.0 ] } },
{ "type": "Feature", "properties": { "name": null, "layer": "healthcare", "id": null, "Name": null, "description": null, "timestamp": null, "begin": null, "end": null, "altitudeMode": null, "tessellate": -1, "extrude": 0, "visibility": -1, "drawOrder": null, "icon": null }, "geometry": { "type": "Point", "coordinates": [ 80.2606274, 13.1008566, 0.0 ] } },
{ "type": "Feature", "properties": { "name": null, "layer": "healthcare", "id": null, "Name": null, "description": null, "timestamp": null, "begin": null, "end": null, "altitudeMode": null, "tessellate": -1, "extrude": 0, "visibility": -1, "drawOrder": null, "icon": null }, "geometry": { "type": "Point", "coordinates": [ 80.2528798, 13.1048036, 0.0 ] } },
{ "type": "Feature", "properties": { "name": null, "layer": "healthcare", "id": null, "Name": null, "description": null, "timestamp": null, "begin": null, "end": null, "altitudeMode": null, "tessellate": -1, "extrude": 0, "visibility": -1, "drawOrder": null, "icon": null }, "geometry": { "type": "Point", "coordinates": [ 80.2383762, 13.101001, 0.0 ] } },
{ "type": "Feature", "properties": { "name": null, "layer": "healthcare", "id": null, "Name": null, "description": null, "timestamp": null, "begin": null, "end": null, "altitudeMode": null, "tessellate": -1, "extrude": 0, "visibility": -1, "drawOrder": null, "icon": null }, "geometry": { "type": "Point", "coordinates": [ 80.2435299, 13.1205427, 0.0 ] } },
{ "type": "Feature", "properties": { "name": null, "layer": "healthcare", "id": null, "Name": null, "description": null, "timestamp": null, "begin": null, "end": null, "altitudeMode": null, "tessellate": -1, "extrude": 0, "visibility": -1, "drawOrder": null, "icon": null }, "geometry": { "type": "Point", "coordinates": [ 80.2053771, 13.1201057, 0.0 ] } },
{ "type": "Feature", "properties": { "name": null, "layer": "healthcare", "id": null, "Name": null, "description": null, "timestamp": null, "begin": null, "end": null, "altitudeMode": null, "tessellate": -1, "extrude": 0, "visibility": -1, "drawOrder": null, "icon": null }, "geometry": { "type": "Point", "coordinates": [ 80.2675588, 13.0951548, 0.0 ] } },
{ "type": "Feature", "properties": { "name": null, "layer": "healthcare", "id": null, "Name": null, "description": null, "timestamp": null, "begin": null, "end": null, "altitudeMode": null, "tessellate": -1, "extrude": 0, "visibility": -1, "drawOrder": null, "icon": null }, "geometry": { "type": "Point", "coordinates": [ 80.2533543, 13.0927765, 0.0 ] } },
{ "type": "Feature", "properties": { "name": null, "layer": "healthcare", "id": null, "Name": null, "description": null, "timestamp": null, "begin": null, "end": null, "altitudeMode": null, "tessellate": -1, "extrude": 0, "visibility": -1, "drawOrder": null, "icon": null }, "geometry": { "type": "Point", "coordinates": [ 80.2451315, 13.0959648, 0.0 ] } },
{ "type": "Feature", "properties": { "name": null, "layer": "healthcare", "id": null, "Name": null, "description": null, "timestamp": null, "begin": null, "end": null, "altitudeMode": null, "tessellate": -1, "extrude": 0, "visibility": -1, "drawOrder": null, "icon": null }, "geometry": { "type": "Point", "coordinates": [ 80.2337236, 13.121095, 0.0 ] } },
{ "type": "Feature", "properties": { "name": null, "layer": "healthcare", "id": null, "Name": null, "description": null, "timestamp": null, "begin": null, "end": null, "altitudeMode": null, "tessellate": -1, "extrude": 0, "visibility": -1, "drawOrder": null, "icon": null }, "geometry": { "type": "Point", "coordinates": [ 80.2354221, 13.1140066, 0.0 ] } },
{ "type": "Feature", "properties": { "name": null, "layer": "healthcare", "id": null, "Name": null, "description": null, "timestamp": null, "begin": null, "end": null, "altitudeMode": null, "tessellate": -1, "extrude": 0, "visibility": -1, "drawOrder": null, "icon": null }, "geometry": { "type": "Point", "coordinates": [ 80.2092522, 13.0537556, 0.0 ] } },
{ "type": "Feature", "properties": { "name": null, "layer": "healthcare", "id": null, "Name": null, "description": null, "timestamp": null, "begin": null, "end": null, "altitudeMode": null, "tessellate": -1, "extrude": 0, "visibility": -1, "drawOrder": null, "icon": null }, "geometry": { "type": "Point", "coordinates": [ 80.2038018, 13.0565868, 0.0 ] } },
{ "type": "Feature", "properties": { "name": null, "layer": "healthcare", "id": null, "Name": null, "description": null, "timestamp": null, "begin": null, "end": null, "altitudeMode": null, "tessellate": -1, "extrude": 0, "visibility": -1, "drawOrder": null, "icon": null }, "geometry": { "type": "Point", "coordinates": [ 80.192936, 13.0590105, 0.0 ] } },
{ "type": "Feature", "properties": { "name": null, "layer": "healthcare", "id": null, "Name": null, "description": null, "timestamp": null, "begin": null, "end": null, "altitudeMode": null, "tessellate": -1, "extrude": 0, "visibility": -1, "drawOrder": null, "icon": null }, "geometry": { "type": "Point", "coordinates": [ 80.2104883, 12.8752287, 0.0 ] } },
{ "type": "Feature", "properties": { "name": null, "layer": "healthcare", "id": null, "Name": null, "description": null, "timestamp": null, "begin": null, "end": null, "altitudeMode": null, "tessellate": -1, "extrude": 0, "visibility": -1, "drawOrder": null, "icon": null }, "geometry": { "type": "Point", "coordinates": [ 80.2386359, 12.9309998, 0.0 ] } },
{ "type": "Feature", "properties": { "name": null, "layer": "healthcare", "id": null, "Name": null, "description": null, "timestamp": null, "begin": null, "end": null, "altitudeMode": null, "tessellate": -1, "extrude": 0, "visibility": -1, "drawOrder": null, "icon": null }, "geometry": { "type": "Point", "coordinates": [ 80.2559055, 12.9498626, 0.0 ] } },
{ "type": "Feature", "properties": { "name": null, "layer": "healthcare", "id": null, "Name": null, "description": null, "timestamp": null, "begin": null, "end": null, "altitudeMode": null, "tessellate": -1, "extrude": 0, "visibility": -1, "drawOrder": null, "icon": null }, "geometry": { "type": "Point", "coordinates": [ 80.253524, 12.9645731, 0.0 ] } },
{ "type": "Feature", "properties": { "name": null, "layer": "healthcare", "id": null, "Name": null, "description": null, "timestamp": null, "begin": null, "end": null, "altitudeMode": null, "tessellate": -1, "extrude": 0, "visibility": -1, "drawOrder": null, "icon": null }, "geometry": { "type": "Point", "coordinates": [ 80.2005982, 12.9713337, 0.0 ] } },
{ "type": "Feature", "properties": { "name": null, "layer": "healthcare", "id": null, "Name": null, "description": null, "timestamp": null, "begin": null, "end": null, "altitudeMode": null, "tessellate": -1, "extrude": 0, "visibility": -1, "drawOrder": null, "icon": null }, "geometry": { "type": "Point", "coordinates": [ 80.203596, 12.9941574, 0.0 ] } },
{ "type": "Feature", "properties": { "name": null, "layer": "healthcare", "id": null, "Name": null, "description": null, "timestamp": null, "begin": null, "end": null, "altitudeMode": null, "tessellate": -1, "extrude": 0, "visibility": -1, "drawOrder": null, "icon": null }, "geometry": { "type": "Point", "coordinates": [ 80.2030566, 13.001745, 0.0 ] } },
{ "type": "Feature", "properties": { "name": null, "layer": "healthcare", "id": null, "Name": null, "description": null, "timestamp": null, "begin": null, "end": null, "altitudeMode": null, "tessellate": -1, "extrude": 0, "visibility": -1, "drawOrder": null, "icon": null }, "geometry": { "type": "Point", "coordinates": [ 80.1669806, 13.021229, 0.0 ] } },
{ "type": "Feature", "properties": { "name": null, "layer": "healthcare", "id": null, "Name": null, "description": null, "timestamp": null, "begin": null, "end": null, "altitudeMode": null, "tessellate": -1, "extrude": 0, "visibility": -1, "drawOrder": null, "icon": null }, "geometry": { "type": "Point", "coordinates": [ 80.186415, 13.0691929, 0.0 ] } },
{ "type": "Feature", "properties": { "name": null, "layer": "healthcare", "id": null, "Name": null, "description": null, "timestamp": null, "begin": null, "end": null, "altitudeMode": null, "tessellate": -1, "extrude": 0, "visibility": -1, "drawOrder": null, "icon": null }, "geometry": { "type": "Point", "coordinates": [ 80.1664767, 13.0631111, 0.0 ] } },
{ "type": "Feature", "properties": { "name": null, "layer": "healthcare", "id": null, "Name": null, "description": null, "timestamp": null, "begin": null, "end": null, "altitudeMode": null, "tessellate": -1, "extrude": 0, "visibility": -1, "drawOrder": null, "icon": null }, "geometry": { "type": "Point", "coordinates": [ 80.1695182, 13.0844001, 0.0 ] } },
{ "type": "Feature", "properties": { "name": null, "layer": "healthcare", "id": null, "Name": null, "description": null, "timestamp": null, "begin": null, "end": null, "altitudeMode": null, "tessellate": -1, "extrude": 0, "visibility": -1, "drawOrder": null, "icon": null }, "geometry": { "type": "Point", "coordinates": [ 80.1898682, 13.0895622, 0.0 ] } },
{ "type": "Feature", "properties": { "name": null, "layer": "healthcare", "id": null, "Name": null, "description": null, "timestamp": null, "begin": null, "end": null, "altitudeMode": null, "tessellate": -1, "extrude": 0, "visibility": -1, "drawOrder": null, "icon": null }, "geometry": { "type": "Point", "coordinates": [ 80.1825823, 13.1097226, 0.0 ] } },
{ "type": "Feature", "properties": { "name": null, "layer": "healthcare", "id": null, "Name": null, "description": null, "timestamp": null, "begin": null, "end": null, "altitudeMode": null, "tessellate": -1, "extrude": 0, "visibility": -1, "drawOrder": null, "icon": null }, "geometry": { "type": "Point", "coordinates": [ 80.1536298, 13.1176699, 0.0 ] } },
{ "type": "Feature", "properties": { "name": null, "layer": "healthcare", "id": null, "Name": null, "description": null, "timestamp": null, "begin": null, "end": null, "altitudeMode": null, "tessellate": -1, "extrude": 0, "visibility": -1, "drawOrder": null, "icon": null }, "geometry": { "type": "Point", "coordinates": [ 80.1601416, 13.1233582, 0.0 ] } },
{ "type": "Feature", "properties": { "name": null, "layer": "healthcare", "id": null, "Name": null, "description": null, "timestamp": null, "begin": null, "end": null, "altitudeMode": null, "tessellate": -1, "extrude": 0, "visibility": -1, "drawOrder": null, "icon": null }, "geometry": { "type": "Point", "coordinates": [ 80.1536689, 13.1297302, 0.0 ] } },
{ "type": "Feature", "properties": { "name": null, "layer": "healthcare", "id": null, "Name": null, "description": null, "timestamp": null, "begin": null, "end": null, "altitudeMode": null, "tessellate": -1, "extrude": 0, "visibility": -1, "drawOrder": null, "icon": null }, "geometry": { "type": "Point", "coordinates": [ 80.2118459, 13.1322539, 0.0 ] } },
{ "type": "Feature", "properties": { "name": null, "layer": "healthcare", "id": null, "Name": null, "description": null, "timestamp": null, "begin": null, "end": null, "altitudeMode": null, "tessellate": -1, "extrude": 0, "visibility": -1, "drawOrder": null, "icon": null }, "geometry": { "type": "Point", "coordinates": [ 80.2301193, 13.1480498, 0.0 ] } },
{ "type": "Feature", "properties": { "name": null, "layer": "healthcare", "id": null, "Name": null, "description": null, "timestamp": null, "begin": null, "end": null, "altitudeMode": null, "tessellate": -1, "extrude": 0, "visibility": -1, "drawOrder": null, "icon": null }, "geometry": { "type": "Point", "coordinates": [ 80.2579003, 13.1685842, 0.0 ] } },
{ "type": "Feature", "properties": { "name": null, "layer": "healthcare", "id": null, "Name": null, "description": null, "timestamp": null, "begin": null, "end": null, "altitudeMode": null, "tessellate": -1, "extrude": 0, "visibility": -1, "drawOrder": null, "icon": null }, "geometry": { "type": "Point", "coordinates": [ 80.302222, 13.1516575, 0.0 ] } },
{ "type": "Feature", "properties": { "name": null, "layer": "healthcare", "id": null, "Name": null, "description": null, "timestamp": null, "begin": null, "end": null, "altitudeMode": null, "tessellate": -1, "extrude": 0, "visibility": -1, "drawOrder": null, "icon": null }, "geometry": { "type": "Point", "coordinates": [ 80.2950155, 13.1526388, 0.0 ] } },
{ "type": "Feature", "properties": { "name": null, "layer": "healthcare", "id": null, "Name": null, "description": null, "timestamp": null, "begin": null, "end": null, "altitudeMode": null, "tessellate": -1, "extrude": 0, "visibility": -1, "drawOrder": null, "icon": null }, "geometry": { "type": "Point", "coordinates": [ 80.3012841, 13.1574973, 0.0 ] } },
{ "type": "Feature", "properties": { "name": null, "layer": "healthcare", "id": null, "Name": null, "description": null, "timestamp": null, "begin": null, "end": null, "altitudeMode": null, "tessellate": -1, "extrude": 0, "visibility": -1, "drawOrder": null, "icon": null }, "geometry": { "type": "Point", "coordinates": [ 80.2568023, 13.0885878, 0.0 ] } },
{ "type": "Feature", "properties": { "name": null, "layer": "healthcare", "id": null, "Name": null, "description": null, "timestamp": null, "begin": null, "end": null, "altitudeMode": null, "tessellate": -1, "extrude": 0, "visibility": -1, "drawOrder": null, "icon": null }, "geometry": { "type": "Point", "coordinates": [ 80.2313097, 13.1091763, 0.0 ] } },
{ "type": "Feature", "properties": { "name": null, "layer": "healthcare", "id": null, "Name": null, "description": null, "timestamp": null, "begin": null, "end": null, "altitudeMode": null, "tessellate": -1, "extrude": 0, "visibility": -1, "drawOrder": null, "icon": null }, "geometry": { "type": "Point", "coordinates": [ 80.2744477, 13.1042769, 0.0 ] } },
{ "type": "Feature", "properties": { "name": null, "layer": "healthcare", "id": null, "Name": null, "description": null, "timestamp": null, "begin": null, "end": null, "altitudeMode": null, "tessellate": -1, "extrude": 0, "visibility": -1, "drawOrder": null, "icon": null }, "geometry": { "type": "Point", "coordinates": [ 80.2937181, 13.101549, 0.0 ] } },
{ "type": "Feature", "properties": { "name": null, "layer": "healthcare", "id": null, "Name": null, "description": null, "timestamp": null, "begin": null, "end": null, "altitudeMode": null, "tessellate": -1, "extrude": 0, "visibility": -1, "drawOrder": null, "icon": null }, "geometry": { "type": "Point", "coordinates": [ 80.2629859, 13.0860323, 0.0 ] } },
{ "type": "Feature", "properties": { "name": null, "layer": "healthcare", "id": null, "Name": null, "description": null, "timestamp": null, "begin": null, "end": null, "altitudeMode": null, "tessellate": -1, "extrude": 0, "visibility": -1, "drawOrder": null, "icon": null }, "geometry": { "type": "Point", "coordinates": [ 80.2865151, 13.1020016, 0.0 ] } },
{ "type": "Feature", "properties": { "name": null, "layer": "healthcare", "id": null, "Name": null, "description": null, "timestamp": null, "begin": null, "end": null, "altitudeMode": null, "tessellate": -1, "extrude": 0, "visibility": -1, "drawOrder": null, "icon": null }, "geometry": { "type": "Point", "coordinates": [ 80.28139, 13.0985485, 0.0 ] } },
{ "type": "Feature", "properties": { "name": null, "layer": "healthcare", "id": null, "Name": null, "description": null, "timestamp": null, "begin": null, "end": null, "altitudeMode": null, "tessellate": -1, "extrude": 0, "visibility": -1, "drawOrder": null, "icon": null }, "geometry": { "type": "Point", "coordinates": [ 80.2858957, 13.0970009, 0.0 ] } },
{ "type": "Feature", "properties": { "name": null, "layer": "healthcare", "id": null, "Name": null, "description": null, "timestamp": null, "begin": null, "end": null, "altitudeMode": null, "tessellate": -1, "extrude": 0, "visibility": -1, "drawOrder": null, "icon": null }, "geometry": { "type": "Point", "coordinates": [ 80.2930049, 13.1181342, 0.0 ] } },
{ "type": "Feature", "properties": { "name": null, "layer": "healthcare", "id": null, "Name": null, "description": null, "timestamp": null, "begin": null, "end": null, "altitudeMode": null, "tessellate": -1, "extrude": 0, "visibility": -1, "drawOrder": null, "icon": null }, "geometry": { "type": "Point", "coordinates": [ 80.2830805, 13.110283, 0.0 ] } },
{ "type": "Feature", "properties": { "name": null, "layer": "healthcare", "id": null, "Name": null, "description": null, "timestamp": null, "begin": null, "end": null, "altitudeMode": null, "tessellate": -1, "extrude": 0, "visibility": -1, "drawOrder": null, "icon": null }, "geometry": { "type": "Point", "coordinates": [ 80.2571296, 12.9848346, 0.0 ] } },
{ "type": "Feature", "properties": { "name": null, "layer": "healthcare", "id": null, "Name": null, "description": null, "timestamp": null, "begin": null, "end": null, "altitudeMode": null, "tessellate": -1, "extrude": 0, "visibility": -1, "drawOrder": null, "icon": null }, "geometry": { "type": "Point", "coordinates": [ 80.2367491, 12.9829641, 0.0 ] } },
{ "type": "Feature", "properties": { "name": null, "layer": "healthcare", "id": null, "Name": null, "description": null, "timestamp": null, "begin": null, "end": null, "altitudeMode": null, "tessellate": -1, "extrude": 0, "visibility": -1, "drawOrder": null, "icon": null }, "geometry": { "type": "Point", "coordinates": [ 80.229941, 12.9863037, 0.0 ] } },
{ "type": "Feature", "properties": { "name": null, "layer": "healthcare", "id": null, "Name": null, "description": null, "timestamp": null, "begin": null, "end": null, "altitudeMode": null, "tessellate": -1, "extrude": 0, "visibility": -1, "drawOrder": null, "icon": null }, "geometry": { "type": "Point", "coordinates": [ 80.2120692, 12.9915513, 0.0 ] } },
{ "type": "Feature", "properties": { "name": null, "layer": "healthcare", "id": null, "Name": null, "description": null, "timestamp": null, "begin": null, "end": null, "altitudeMode": null, "tessellate": -1, "extrude": 0, "visibility": -1, "drawOrder": null, "icon": null }, "geometry": { "type": "Point", "coordinates": [ 80.2052449, 12.9890897, 0.0 ] } },
{ "type": "Feature", "properties": { "name": null, "layer": "healthcare", "id": null, "Name": null, "description": null, "timestamp": null, "begin": null, "end": null, "altitudeMode": null, "tessellate": -1, "extrude": 0, "visibility": -1, "drawOrder": null, "icon": null }, "geometry": { "type": "Point", "coordinates": [ 80.264842, 13.0239501, 0.0 ] } },
{ "type": "Feature", "properties": { "name": null, "layer": "healthcare", "id": null, "Name": null, "description": null, "timestamp": null, "begin": null, "end": null, "altitudeMode": null, "tessellate": -1, "extrude": 0, "visibility": -1, "drawOrder": null, "icon": null }, "geometry": { "type": "Point", "coordinates": [ 80.2402407, 13.0229947, 0.0 ] } },
{ "type": "Feature", "properties": { "name": null, "layer": "healthcare", "id": null, "Name": null, "description": null, "timestamp": null, "begin": null, "end": null, "altitudeMode": null, "tessellate": -1, "extrude": 0, "visibility": -1, "drawOrder": null, "icon": null }, "geometry": { "type": "Point", "coordinates": [ 80.2261539, 13.0299502, 0.0 ] } },
{ "type": "Feature", "properties": { "name": null, "layer": "healthcare", "id": null, "Name": null, "description": null, "timestamp": null, "begin": null, "end": null, "altitudeMode": null, "tessellate": -1, "extrude": 0, "visibility": -1, "drawOrder": null, "icon": null }, "geometry": { "type": "Point", "coordinates": [ 80.2023024, 13.0440447, 0.0 ] } },
{ "type": "Feature", "properties": { "name": null, "layer": "healthcare", "id": null, "Name": null, "description": null, "timestamp": null, "begin": null, "end": null, "altitudeMode": null, "tessellate": -1, "extrude": 0, "visibility": -1, "drawOrder": null, "icon": null }, "geometry": { "type": "Point", "coordinates": [ 80.1969001, 13.0528551, 0.0 ] } },
{ "type": "Feature", "properties": { "name": null, "layer": "healthcare", "id": null, "Name": null, "description": null, "timestamp": null, "begin": null, "end": null, "altitudeMode": null, "tessellate": -1, "extrude": 0, "visibility": -1, "drawOrder": null, "icon": null }, "geometry": { "type": "Point", "coordinates": [ 80.1912859, 13.0316584, 0.0 ] } },
{ "type": "Feature", "properties": { "name": null, "layer": "healthcare", "id": null, "Name": null, "description": null, "timestamp": null, "begin": null, "end": null, "altitudeMode": null, "tessellate": -1, "extrude": 0, "visibility": -1, "drawOrder": null, "icon": null }, "geometry": { "type": "Point", "coordinates": [ 80.2145633, 13.0411162, 0.0 ] } },
{ "type": "Feature", "properties": { "name": null, "layer": "healthcare", "id": null, "Name": null, "description": null, "timestamp": null, "begin": null, "end": null, "altitudeMode": null, "tessellate": -1, "extrude": 0, "visibility": -1, "drawOrder": null, "icon": null }, "geometry": { "type": "Point", "coordinates": [ 80.2172168, 13.032255, 0.0 ] } },
{ "type": "Feature", "properties": { "name": null, "layer": "healthcare", "id": null, "Name": null, "description": null, "timestamp": null, "begin": null, "end": null, "altitudeMode": null, "tessellate": -1, "extrude": 0, "visibility": -1, "drawOrder": null, "icon": null }, "geometry": { "type": "Point", "coordinates": [ 80.219004, 13.051185, 0.0 ] } },
{ "type": "Feature", "properties": { "name": null, "layer": "healthcare", "id": null, "Name": null, "description": null, "timestamp": null, "begin": null, "end": null, "altitudeMode": null, "tessellate": -1, "extrude": 0, "visibility": -1, "drawOrder": null, "icon": null }, "geometry": { "type": "Point", "coordinates": [ 80.2022651, 13.0318886, 0.0 ] } },
{ "type": "Feature", "properties": { "name": null, "layer": "healthcare", "id": null, "Name": null, "description": null, "timestamp": null, "begin": null, "end": null, "altitudeMode": null, "tessellate": -1, "extrude": 0, "visibility": -1, "drawOrder": null, "icon": null }, "geometry": { "type": "Point", "coordinates": [ 80.2241681, 13.0310426, 0.0 ] } },
{ "type": "Feature", "properties": { "name": null, "layer": "healthcare", "id": null, "Name": null, "description": null, "timestamp": null, "begin": null, "end": null, "altitudeMode": null, "tessellate": -1, "extrude": 0, "visibility": -1, "drawOrder": null, "icon": null }, "geometry": { "type": "Point", "coordinates": [ 80.2339271, 13.0293924, 0.0 ] } },
{ "type": "Feature", "properties": { "name": null, "layer": "healthcare", "id": null, "Name": null, "description": null, "timestamp": null, "begin": null, "end": null, "altitudeMode": null, "tessellate": -1, "extrude": 0, "visibility": -1, "drawOrder": null, "icon": null }, "geometry": { "type": "Point", "coordinates": [ 80.2195017, 13.025052, 0.0 ] } },
{ "type": "Feature", "properties": { "name": null, "layer": "healthcare", "id": null, "Name": null, "description": null, "timestamp": null, "begin": null, "end": null, "altitudeMode": null, "tessellate": -1, "extrude": 0, "visibility": -1, "drawOrder": null, "icon": null }, "geometry": { "type": "Point", "coordinates": [ 80.319929, 13.218101, 0.0 ] } },
{ "type": "Feature", "properties": { "name": null, "layer": "healthcare", "id": null, "Name": null, "description": null, "timestamp": null, "begin": null, "end": null, "altitudeMode": null, "tessellate": -1, "extrude": 0, "visibility": -1, "drawOrder": null, "icon": null }, "geometry": { "type": "Point", "coordinates": [ 80.30581, 13.185883, 0.0 ] } },
{ "type": "Feature", "properties": { "name": null, "layer": "healthcare", "id": null, "Name": null, "description": null, "timestamp": null, "begin": null, "end": null, "altitudeMode": null, "tessellate": -1, "extrude": 0, "visibility": -1, "drawOrder": null, "icon": null }, "geometry": { "type": "Point", "coordinates": [ 80.302348, 13.180226, 0.0 ] } },
{ "type": "Feature", "properties": { "name": null, "layer": "healthcare", "id": null, "Name": null, "description": null, "timestamp": null, "begin": null, "end": null, "altitudeMode": null, "tessellate": -1, "extrude": 0, "visibility": -1, "drawOrder": null, "icon": null }, "geometry": { "type": "Point", "coordinates": [ 80.243622, 13.134929, 0.0 ] } },
{ "type": "Feature", "properties": { "name": null, "layer": "healthcare", "id": null, "Name": null, "description": null, "timestamp": null, "begin": null, "end": null, "altitudeMode": null, "tessellate": -1, "extrude": 0, "visibility": -1, "drawOrder": null, "icon": null }, "geometry": { "type": "Point", "coordinates": [ 80.258365, 13.130689, 0.0 ] } },
{ "type": "Feature", "properties": { "name": null, "layer": "healthcare", "id": null, "Name": null, "description": null, "timestamp": null, "begin": null, "end": null, "altitudeMode": null, "tessellate": -1, "extrude": 0, "visibility": -1, "drawOrder": null, "icon": null }, "geometry": { "type": "Point", "coordinates": [ 80.25959, 13.110744, 0.0 ] } },
{ "type": "Feature", "properties": { "name": null, "layer": "healthcare", "id": null, "Name": null, "description": null, "timestamp": null, "begin": null, "end": null, "altitudeMode": null, "tessellate": -1, "extrude": 0, "visibility": -1, "drawOrder": null, "icon": null }, "geometry": { "type": "Point", "coordinates": [ 80.287048, 13.119515, 0.0 ] } },
{ "type": "Feature", "properties": { "name": null, "layer": "healthcare", "id": null, "Name": null, "description": null, "timestamp": null, "begin": null, "end": null, "altitudeMode": null, "tessellate": -1, "extrude": 0, "visibility": -1, "drawOrder": null, "icon": null }, "geometry": { "type": "Point", "coordinates": [ 80.275076, 13.096197, 0.0 ] } },
{ "type": "Feature", "properties": { "name": null, "layer": "healthcare", "id": null, "Name": null, "description": null, "timestamp": null, "begin": null, "end": null, "altitudeMode": null, "tessellate": -1, "extrude": 0, "visibility": -1, "drawOrder": null, "icon": null }, "geometry": { "type": "Point", "coordinates": [ 80.267924, 13.07125, 0.0 ] } },
{ "type": "Feature", "properties": { "name": null, "layer": "healthcare", "id": null, "Name": null, "description": null, "timestamp": null, "begin": null, "end": null, "altitudeMode": null, "tessellate": -1, "extrude": 0, "visibility": -1, "drawOrder": null, "icon": null }, "geometry": { "type": "Point", "coordinates": [ 80.206471, 13.11908, 0.0 ] } },
{ "type": "Feature", "properties": { "name": null, "layer": "healthcare", "id": null, "Name": null, "description": null, "timestamp": null, "begin": null, "end": null, "altitudeMode": null, "tessellate": -1, "extrude": 0, "visibility": -1, "drawOrder": null, "icon": null }, "geometry": { "type": "Point", "coordinates": [ 80.265763, 13.091055, 0.0 ] } },
{ "type": "Feature", "properties": { "name": null, "layer": "healthcare", "id": null, "Name": null, "description": null, "timestamp": null, "begin": null, "end": null, "altitudeMode": null, "tessellate": -1, "extrude": 0, "visibility": -1, "drawOrder": null, "icon": null }, "geometry": { "type": "Point", "coordinates": [ 80.1535, 13.112624, 0.0 ] } },
{ "type": "Feature", "properties": { "name": null, "layer": "healthcare", "id": null, "Name": null, "description": null, "timestamp": null, "begin": null, "end": null, "altitudeMode": null, "tessellate": -1, "extrude": 0, "visibility": -1, "drawOrder": null, "icon": null }, "geometry": { "type": "Point", "coordinates": [ 80.159243, 13.091369, 0.0 ] } },
{ "type": "Feature", "properties": { "name": null, "layer": "healthcare", "id": null, "Name": null, "description": null, "timestamp": null, "begin": null, "end": null, "altitudeMode": null, "tessellate": -1, "extrude": 0, "visibility": -1, "drawOrder": null, "icon": null }, "geometry": { "type": "Point", "coordinates": [ 80.186072, 13.082449, 0.0 ] } },
{ "type": "Feature", "properties": { "name": null, "layer": "healthcare", "id": null, "Name": null, "description": null, "timestamp": null, "begin": null, "end": null, "altitudeMode": null, "tessellate": -1, "extrude": 0, "visibility": -1, "drawOrder": null, "icon": null }, "geometry": { "type": "Point", "coordinates": [ 80.205321, 13.113404, 0.0 ] } },
{ "type": "Feature", "properties": { "name": null, "layer": "healthcare", "id": null, "Name": null, "description": null, "timestamp": null, "begin": null, "end": null, "altitudeMode": null, "tessellate": -1, "extrude": 0, "visibility": -1, "drawOrder": null, "icon": null }, "geometry": { "type": "Point", "coordinates": [ 80.230491, 13.098274, 0.0 ] } },
{ "type": "Feature", "properties": { "name": null, "layer": "healthcare", "id": null, "Name": null, "description": null, "timestamp": null, "begin": null, "end": null, "altitudeMode": null, "tessellate": -1, "extrude": 0, "visibility": -1, "drawOrder": null, "icon": null }, "geometry": { "type": "Point", "coordinates": [ 80.252406, 13.087774, 0.0 ] } },
{ "type": "Feature", "properties": { "name": null, "layer": "healthcare", "id": null, "Name": null, "description": null, "timestamp": null, "begin": null, "end": null, "altitudeMode": null, "tessellate": -1, "extrude": 0, "visibility": -1, "drawOrder": null, "icon": null }, "geometry": { "type": "Point", "coordinates": [ 80.229, 13.063667, 0.0 ] } },
{ "type": "Feature", "properties": { "name": null, "layer": "healthcare", "id": null, "Name": null, "description": null, "timestamp": null, "begin": null, "end": null, "altitudeMode": null, "tessellate": -1, "extrude": 0, "visibility": -1, "drawOrder": null, "icon": null }, "geometry": { "type": "Point", "coordinates": [ 80.2762, 13.063605, 0.0 ] } },
{ "type": "Feature", "properties": { "name": null, "layer": "healthcare", "id": null, "Name": null, "description": null, "timestamp": null, "begin": null, "end": null, "altitudeMode": null, "tessellate": -1, "extrude": 0, "visibility": -1, "drawOrder": null, "icon": null }, "geometry": { "type": "Point", "coordinates": [ 80.260261, 13.05507, 0.0 ] } },
{ "type": "Feature", "properties": { "name": null, "layer": "healthcare", "id": null, "Name": null, "description": null, "timestamp": null, "begin": null, "end": null, "altitudeMode": null, "tessellate": -1, "extrude": 0, "visibility": -1, "drawOrder": null, "icon": null }, "geometry": { "type": "Point", "coordinates": [ 80.262252, 13.051291, 0.0 ] } },
{ "type": "Feature", "properties": { "name": null, "layer": "healthcare", "id": null, "Name": null, "description": null, "timestamp": null, "begin": null, "end": null, "altitudeMode": null, "tessellate": -1, "extrude": 0, "visibility": -1, "drawOrder": null, "icon": null }, "geometry": { "type": "Point", "coordinates": [ 80.276183, 13.029423, 0.0 ] } },
{ "type": "Feature", "properties": { "name": null, "layer": "healthcare", "id": null, "Name": null, "description": null, "timestamp": null, "begin": null, "end": null, "altitudeMode": null, "tessellate": -1, "extrude": 0, "visibility": -1, "drawOrder": null, "icon": null }, "geometry": { "type": "Point", "coordinates": [ 80.235775, 13.039316, 0.0 ] } },
{ "type": "Feature", "properties": { "name": null, "layer": "healthcare", "id": null, "Name": null, "description": null, "timestamp": null, "begin": null, "end": null, "altitudeMode": null, "tessellate": -1, "extrude": 0, "visibility": -1, "drawOrder": null, "icon": null }, "geometry": { "type": "Point", "coordinates": [ 80.215894, 13.027736, 0.0 ] } },
{ "type": "Feature", "properties": { "name": null, "layer": "healthcare", "id": null, "Name": null, "description": null, "timestamp": null, "begin": null, "end": null, "altitudeMode": null, "tessellate": -1, "extrude": 0, "visibility": -1, "drawOrder": null, "icon": null }, "geometry": { "type": "Point", "coordinates": [ 80.184072, 13.055512, 0.0 ] } },
{ "type": "Feature", "properties": { "name": null, "layer": "healthcare", "id": null, "Name": null, "description": null, "timestamp": null, "begin": null, "end": null, "altitudeMode": null, "tessellate": -1, "extrude": 0, "visibility": -1, "drawOrder": null, "icon": null }, "geometry": { "type": "Point", "coordinates": [ 80.164171, 13.030794, 0.0 ] } },
{ "type": "Feature", "properties": { "name": null, "layer": "healthcare", "id": null, "Name": null, "description": null, "timestamp": null, "begin": null, "end": null, "altitudeMode": null, "tessellate": -1, "extrude": 0, "visibility": -1, "drawOrder": null, "icon": null }, "geometry": { "type": "Point", "coordinates": [ 80.173908, 13.035022, 0.0 ] } },
{ "type": "Feature", "properties": { "name": null, "layer": "healthcare", "id": null, "Name": null, "description": null, "timestamp": null, "begin": null, "end": null, "altitudeMode": null, "tessellate": -1, "extrude": 0, "visibility": -1, "drawOrder": null, "icon": null }, "geometry": { "type": "Point", "coordinates": [ 80.18953, 12.987892, 0.0 ] } },
{ "type": "Feature", "properties": { "name": null, "layer": "healthcare", "id": null, "Name": null, "description": null, "timestamp": null, "begin": null, "end": null, "altitudeMode": null, "tessellate": -1, "extrude": 0, "visibility": -1, "drawOrder": null, "icon": null }, "geometry": { "type": "Point", "coordinates": [ 80.181604, 12.974467, 0.0 ] } },
{ "type": "Feature", "properties": { "name": null, "layer": "healthcare", "id": null, "Name": null, "description": null, "timestamp": null, "begin": null, "end": null, "altitudeMode": null, "tessellate": -1, "extrude": 0, "visibility": -1, "drawOrder": null, "icon": null }, "geometry": { "type": "Point", "coordinates": [ 80.20578, 13.017859, 0.0 ] } },
{ "type": "Feature", "properties": { "name": null, "layer": "healthcare", "id": null, "Name": null, "description": null, "timestamp": null, "begin": null, "end": null, "altitudeMode": null, "tessellate": -1, "extrude": 0, "visibility": -1, "drawOrder": null, "icon": null }, "geometry": { "type": "Point", "coordinates": [ 80.26359, 13.001099, 0.0 ] } },
{ "type": "Feature", "properties": { "name": null, "layer": "healthcare", "id": null, "Name": null, "description": null, "timestamp": null, "begin": null, "end": null, "altitudeMode": null, "tessellate": -1, "extrude": 0, "visibility": -1, "drawOrder": null, "icon": null }, "geometry": { "type": "Point", "coordinates": [ 80.198423, 12.963201, 0.0 ] } },
{ "type": "Feature", "properties": { "name": null, "layer": "healthcare", "id": null, "Name": null, "description": null, "timestamp": null, "begin": null, "end": null, "altitudeMode": null, "tessellate": -1, "extrude": 0, "visibility": -1, "drawOrder": null, "icon": null }, "geometry": { "type": "Point", "coordinates": [ 80.204132, 12.933155, 0.0 ] } },
{ "type": "Feature", "properties": { "name": null, "layer": "healthcare", "id": null, "Name": null, "description": null, "timestamp": null, "begin": null, "end": null, "altitudeMode": null, "tessellate": -1, "extrude": 0, "visibility": -1, "drawOrder": null, "icon": null }, "geometry": { "type": "Point", "coordinates": [ 80.196558, 12.912397, 0.0 ] } },
{ "type": "Feature", "properties": { "name": null, "layer": "healthcare", "id": null, "Name": null, "description": null, "timestamp": null, "begin": null, "end": null, "altitudeMode": null, "tessellate": -1, "extrude": 0, "visibility": -1, "drawOrder": null, "icon": null }, "geometry": { "type": "Point", "coordinates": [ 80.240929, 12.948711, 0.0 ] } },
{ "type": "Feature", "properties": { "name": null, "layer": "healthcare", "id": null, "Name": null, "description": null, "timestamp": null, "begin": null, "end": null, "altitudeMode": null, "tessellate": -1, "extrude": 0, "visibility": -1, "drawOrder": null, "icon": null }, "geometry": { "type": "Point", "coordinates": [ 80.2871664, 13.1227846, 0.0 ] } },
{ "type": "Feature", "properties": { "name": null, "layer": "healthcare", "id": null, "Name": null, "description": null, "timestamp": null, "begin": null, "end": null, "altitudeMode": null, "tessellate": -1, "extrude": 0, "visibility": -1, "drawOrder": null, "icon": null }, "geometry": { "type": "Point", "coordinates": [ 80.2818596, 13.112995, 0.0 ] } },
{ "type": "Feature", "properties": { "name": null, "layer": "healthcare", "id": null, "Name": null, "description": null, "timestamp": null, "begin": null, "end": null, "altitudeMode": null, "tessellate": -1, "extrude": 0, "visibility": -1, "drawOrder": null, "icon": null }, "geometry": { "type": "Point", "coordinates": [ 80.2507737, 13.1163161, 0.0 ] } },
{ "type": "Feature", "properties": { "name": null, "layer": "healthcare", "id": null, "Name": null, "description": null, "timestamp": null, "begin": null, "end": null, "altitudeMode": null, "tessellate": -1, "extrude": 0, "visibility": -1, "drawOrder": null, "icon": null }, "geometry": { "type": "Point", "coordinates": [ 80.2660772, 13.1189283, 0.0 ] } },
{ "type": "Feature", "properties": { "name": null, "layer": "healthcare", "id": null, "Name": null, "description": null, "timestamp": null, "begin": null, "end": null, "altitudeMode": null, "tessellate": -1, "extrude": 0, "visibility": -1, "drawOrder": null, "icon": null }, "geometry": { "type": "Point", "coordinates": [ 80.2728488, 13.1111699, 0.0 ] } },
{ "type": "Feature", "properties": { "name": null, "layer": "healthcare", "id": null, "Name": null, "description": null, "timestamp": null, "begin": null, "end": null, "altitudeMode": null, "tessellate": -1, "extrude": 0, "visibility": -1, "drawOrder": null, "icon": null }, "geometry": { "type": "Point", "coordinates": [ 80.2931207, 13.1289166, 0.0 ] } },
{ "type": "Feature", "properties": { "name": null, "layer": "healthcare", "id": null, "Name": null, "description": null, "timestamp": null, "begin": null, "end": null, "altitudeMode": null, "tessellate": -1, "extrude": 0, "visibility": -1, "drawOrder": null, "icon": null }, "geometry": { "type": "Point", "coordinates": [ 80.2799508, 13.1277307, 0.0 ] } },
{ "type": "Feature", "properties": { "name": null, "layer": "healthcare", "id": null, "Name": null, "description": null, "timestamp": null, "begin": null, "end": null, "altitudeMode": null, "tessellate": -1, "extrude": 0, "visibility": -1, "drawOrder": null, "icon": null }, "geometry": { "type": "Point", "coordinates": [ 80.2862728, 13.1326238, 0.0 ] } },
{ "type": "Feature", "properties": { "name": null, "layer": "healthcare", "id": null, "Name": null, "description": null, "timestamp": null, "begin": null, "end": null, "altitudeMode": null, "tessellate": -1, "extrude": 0, "visibility": -1, "drawOrder": null, "icon": null }, "geometry": { "type": "Point", "coordinates": [ 80.2970873, 13.138354, 0.0 ] } },
{ "type": "Feature", "properties": { "name": null, "layer": "healthcare", "id": null, "Name": null, "description": null, "timestamp": null, "begin": null, "end": null, "altitudeMode": null, "tessellate": -1, "extrude": 0, "visibility": -1, "drawOrder": null, "icon": null }, "geometry": { "type": "Point", "coordinates": [ 80.2622168, 13.1247298, 0.0 ] } },
{ "type": "Feature", "properties": { "name": null, "layer": "healthcare", "id": null, "Name": null, "description": null, "timestamp": null, "begin": null, "end": null, "altitudeMode": null, "tessellate": -1, "extrude": 0, "visibility": -1, "drawOrder": null, "icon": null }, "geometry": { "type": "Point", "coordinates": [ 80.2516612, 13.1229447, 0.0 ] } },
{ "type": "Feature", "properties": { "name": null, "layer": "healthcare", "id": null, "Name": null, "description": null, "timestamp": null, "begin": null, "end": null, "altitudeMode": null, "tessellate": -1, "extrude": 0, "visibility": -1, "drawOrder": null, "icon": null }, "geometry": { "type": "Point", "coordinates": [ 80.2781303, 13.137974, 0.0 ] } },
{ "type": "Feature", "properties": { "name": null, "layer": "healthcare", "id": null, "Name": null, "description": null, "timestamp": null, "begin": null, "end": null, "altitudeMode": null, "tessellate": -1, "extrude": 0, "visibility": -1, "drawOrder": null, "icon": null }, "geometry": { "type": "Point", "coordinates": [ 80.2710003, 13.0364315, 0.0 ] } },
{ "type": "Feature", "properties": { "name": null, "layer": "healthcare", "id": null, "Name": null, "description": null, "timestamp": null, "begin": null, "end": null, "altitudeMode": null, "tessellate": -1, "extrude": 0, "visibility": -1, "drawOrder": null, "icon": null }, "geometry": { "type": "Point", "coordinates": [ 80.2235198, 13.0580068, 0.0 ] } },
{ "type": "Feature", "properties": { "name": null, "layer": "healthcare", "id": null, "Name": null, "description": null, "timestamp": null, "begin": null, "end": null, "altitudeMode": null, "tessellate": -1, "extrude": 0, "visibility": -1, "drawOrder": null, "icon": null }, "geometry": { "type": "Point", "coordinates": [ 80.2524189, 13.0554818, 0.0 ] } },
{ "type": "Feature", "properties": { "name": null, "layer": "healthcare", "id": null, "Name": null, "description": null, "timestamp": null, "begin": null, "end": null, "altitudeMode": null, "tessellate": -1, "extrude": 0, "visibility": -1, "drawOrder": null, "icon": null }, "geometry": { "type": "Point", "coordinates": [ 80.2611888, 13.0257856, 0.0 ] } },
{ "type": "Feature", "properties": { "name": null, "layer": "healthcare", "id": null, "Name": null, "description": null, "timestamp": null, "begin": null, "end": null, "altitudeMode": null, "tessellate": -1, "extrude": 0, "visibility": -1, "drawOrder": null, "icon": null }, "geometry": { "type": "Point", "coordinates": [ 80.2570742, 13.0345762, 0.0 ] } },
{ "type": "Feature", "properties": { "name": null, "layer": "healthcare", "id": null, "Name": null, "description": null, "timestamp": null, "begin": null, "end": null, "altitudeMode": null, "tessellate": -1, "extrude": 0, "visibility": -1, "drawOrder": null, "icon": null }, "geometry": { "type": "Point", "coordinates": [ 80.2503392, 13.0355026, 0.0 ] } },
{ "type": "Feature", "properties": { "name": null, "layer": "healthcare", "id": null, "Name": null, "description": null, "timestamp": null, "begin": null, "end": null, "altitudeMode": null, "tessellate": -1, "extrude": 0, "visibility": -1, "drawOrder": null, "icon": null }, "geometry": { "type": "Point", "coordinates": [ 80.2679696, 13.0749732, 0.0 ] } },
{ "type": "Feature", "properties": { "name": null, "layer": "healthcare", "id": null, "Name": null, "description": null, "timestamp": null, "begin": null, "end": null, "altitudeMode": null, "tessellate": -1, "extrude": 0, "visibility": -1, "drawOrder": null, "icon": null }, "geometry": { "type": "Point", "coordinates": [ 80.2452672, 13.0730864, 0.0 ] } },
{ "type": "Feature", "properties": { "name": null, "layer": "healthcare", "id": null, "Name": null, "description": null, "timestamp": null, "begin": null, "end": null, "altitudeMode": null, "tessellate": -1, "extrude": 0, "visibility": -1, "drawOrder": null, "icon": null }, "geometry": { "type": "Point", "coordinates": [ 80.2143719, 12.9994108, 0.0 ] } },
{ "type": "Feature", "properties": { "name": null, "layer": "healthcare", "id": null, "Name": null, "description": null, "timestamp": null, "begin": null, "end": null, "altitudeMode": null, "tessellate": -1, "extrude": 0, "visibility": -1, "drawOrder": null, "icon": null }, "geometry": { "type": "Point", "coordinates": [ 80.203854, 13.1651165, 0.0 ] } },
{ "type": "Feature", "properties": { "name": null, "layer": "healthcare", "id": null, "Name": null, "description": null, "timestamp": null, "begin": null, "end": null, "altitudeMode": null, "tessellate": -1, "extrude": 0, "visibility": -1, "drawOrder": null, "icon": null }, "geometry": { "type": "Point", "coordinates": [ 80.2760271, 13.2062051, 0.0 ] } },
{ "type": "Feature", "properties": { "name": null, "layer": "healthcare", "id": null, "Name": null, "description": null, "timestamp": null, "begin": null, "end": null, "altitudeMode": null, "tessellate": -1, "extrude": 0, "visibility": -1, "drawOrder": null, "icon": null }, "geometry": { "type": "Point", "coordinates": [ 80.2284391, 12.8921433, 0.0 ] } },
{ "type": "Feature", "properties": { "name": null, "layer": "healthcare", "id": null, "Name": null, "description": null, "timestamp": null, "begin": null, "end": null, "altitudeMode": null, "tessellate": -1, "extrude": 0, "visibility": -1, "drawOrder": null, "icon": null }, "geometry": { "type": "Point", "coordinates": [ 80.2323171, 13.1424764, 0.0 ] } }
]
}
