{
"type": "FeatureCollection",
"name": "hubs",
"crs": { "type": "name", "properties": { "name": "urn:ogc:def:crs:OGC:1.3:CRS84" } },
"features": [
{ "type": "Feature", "properties": { "hub_name": "Chennai Beach", "hub_type": "MRTS" }, "geometry": { "type": "Point", "coordinates": [ 80.292058999854902, 13.092237999721601 ] } },
{ "type": "Feature", "properties": { "hub_name": "Chennai Fort", "hub_type": "MRTS" }, "geometry": { "type": "Point", "coordinates": [ 80.282792999552399, 13.0832459997062 ] } },
{ "type": "Feature", "properties": { "hub_name": "Parktown", "hub_type": "MRTS" }, "geometry": { "type": "Point", "coordinates": [ 80.276695999716097, 13.0794680002777 ] } },
{ "type": "Feature", "properties": { "hub_name": "Chintadripet", "hub_type": "MRTS" }, "geometry": { "type": "Point", "coordinates": [ 80.273842000044695, 13.073871000176799 ] } },
{ "type": "Feature", "properties": { "hub_name": "Chepauk", "hub_type": "MRTS" }, "geometry": { "type": "Point", "coordinates": [ 80.280558000270602, 13.061830000424001 ] } },
{ "type": "Feature", "properties": { "hub_name": "Tiruvelikeni", "hub_type": "MRTS" }, "geometry": { "type": "Point", "coordinates": [ 80.280575000116002, 13.055324000308699 ] } },
{ "type": "Feature", "properties": { "hub_name": "Light House", "hub_type": "MRTS" }, "geometry": { "type": "Point", "coordinates": [ 80.2767070004018, 13.04495600029 ] } },
{ "type": "Feature", "properties": { "hub_name": "Mundakanni Amman Koil", "hub_type": "MRTS" }, "geometry": { "type": "Point", "coordinates": [ 80.269873999569995, 13.0405509995832 ] } },
{ "type": "Feature", "properties": { "hub_name": "Thirumayilai", "hub_type": "MRTS" }, "geometry": { "type": "Point", "coordinates": [ 80.267017000179806, 13.034849000032301 ] } },
{ "type": "Feature", "properties": { "hub_name": "Mandaveli", "hub_type": "MRTS" }, "geometry": { "type": "Point", "coordinates": [ 80.2604779999415, 13.027834000258 ] } },
{ "type": "Feature", "properties": { "hub_name": "Greenways Road", "hub_type": "MRTS" }, "geometry": { "type": "Point", "coordinates": [ 80.251969999824695, 13.0205589997133 ] } },
{ "type": "Feature", "properties": { "hub_name": "Kotturpuram", "hub_type": "MRTS" }, "geometry": { "type": "Point", "coordinates": [ 80.248296999936997, 13.013697999686499 ] } },
{ "type": "Feature", "properties": { "hub_name": "Kasturiba Nagar", "hub_type": "MRTS" }, "geometry": { "type": "Point", "coordinates": [ 80.247675999649204, 13.005286999594301 ] } },
{ "type": "Feature", "properties": { "hub_name": "Indira Nagar", "hub_type": "MRTS" }, "geometry": { "type": "Point", "coordinates": [ 80.249644999896205, 12.9959719999342 ] } },
{ "type": "Feature", "properties": { "hub_name": "Thiruvanmiyur", "hub_type": "MRTS" }, "geometry": { "type": "Point", "coordinates": [ 80.251360000307798, 12.989529000220401 ] } },
{ "type": "Feature", "properties": { "hub_name": "Taramani", "hub_type": "MRTS" }, "geometry": { "type": "Point", "coordinates": [ 80.240884000407505, 12.978640000193399 ] } },
{ "type": "Feature", "properties": { "hub_name": "Perungudi", "hub_type": "MRTS" }, "geometry": { "type": "Point", "coordinates": [ 80.2314130001552, 12.9752469998751 ] } },
{ "type": "Feature", "properties": { "hub_name": "Velachery", "hub_type": "MRTS" }, "geometry": { "type": "Point", "coordinates": [ 80.219519999540097, 12.9673179998234 ] } },
{ "type": "Feature", "properties": { "hub_name": "Royapuram", "hub_type": "MRTS" }, "geometry": { "type": "Point", "coordinates": [ 80.293545000366706, 13.1040629998701 ] } },
{ "type": "Feature", "properties": { "hub_name": "Washermanpet", "hub_type": "MRTS" }, "geometry": { "type": "Point", "coordinates": [ 80.282534999847002, 13.1087219999139 ] } },
{ "type": "Feature", "properties": { "hub_name": "Chennai Central", "hub_type": "MRTS" }, "geometry": { "type": "Point", "coordinates": [ 80.274098000072499, 13.0839999996542 ] } },
{ "type": "Feature", "properties": { "hub_name": "Basin Bridge", "hub_type": "MRTS" }, "geometry": { "type": "Point", "coordinates": [ 80.271221000317297, 13.102670000277699 ] } },
{ "type": "Feature", "properties": { "hub_name": "Vyasarpadi Jeeva", "hub_type": "MRTS" }, "geometry": { "type": "Point", "coordinates": [ 80.257383999861801, 13.108919999645501 ] } },
{ "type": "Feature", "properties": { "hub_name": "Perambur", "hub_type": "MRTS" }, "geometry": { "type": "Point", "coordinates": [ 80.244282999700403, 13.107494999969299 ] } },
{ "type": "Feature", "properties": { "hub_name": "Charrjage Works", "hub_type": "MRTS" }, "geometry": { "type": "Point", "coordinates": [ 80.238399999769598, 13.107478000220899 ] } },
{ "type": "Feature", "properties": { "hub_name": "Loco Works", "hub_type": "MRTS" }, "geometry": { "type": "Point", "coordinates": [ 80.225189999645806, 13.1084069997735 ] } },
{ "type": "Feature", "properties": { "hub_name": "Villivakkam", "hub_type": "MRTS" }, "geometry": { "type": "Point", "coordinates": [ 80.209480000217098, 13.1102539999755 ] } },
{ "type": "Feature", "properties": { "hub_name": "Korattur", "hub_type": "MRTS" }, "geometry": { "type": "Point", "coordinates": [ 80.183506999653304, 13.113425000025 ] } },
{ "type": "Feature", "properties": { "hub_name": "Pattaravakkam", "hub_type": "MRTS" }, "geometry": { "type": "Point", "coordinates": [ 80.1662040002129, 13.114610999968599 ] } },
{ "type": "Feature", "properties": { "hub_name": "Ambattur", "hub_type": "MRTS" }, "geometry": { "type": "Point", "coordinates": [ 80.152761000408006, 13.1143040001466 ] } },
{ "type": "Feature", "properties": { "hub_name": "Thirumullaivoil", "hub_type": "MRTS" }, "geometry": { "type": "Point", "coordinates": [ 80.137203000276898, 13.115316000254399 ] } },
{ "type": "Feature", "properties": { "hub_name": "Annanur", "hub_type": "MRTS" }, "geometry": { "type": "Point", "coordinates": [ 80.127024000300906, 13.1163580003136 ] } },
{ "type": "Feature", "properties": { "hub_name": "Avadi", "hub_type": "MRTS" }, "geometry": { "type": "Point", "coordinates": [ 80.101517999923104, 13.1182519995874 ] } },
{ "type": "Feature", "properties": { "hub_name": "Hindu College", "hub_type": "MRTS" }, "geometry": { "type": "Point", "coordinates": [ 80.075000000108602, 13.118612999937 ] } },
{ "type": "Feature", "properties": { "hub_name": "Pattabiram", "hub_type": "MRTS" }, "geometry": { "type": "Point", "coordinates": [ 80.065003000366303, 13.1188540001476 ] } },
{ "type": "Feature", "properties": { "hub_name": "Tiruninravur", "hub_type": "MRTS" }, "geometry": { "type": "Point", "coordinates": [ 80.028218999742194, 13.1238569999653 ] } },
{ "type": "Feature", "properties": { "hub_name": "Veppambattu", "hub_type": "MRTS" }, "geometry": { "type": "Point", "coordinates": [ 79.997745999884501, 13.123766000430599 ] } },
{ "type": "Feature", "properties": { "hub_name": "Sevvapet Road", "hub_type": "MRTS" }, "geometry": { "type": "Point", "coordinates": [ 79.965671000431101, 13.1250300003543 ] } },
{ "type": "Feature", "properties": { "hub_name": "Putlur", "hub_type": "MRTS" }, "geometry": { "type": "Point", "coordinates": [ 79.937608000395102, 13.123268999579301 ] } },
{ "type": "Feature", "properties": { "hub_name": "Thiruvallur", "hub_type": "MRTS" }, "geometry": { "type": "Point", "coordinates": [ 79.9128509997214, 13.1161239995591 ] } },
{ "type": "Feature", "properties": { "hub_name": "Egattur", "hub_type": "MRTS" }, "geometry": { "type": "Point", "coordinates": [ 79.884217999823804, 13.106871999600701 ] } },
{ "type": "Feature", "properties": { "hub_name": "Kadambattur", "hub_type": "MRTS" }, "geometry": { "type": "Point", "coordinates": [ 79.862051000072597, 13.099654000428201 ] } },
{ "type": "Feature", "properties": { "hub_name": "Senjipanambakkam", "hub_type": "MRTS" }, "geometry": { "type": "Point", "coordinates": [ 79.835154999574499, 13.094617999618199 ] } },
{ "type": "Feature", "properties": { "hub_name": "Manavur", "hub_type": "MRTS" }, "geometry": { "type": "Point", "coordinates": [ 79.8015419997446, 13.0964700004062 ] } },
{ "type": "Feature", "properties": { "hub_name": "Thiruvalangadu", "hub_type": "MRTS" }, "geometry": { "type": "Point", "coordinates": [ 79.758623999992807, 13.0898369995646 ] } },
{ "type": "Feature", "properties": { "hub_name": "Mosur", "hub_type": "MRTS" }, "geometry": { "type": "Point", "coordinates": [ 79.718944000366804, 13.0855250000099 ] } },
{ "type": "Feature", "properties": { "hub_name": "Puliyamangalam", "hub_type": "MRTS" }, "geometry": { "type": "Point", "coordinates": [ 79.704246000033095, 13.0845929996674 ] } },
{ "type": "Feature", "properties": { "hub_name": "Arakkonam", "hub_type": "MRTS" }, "geometry": { "type": "Point", "coordinates": [ 79.667949000388703, 13.0815749999218 ] } },
{ "type": "Feature", "properties": { "hub_name": "Tiruttani", "hub_type": "MRTS" }, "geometry": { "type": "Point", "coordinates": [ 79.612427999687995, 13.179299000102599 ] } },
{ "type": "Feature", "properties": { "hub_name": "Chennai Park", "hub_type": "MRTS" }, "geometry": { "type": "Point", "coordinates": [ 80.273076999555798, 13.0806440000179 ] } },
{ "type": "Feature", "properties": { "hub_name": "Chennai Egmore", "hub_type": "MRTS" }, "geometry": { "type": "Point", "coordinates": [ 80.261311000248398, 13.078116000020399 ] } },
{ "type": "Feature", "properties": { "hub_name": "Chetpet", "hub_type": "MRTS" }, "geometry": { "type": "Point", "coordinates": [ 80.242132999962706, 13.0740740004334 ] } },
{ "type": "Feature", "properties": { "hub_name": "Nungambakkam", "hub_type": "MRTS" }, "geometry": { "type": "Point", "coordinates": [ 80.232690000392296, 13.064950000280099 ] } },
{ "type": "Feature", "properties": { "hub_name": "Kodambakkam", "hub_type": "MRTS" }, "geometry": { "type": "Point", "coordinates": [ 80.2306889998315, 13.0518209995695 ] } },
{ "type": "Feature", "properties": { "hub_name": "Mambalam", "hub_type": "MRTS" }, "geometry": { "type": "Point", "coordinates": [ 80.2276289997627, 13.037658000261199 ] } },
{ "type": "Feature", "properties": { "hub_name": "Saidapet", "hub_type": "MRTS" }, "geometry": { "type": "Point", "coordinates": [ 80.223892999953193, 13.0239360001781 ] } },
{ "type": "Feature", "properties": { "hub_name": "Guindy", "hub_type": "MRTS" }, "geometry": { "type": "Point", "coordinates": [ 80.213077999671896, 13.0087460003434 ] } },
{ "type": "Feature", "properties": { "hub_name": "St Thomas Mount", "hub_type": "MRTS" }, "geometry": { "type": "Point", "coordinates": [ 80.199358000149999, 12.995017000161001 ] } },
{ "type": "Feature", "properties": { "hub_name": "Pazhavanthangal", "hub_type": "MRTS" }, "geometry": { "type": "Point", "coordinates": [ 80.1866639996407, 12.990094000407501 ] } },
{ "type": "Feature", "properties": { "hub_name": "Meenambakkam", "hub_type": "MRTS" }, "geometry": { "type": "Point", "coordinates": [ 80.174788000134299, 12.984532000143799 ] } },
{ "type": "Feature", "properties": { "hub_name": "Tirusulam", "hub_type": "MRTS" }, "geometry": { "type": "Point", "coordinates": [ 80.165620999546306, 12.980225000329799 ] } },
{ "type": "Feature", "properties": { "hub_name": "Pallavaram", "hub_type": "MRTS" }, "geometry": { "type": "Point", "coordinates": [ 80.152478999861103, 12.968166999864801 ] } },
{ "type": "Feature", "properties": { "hub_name": "Chromepet", "hub_type": "MRTS" }, "geometry": { "type": "Point", "coordinates": [ 80.141041000435493, 12.951790000131499 ] } },
{ "type": "Feature", "properties": { "hub_name": "Tambaram Sanatorium", "hub_type": "MRTS" }, "geometry": { "type": "Point", "coordinates": [ 80.131711999974499, 12.938400999921701 ] } },
{ "type": "Feature", "properties": { "hub_name": "Tambaram", "hub_type": "MRTS" }, "geometry": { "type": "Point", "coordinates": [ 80.117799999606603, 12.9253149995789 ] } },
{ "type": "Feature", "properties": { "hub_name": "Korukkupet", "hub_type": "MRTS" }, "geometry": { "type": "Point", "coordinates": [ 80.278247999964705, 13.1198660000173 ] } },
{ "type": "Feature", "properties": { "hub_name": "Tondiarpet", "hub_type": "MRTS" }, "geometry": { "type": "Point", "coordinates": [ 80.281735999670602, 13.127525999949899 ] } },
{ "type": "Feature", "properties": { "hub_name": "V.O.C. Nagar", "hub_type": "MRTS" }, "geometry": { "type": "Point", "coordinates": [ 80.287414000436598, 13.1400160000508 ] } },
{ "type": "Feature", "properties": { "hub_name": "Thiruvottiyur", "hub_type": "MRTS" }, "geometry": { "type": "Point", "coordinates": [ 80.296270000079403, 13.1595439997774 ] } },
{ "type": "Feature", "properties": { "hub_name": "Wimco Nagar", "hub_type": "MRTS" }, "geometry": { "type": "Point", "coordinates": [ 80.305976000272693, 13.1806430000555 ] } },
{ "type": "Feature", "properties": { "hub_name": "Kathikivakkam", "hub_type": "MRTS" }, "geometry": { "type": "Point", "coordinates": [ 80.316851999806104, 13.204515999986 ] } },
{ "type": "Feature", "properties": { "hub_name": "Ennore", "hub_type": "MRTS" }, "geometry": { "type": "Point", "coordinates": [ 80.321678999544204, 13.21762799979 ] } },
{ "type": "Feature", "properties": { "hub_name": "Attipattu Pudunagar", "hub_type": "MRTS" }, "geometry": { "type": "Point", "coordinates": [ 80.299782000357297, 13.2491440002314 ] } },
{ "type": "Feature", "properties": { "hub_name": "Attipattu", "hub_type": "MRTS" }, "geometry": { "type": "Point", "coordinates": [ 80.289375999940901, 13.2612290001088 ] } },
{ "type": "Feature", "properties": { "hub_name": "Nandiambakkam", "hub_type": "MRTS" }, "geometry": { "type": "Point", "coordinates": [ 80.2760029999137, 13.2687840002092 ] } },
{ "type": "Feature", "properties": { "hub_name": "Minijur", "hub_type": "MRTS" }, "geometry": { "type": "Point", "coordinates": [ 80.259954999701705, 13.2819080000196 ] } },
{ "type": "Feature", "properties": { "hub_name": "Anuppambattu", "hub_type": "MRTS" }, "geometry": { "type": "Point", "coordinates": [ 80.230553999665801, 13.3045369997674 ] } },
{ "type": "Feature", "properties": { "hub_name": "Ponneri", "hub_type": "MRTS" }, "geometry": { "type": "Point", "coordinates": [ 80.199116999917806, 13.3325060002761 ] } },
{ "type": "Feature", "properties": { "hub_name": "Kavaraipettai", "hub_type": "MRTS" }, "geometry": { "type": "Point", "coordinates": [ 80.146901999920004, 13.3637760001759 ] } },
{ "type": "Feature", "properties": { "hub_name": "Gummidipundi", "hub_type": "MRTS" }, "geometry": { "type": "Point", "coordinates": [ 80.123675999956603, 13.4093949996308 ] } },
{ "type": "Feature", "properties": { "hub_name": "Elavur", "hub_type": "MRTS" }, "geometry": { "type": "Point", "coordinates": [ 80.115849000001603, 13.458859000402301 ] } },
{ "type": "Feature", "properties": { "hub_name": "Arambakkam", "hub_type": "MRTS" }, "geometry": { "type": "Point", "coordinates": [ 80.074721000131703, 13.5331329999243 ] } },
{ "type": "Feature", "properties": { "hub_name": "Tada", "hub_type": "MRTS" }, "geometry": { "type": "Point", "coordinates": [ 80.0363850002731, 13.588553999987401 ] } },
{ "type": "Feature", "properties": { "hub_name": "Akkampet", "hub_type": "MRTS" }, "geometry": { "type": "Point", "coordinates": [ 80.019700000014794, 13.644650000335099 ] } },
{ "type": "Feature", "properties": { "hub_name": "Sullurpetta", "hub_type": "MRTS" }, "geometry": { "type": "Point", "coordinates": [ 80.018460999872602, 13.696562000270299 ] } },
{ "type": "Feature", "properties": { "hub_name": "Perungalathur", "hub_type": "MRTS" }, "geometry": { "type": "Point", "coordinates": [ 80.095352000282801, 12.905631000423201 ] } },
{ "type": "Feature", "properties": { "hub_name": "Vandalur", "hub_type": "MRTS" }, "geometry": { "type": "Point", "coordinates": [ 80.084704000311206, 12.8913510001696 ] } },
{ "type": "Feature", "properties": { "hub_name": "Urappakkam", "hub_type": "MRTS" }, "geometry": { "type": "Point", "coordinates": [ 80.072392999900501, 12.867839000375 ] } },
{ "type": "Feature", "properties": { "hub_name": "Guduvancheri", "hub_type": "MRTS" }, "geometry": { "type": "Point", "coordinates": [ 80.057264000416893, 12.844914000392199 ] } },
{ "type": "Feature", "properties": { "hub_name": "Potheri", "hub_type": "MRTS" }, "geometry": { "type": "Point", "coordinates": [ 80.037061999822896, 12.821191000195 ] } },
{ "type": "Feature", "properties": { "hub_name": "Kattangulathur", "hub_type": "MRTS" }, "geometry": { "type": "Point", "coordinates": [ 80.026646999819903, 12.805789000446699 ] } },
{ "type": "Feature", "properties": { "hub_name": "Maraimalai Nagar", "hub_type": "MRTS" }, "geometry": { "type": "Point", "coordinates": [ 80.020183000131297, 12.7967679996733 ] } },
{ "type": "Feature", "properties": { "hub_name": "Singaperumal Koil", "hub_type": "MRTS" }, "geometry": { "type": "Point", "coordinates": [ 80.000819000235097, 12.761731000226501 ] } },
{ "type": "Feature", "properties": { "hub_name": "Paranur", "hub_type": "MRTS" }, "geometry": { "type": "Point", "coordinates": [ 79.983845999843396, 12.7302100004378 ] } },
{ "type": "Feature", "properties": { "hub_name": "Chengelpet", "hub_type": "MRTS" }, "geometry": { "type": "Point", "coordinates": [ 79.981077863819394, 12.693567438480599 ] } },
{ "type": "Feature", "properties": { "hub_name": "Reddypalayam", "hub_type": "MRTS" }, "geometry": { "type": "Point", "coordinates": [ 79.952954334819196, 12.7288137614644 ] } },
{ "type": "Feature", "properties": { "hub_name": "Villiambakkam", "hub_type": "MRTS" }, "geometry": { "type": "Point", "coordinates": [ 79.9340009997441, 12.751999999751099 ] } },
{ "type": "Feature", "properties": { "hub_name": "Palur", "hub_type": "MRTS" }, "geometry": { "type": "Point", "coordinates": [ 79.906885999800593, 12.7663639997908 ] } },
{ "type": "Feature", "properties": { "hub_name": "Palayasivaram", "hub_type": "MRTS" }, "geometry": { "type": "Point", "coordinates": [ 79.877473000374195, 12.776719000151401 ] } },
{ "type": "Feature", "properties": { "hub_name": "Walajabad", "hub_type": "MRTS" }, "geometry": { "type": "Point", "coordinates": [ 79.817216999811805, 12.7977670003269 ] } },
{ "type": "Feature", "properties": { "hub_name": "Nathapettai", "hub_type": "MRTS" }, "geometry": { "type": "Point", "coordinates": [ 79.756630000033098, 12.8236599996766 ] } },
{ "type": "Feature", "properties": { "hub_name": "Kancheepuram Old", "hub_type": "MRTS" }, "geometry": { "type": "Point", "coordinates": [ 79.712269999975206, 12.840863000164999 ] } },
{ "type": "Feature", "properties": { "hub_name": "Kancheepuram", "hub_type": "MRTS" }, "geometry": { "type": "Point", "coordinates": [ 79.705172000292507, 12.8484390002968 ] } },
{ "type": "Feature", "properties": { "hub_name": "Tirumalpur", "hub_type": "MRTS" }, "geometry": { "type": "Point", "coordinates": [ 79.673805000395802, 12.956621999586901 ] } },
{ "type": "Feature", "properties": { "hub_name": "BALAJI NAGAR", "hub_type": "MRTS" }, "geometry": { "type": "Point", "coordinates": [ 80.205149174777503, 12.9775031004665 ] } },
{ "type": "Feature", "properties": { "hub_name": "ADAMBAKKAM", "hub_type": "MRTS" }, "geometry": { "type": "Point", "coordinates": [ 80.196398784550894, 12.983426627616099 ] } },
{ "type": "Feature", "properties": { "hub_name": "THILAI GANGA NAGAR", "hub_type": "MRTS" }, "geometry": { "type": "Point", "coordinates": [ 80.195566623075905, 12.9890841986879 ] } },
{ "type": "Feature", "properties": { "hub_name": "", "hub_type": "MRTS" }, "geometry": { "type": "Point", "coordinates": [ 80.199349104408896, 12.995012600074901 ] } },
{ "type": "Feature", "properties": { "hub_name": "Metrological Department Sterling Road", "hub_type": "metro_named" }, "geometry": { "type": "Point", "coordinates": [ 80.24648, 13.06784 ] } },
{ "type": "Feature", "properties": { "hub_name": "Mannadi Metro", "hub_type": "metro_named" }, "geometry": { "type": "Point", "coordinates": [ 80.28618, 13.09425 ] } },
{ "type": "Feature", "properties": { "hub_name": "Airport Metro", "hub_type": "metro_named" }, "geometry": { "type": "Point", "coordinates": [ 80.16373, 12.98027 ] } },
{ "type": "Feature", "properties": { "hub_name": "Little Mount Metro", "hub_type": "metro_named" }, "geometry": { "type": "Point", "coordinates": [ 80.22322, 13.01396 ] } },
{ "type": "Feature", "properties": { "hub_name": "Ag Dms Metro Station", "hub_type": "metro_named" }, "geometry": { "type": "Point", "coordinates": [ 80.24796, 13.04486 ] } },
{ "type": "Feature", "properties": { "hub_name": "Nanganallur Metro", "hub_type": "metro_named" }, "geometry": { "type": "Point", "coordinates": [ 80.19341, 12.99928 ] } },
{ "type": "Feature", "properties": { "hub_name": "M.G.R.CENTRAL METRO R.S", "hub_type": "metro_named" }, "geometry": { "type": "Point", "coordinates": [ 80.27056, 13.08074 ] } },
{ "type": "Feature", "properties": { "hub_name": "Nandanam Metro", "hub_type": "metro_named" }, "geometry": { "type": "Point", "coordinates": [ 80.24096, 13.03174 ] } },
{ "type": "Feature", "properties": { "hub_name": "Nandanam Metro", "hub_type": "metro_named" }, "geometry": { "type": "Point", "coordinates": [ 80.24114, 13.03166 ] } },
{ "type": "Feature", "properties": { "hub_name": "Teynampet Metro", "hub_type": "metro_named" }, "geometry": { "type": "Point", "coordinates": [ 80.24662, 13.0371 ] } },
{ "type": "Feature", "properties": { "hub_name": "Teynampet Metro", "hub_type": "metro_named" }, "geometry": { "type": "Point", "coordinates": [ 80.24637, 13.03717 ] } },
{ "type": "Feature", "properties": { "hub_name": "Saidapet Metro", "hub_type": "metro_named" }, "geometry": { "type": "Point", "coordinates": [ 80.2282, 13.02377 ] } },
{ "type": "Feature", "properties": { "hub_name": "Manali Metro Water", "hub_type": "metro_named" }, "geometry": { "type": "Point", "coordinates": [ 80.26435, 13.16205 ] } },
{ "type": "Feature", "properties": { "hub_name": "Taramani Metro Station", "hub_type": "metro_named" }, "geometry": { "type": "Point", "coordinates": [ 80.24311, 12.97984 ] } },
{ "type": "Feature", "properties": { "hub_name": "Taramani Metro Station", "hub_type": "metro_named" }, "geometry": { "type": "Point", "coordinates": [ 80.24329, 12.97989 ] } },
{ "type": "Feature", "properties": { "hub_name": "Chennai Airport Metro", "hub_type": "metro_named" }, "geometry": { "type": "Point", "coordinates": [ 80.16326, 12.98178 ] } },
{ "type": "Feature", "properties": { "hub_name": "Metro Grand City2ndt Avenue", "hub_type": "metro_named" }, "geometry": { "type": "Point", "coordinates": [ 80.10449, 12.98396 ] } },
{ "type": "Feature", "properties": { "hub_name": "Metro Grand City 4th Main Road", "hub_type": "metro_named" }, "geometry": { "type": "Point", "coordinates": [ 80.10542, 12.98514 ] } },
{ "type": "Feature", "properties": { "hub_name": "Metro Grand City 4th Main Road", "hub_type": "metro_named" }, "geometry": { "type": "Point", "coordinates": [ 80.10569, 12.98508 ] } },
{ "type": "Feature", "properties": { "hub_name": "Metro Grand City 2nd Main Road", "hub_type": "metro_named" }, "geometry": { "type": "Point", "coordinates": [ 80.10805, 12.98596 ] } },
{ "type": "Feature", "properties": { "hub_name": "Metro Grand City 1st Avenue", "hub_type": "metro_named" }, "geometry": { "type": "Point", "coordinates": [ 80.10655, 12.98561 ] } },
{ "type": "Feature", "properties": { "hub_name": "Metro Grand City 1st Avenue", "hub_type": "metro_named" }, "geometry": { "type": "Point", "coordinates": [ 80.10659, 12.98584 ] } },
{ "type": "Feature", "properties": { "hub_name": "Metro Grand City 2nd Main Road", "hub_type": "metro_named" }, "geometry": { "type": "Point", "coordinates": [ 80.10769, 12.98599 ] } },
{ "type": "Feature", "properties": { "hub_name": "Meeanambakkam Metro", "hub_type": "metro_named" }, "geometry": { "type": "Point", "coordinates": [ 80.17596, 12.98746 ] } },
{ "type": "Feature", "properties": { "hub_name": "Manali Metro Water", "hub_type": "metro_named" }, "geometry": { "type": "Point", "coordinates": [ 80.26413, 13.16197 ] } },
{ "type": "Feature", "properties": { "hub_name": "Guindy Metro Station", "hub_type": "metro_named" }, "geometry": { "type": "Point", "coordinates": [ 80.21303, 13.00931 ] } },
{ "type": "Feature", "properties": { "hub_name": "Ag Dms Metro Station", "hub_type": "metro_named" }, "geometry": { "type": "Point", "coordinates": [ 80.24812, 13.04484 ] } },
{ "type": "Feature", "properties": { "hub_name": "Metrological Department Sterling Road", "hub_type": "metro_named" }, "geometry": { "type": "Point", "coordinates": [ 80.2464, 13.06767 ] } },
{ "type": "Feature", "properties": { "hub_name": "Koyambedu Metro", "hub_type": "metro_named" }, "geometry": { "type": "Point", "coordinates": [ 80.19492, 13.07331 ] } },
{ "type": "Feature", "properties": { "hub_name": "Anna Nagar East Metro Station", "hub_type": "metro_named" }, "geometry": { "type": "Point", "coordinates": [ 80.22045, 13.08446 ] } },
{ "type": "Feature", "properties": { "hub_name": "Anna Nagar East Metro Station", "hub_type": "metro_named" }, "geometry": { "type": "Point", "coordinates": [ 80.21952, 13.0848 ] } },
{ "type": "Feature", "properties": { "hub_name": "Thirumangalam Metro", "hub_type": "metro_named" }, "geometry": { "type": "Point", "coordinates": [ 80.20121, 13.08543 ] } },
{ "type": "Feature", "properties": { "hub_name": "Thirumangalam Metro", "hub_type": "metro_named" }, "geometry": { "type": "Point", "coordinates": [ 80.20118, 13.08514 ] } },
{ "type": "Feature", "properties": { "hub_name": "Alandur Metro", "hub_type": "metro_named" }, "geometry": { "type": "Point", "coordinates": [ 80.20073, 13.00375 ] } },
{ "type": "Feature", "properties": { "hub_name": "Alandur Metro", "hub_type": "metro_named" }, "geometry": { "type": "Point", "coordinates": [ 80.20129, 13.00421 ] } }
]
}
