{"type": "FeatureCollection", "features": [{"type": "Feature", "properties": {"corridor_name": "IT Corridor / OMR", "query": "Rajiv Gandhi Salai, Chennai", "osm_display_name": "Rajiv Gandhi Salai, CMWSSB Division 200, Panaiyur, Zone 15 Sholinganallur, Chennai Corporation, Sholinganallur, Chennai, Tamil Nadu, 600130, India", "osm_type": "primary", "source": "cmp_pdf_mention+nominatim"}, "geometry": {"type": "LineString", "coordinates": [[80.2270086, 12.8765254], [80.2270095, 12.8765106], [80.227008, 12.876457], [80.2270074, 12.8764087], [80.2269771, 12.8753347], [80.2267893, 12.8739319], [80.2267202, 12.8730563], [80.2267109, 12.8729386], [80.2267022, 12.8727662], [80.2266644, 12.8709271], [80.2266043, 12.8702813], [80.2265927, 12.8701568], [80.2265643, 12.869903], [80.2265413, 12.8696967], [80.2264182, 12.8685936], [80.2264183, 12.8681145], [80.2265743, 12.8664798], [80.2266444, 12.8657454], [80.2266075, 12.8649207], [80.2266036, 12.8648329], [80.2265562, 12.8636255], [80.2265522, 12.8629397], [80.2266115, 12.8619308], [80.2266444, 12.8613712], [80.2265649, 12.8603814], [80.2265472, 12.8601615], [80.2263657, 12.8590994], [80.2263211, 12.8587611], [80.2263137, 12.8587052], [80.2262841, 12.8584804], [80.2262704, 12.857757], [80.2263529, 12.8568699], [80.2264908, 12.8555834], [80.2265986, 12.8545062], [80.2267135, 12.8533608], [80.2266989, 12.8524056], [80.2266988, 12.852397], [80.226697, 12.8523587], [80.2266272, 12.8509033], [80.2266055, 12.8500231], [80.2266039, 12.8498979], [80.2266012, 12.8496817], [80.2265943, 12.849125], [80.226601, 12.8480427], [80.2266162, 12.8464299], [80.2266265, 12.8460479], [80.2266367, 12.8458745], [80.2266475, 12.8452689], [80.2266675, 12.8447541], [80.2266707, 12.8447298], [80.226939, 12.8427975], [80.2269715, 12.8426788], [80.2270559, 12.84226], [80.2271209, 12.8419612], [80.2274805, 12.8406435], [80.2275662, 12.8403296], [80.2275832, 12.8402673], [80.2276322, 12.8400845], [80.227716, 12.8397718]]}}, {"type": "Feature", "properties": {"corridor_name": "Anna Salai", "query": "Anna Salai, Chennai", "osm_display_name": "Anna Salai (Mount Road), CMWSSB Division 171, Ward 171, Zone 13 Adyar, Chennai Corporation, Chennai, Tamil Nadu, 600015, India", "osm_type": "primary", "source": "cmp_pdf_mention+nominatim"}, "geometry": {"type": "LineString", "coordinates": [[80.2290969, 13.0245613], [80.2285918, 13.0242865], [80.2283273, 13.0240778], [80.2278287, 13.0236798], [80.2274567, 13.0232757], [80.2267296, 13.0224454], [80.2266432, 13.0223423], [80.2261912, 13.0218028], [80.2257563, 13.0211986], [80.2254189, 13.0207299], [80.2253934, 13.0206945], [80.225136, 13.0203745], [80.224913, 13.0200841], [80.2247609, 13.0198719], [80.2247137, 13.0198054], [80.2246772, 13.0197518], [80.2246044, 13.0196117], [80.2245557, 13.0194991], [80.2245208, 13.019373], [80.2244954, 13.0192375], [80.2244853, 13.019132], [80.2244857, 13.0190746], [80.224489, 13.0190318], [80.2244972, 13.0189569], [80.2245094, 13.0188908], [80.2245228, 13.0188451], [80.2245501, 13.0187755]]}}, {"type": "Feature", "properties": {"corridor_name": "Periyar EVR Salai", "query": "EVR Periyar Salai, Chennai", "osm_display_name": "EVR Periyar Salai, CMWSSB Division 107, Ward 107, Zone 8 Anna Nagar, Chennai Corporation, Chennai, Tamil Nadu, 600030, India", "osm_type": "primary", "source": "cmp_pdf_mention+nominatim"}, "geometry": {"type": "LineString", "coordinates": [[80.2380274, 13.0765787], [80.2379839, 13.0765673], [80.2376145, 13.076494], [80.2373787, 13.0764534], [80.2367714, 13.0763379], [80.2357826, 13.0761408], [80.2339785, 13.0757542], [80.2339148, 13.0757405], [80.2332824, 13.0755849], [80.2329478, 13.0755024], [80.2320629, 13.0752283], [80.2319471, 13.0751825], [80.2308711, 13.0748097], [80.2302236, 13.0745078], [80.2294166, 13.0741996], [80.229074, 13.0741092], [80.2283965, 13.0740238], [80.2275579, 13.0739524], [80.2263395, 13.0738118], [80.2258956, 13.0738268], [80.2247736, 13.0739518], [80.2247, 13.07396], [80.2246478, 13.0739658], [80.2237362, 13.0740672], [80.2235458, 13.0740904], [80.2228395, 13.0741389], [80.2223795, 13.0741557]]}}, {"type": "Feature", "properties": {"corridor_name": "GST Road", "query": "GST Road, Chennai", "osm_display_name": "Grand Southern Trunk Road, CMWSSB Division 159, Ward 159, Zone 12 Alandur, Chennai Corporation, Alandur, Chennai, Tamil Nadu, 600027, India", "osm_type": "trunk", "source": "cmp_pdf_mention+nominatim"}, "geometry": {"type": "LineString", "coordinates": [[80.185461, 12.9939188], [80.1852139, 12.9937859], [80.1847688, 12.9935464], [80.183359, 12.9927881], [80.1827365, 12.9923756], [80.1825824, 12.9922735], [80.180964, 12.9910147], [80.1798854, 12.9901758], [80.1792474, 12.9896796], [80.178939, 12.9894397], [80.1779477, 12.9886687], [80.1772959, 12.9881813], [80.1760249, 12.987276], [80.175985, 12.9872441], [80.1759219, 12.9871937], [80.175882, 12.9871665], [80.1747997, 12.9864284], [80.1740966, 12.9859447], [80.1731096, 12.9852674], [80.1710618, 12.9839195], [80.1681767, 12.9822179], [80.1674123, 12.9817347], [80.167118, 12.9815741], [80.1670044, 12.9815242], [80.1668305, 12.9814302], [80.1654922, 12.9806839], [80.165066, 12.9805033], [80.1650584, 12.9805001], [80.1646346, 12.9803407], [80.16339, 12.9800035], [80.1629475, 12.9798702], [80.1626363, 12.9797238], [80.1623191, 12.9795371]]}}, {"type": "Feature", "properties": {"corridor_name": "GNT Road", "query": "Grand Northern Trunk Road, Chennai", "osm_display_name": "Grand Northern Trunk Road, CMWSSB Division 32, Ward 26, Zone 3 Madhavaram, Chennai Corporation, Chennai, Tamil Nadu, 600099, India", "osm_type": "primary", "source": "cmp_pdf_mention+nominatim"}, "geometry": {"type": "LineString", "coordinates": [[80.2140849, 13.1305695], [80.2140473, 13.1305238]]}}, {"type": "Feature", "properties": {"corridor_name": "Inner Ring Road", "query": "Inner Ring Road, Chennai", "osm_display_name": "Jawaharlal Nehru Road (100 Feet Road), CMWSSB Division 26, Manjampakkam, Ward 26, Zone 3 Madhavaram, Chennai Corporation, Madhavaram, Thiruvallur, Tamil Nadu, 600110, India", "osm_type": "primary", "source": "cmp_pdf_mention+nominatim"}, "geometry": {"type": "LineString", "coordinates": [[80.2141626, 13.1310075], [80.2142689, 13.1312707], [80.2142857, 13.1313082], [80.2147493, 13.132339], [80.2152704, 13.1335552], [80.2155217, 13.1340806], [80.2155865, 13.1341826], [80.2156084, 13.1342244], [80.2158892, 13.1348149], [80.2159765, 13.1350043], [80.2161257, 13.135391], [80.2166544, 13.1364518], [80.2166972, 13.1365519], [80.2167965, 13.1367842], [80.2169496, 13.1371384], [80.2172159, 13.1377546], [80.2174293, 13.1382486], [80.2179593, 13.1395173], [80.2179632, 13.1395374], [80.2180271, 13.1397356]]}}, {"type": "Feature", "properties": {"corridor_name": "Outer Ring Road", "query": "Chennai Outer Ring Road", "osm_display_name": "Radisson Blu Bengaluru Outer Ring Road, Sy. #90/4, Outer Ring Road, Kaadubeesanahalli, Panathur, Bengaluru East City Corporation, Bengaluru, Bangalore East, Bengaluru Urban, Karnataka, 560037, India", "osm_type": "hotel", "source": "cmp_pdf_mention+nominatim"}, "geometry": {"type": "Polygon", "coordinates": [[[77.6978107, 12.9504948], [77.6987239, 12.9502413], [77.6987065, 12.9500898], [77.6992512, 12.9499282], [77.6992831, 12.949997], [77.6993487, 12.9503435], [77.6993379, 12.9503992], [77.699356, 12.9504234], [77.6989317, 12.950534], [77.6989464, 12.9506293], [77.6978724, 12.9508285], [77.6978107, 12.9504948]]]}}, {"type": "Feature", "properties": {"corridor_name": "NH32", "query": "NH 32, Chennai", "osm_display_name": "Chennai Corporation, Chennai, Tamil Nadu, India", "osm_type": "administrative", "source": "cmp_pdf_mention+nominatim"}, "geometry": {"type": "Polygon", "coordinates": [[[80.1401875, 13.1057138], [80.1403998, 13.0978875], [80.1435871, 13.0955556], [80.1449449, 13.0925863], [80.1444724, 13.0901636], [80.1455482, 13.0895991], [80.1461328, 13.0884445], [80.1463258, 13.0881259], [80.1462668, 13.0879065], [80.1460415, 13.0877602], [80.1460147, 13.0874258], [80.1461166, 13.0870914], [80.1470071, 13.086736], [80.1474303, 13.0862678], [80.1496432, 13.0865486], [80.1503445, 13.0863596], [80.1514757, 13.0849856], [80.151186, 13.0844631], [80.1530494, 13.0832436], [80.1541143, 13.0821881], [80.1566361, 13.0812845], [80.1597769, 13.080519], [80.1613459, 13.0797058], [80.161333, 13.0792356], [80.1604374, 13.0791086], [80.1602997, 13.0788829], [80.1603708, 13.0734575], [80.160681, 13.0729571], [80.1619423, 13.0727143], [80.1622206, 13.0724502], [80.1620671, 13.0721337], [80.1626873, 13.0717134], [80.1630628, 13.0703548], [80.1630546, 13.0694307], [80.1627256, 13.0686678], [80.1623847, 13.0684611], [80.1621401, 13.0682124], [80.1620719, 13.0672187], [80.1628782, 13.0673165], [80.1631084, 13.0668881], [80.1631883, 13.0642594], [80.1628053, 13.0638438], [80.1618893, 13.0635271], [80.1617432, 13.0629555], [80.1617593, 13.0612258], [80.1616894, 13.0604082], [80.161523, 13.0558154], [80.1614964, 13.0506928], [80.162063, 13.0502008], [80.1624191, 13.0486944], [80.1626122, 13.0474977], [80.1624405, 13.0466093], [80.1621673, 13.0462858], [80.1615983, 13.046071], [80.1613087, 13.0455937], [80.1613462, 13.0427734], [80.1609384, 13.0410704], [80.160751, 13.0410731], [80.1585305, 13.041105], [80.150618, 13.0410244], [80.1502955, 13.0397423], [80.1496303, 13.0398782], [80.1496732, 13.0408502], [80.1486429, 13.0412981], [80.1465133, 13.0412636], [80.1465095, 13.0396982], [80.1465093, 13.0396326], [80.146501, 13.0362007], [80.1462017, 13.0344341], [80.1461863, 13.034004], [80.1465511, 13.0336381], [80.1472056, 13.0339308], [80.1479052, 13.0339193], [80.1478596, 13.0332207], [80.1473532, 13.0317576], [80.1453817, 13.0315686], [80.1451522, 13.027541], [80.1452841, 13.0245695], [80.1454568, 13.0240949], [80.1454353, 13.0236768], [80.1450273, 13.0230616], [80.1448721, 13.021858], [80.144856, 13.0215235], [80.1451617, 13.0213876], [80.1463956, 13.0213144], [80.1473803, 13.0208522], [80.1474755, 13.018431], [80.1475435, 13.0173057], [80.1476401, 13.0170652], [80.1479673, 13.016945], [80.1487666, 13.016945], [80.1489973, 13.0174311], [80.1493084, 13.01752], [80.1502133, 13.017391], [80.1515259, 13.0169854], [80.1517232, 13.0166108], [80.1526904, 13.0160913], [80.1528015, 13.0158219], [80.1529036, 13.0154925], [80.1530119, 13.0151429], [80.1532158, 13.0149586], [80.1532241, 13.0149427], [80.1534934, 13.0144255], [80.1539829, 13.0141903], [80.1542417, 13.0139199], [80.1544429, 13.0137591], [80.154685, 13.0135618], [80.1548949, 13.0133347], [80.1550859, 13.0132887], [80.1557547, 13.0131868], [80.1558745, 13.0131685], [80.1565441, 13.0131358], [80.1578808, 13.013715], [80.1582468, 13.0143628], [80.1587566, 13.0150266], [80.1593345, 13.0151419], [80.159694, 13.0150426], [80.1600771, 13.0146223], [80.1611512, 13.0146735], [80.1615708, 13.0142248], [80.1611743, 13.0129092], [80.161421, 13.0116016], [80.1603642, 13.0115575], [80.1603197, 13.0106276], [80.1594449, 13.0106276], [80.1589452, 13.0074759], [80.1590595, 13.0067906], [80.1634242, 13.006315], [80.1635617, 13.0060631], [80.1636485, 13.0039386], [80.1627384, 13.0026615], [80.1605108, 12.9987609], [80.1645505, 12.9883777], [80.1662506, 12.9840079], [80.1654044, 12.9811678], [80.1727216, 12.9797879], [80.1736753, 12.9799918], [80.1742461, 12.9799291], [80.1751387, 12.9796782], [80.1754649, 12.9794774], [80.1755164, 12.9785992], [80.1762974, 12.9777545], [80.1763833, 12.975513], [80.1768382, 12.9724601], [80.176452, 12.9710801], [80.1816876, 12.9681526], [80.1819639, 12.9680062], [80.1830867, 12.9682781], [80.1844428, 12.9689556], [80.1857045, 12.969148], [80.1860478, 12.9694825], [80.1862195, 12.969516], [80.1873267, 12.969516], [80.1877215, 12.9696331], [80.1884425, 12.9695913], [80.1887601, 12.9695578], [80.1898158, 12.9692149], [80.19117, 12.9685695], [80.1907621, 12.9673775], [80.1901746, 12.9669949], [80.1899132, 12.9659065], [80.1900887, 12.9657403], [80.1904213, 12.9656462], [80.1905639, 12.9654293], [80.1893898, 12.9594201], [80.1889408, 12.9590436], [80.1887674, 12.9583771], [80.1878188, 12.9586334], [80.1876867, 12.9582615], [80.190314, 12.9574461], [80.1922502, 12.9574673], [80.1921564, 12.9572149], [80.1918805, 12.9564715], [80.1907432, 12.956278], [80.1905072, 12.9544692], [80.1906681, 12.9542183], [80.1920521, 12.954051], [80.192213, 12.9538314], [80.1924065, 12.9529795], [80.1924595, 12.9520214], [80.1926476, 12.9517377], [80.1932273, 12.9515392], [80.193533, 12.9515254], [80.1937024, 12.9516423], [80.1935918, 12.9525305], [80.1937683, 12.9529695], [80.194737, 12.9533031], [80.1973844, 12.9535202], [80.1992857, 12.9534926], [80.2007369, 12.9531163], [80.2013031, 12.9527571], [80.2017, 12.9521349], [80.2019473, 12.9514535], [80.2019977, 12.9506946], [80.2014851, 12.9489632], [80.1989952, 12.9479662], [80.200386, 12.9436505], [80.1997705, 12.9417176], [80.199601, 12.9412728], [80.1993538, 12.9408602], [80.1984938, 12.9396871], [80.1978152, 12.9392564], [80.1973734, 12.9390794], [80.197008, 12.938743], [80.1969874, 12.9383982], [80.1967862, 12.9380417], [80.1959643, 12.9374362], [80.196119, 12.9365863], [80.1951742, 12.9367356], [80.194391, 12.936631], [80.1943593, 12.9365604], [80.1941657, 12.9361291], [80.1939082, 12.9360036], [80.1935275, 12.9359534], [80.1928461, 12.9352136], [80.1927592, 12.9347096], [80.1933556, 12.9344926], [80.1939404, 12.9343217], [80.1947236, 12.9341894], [80.1956836, 12.9340296], [80.1956772, 12.933331], [80.1956989, 12.932828], [80.1957009, 12.9326014], [80.1956955, 12.9324444], [80.1956654, 12.931569], [80.1940856, 12.9316098], [80.1940422, 12.9308638], [80.1943166, 12.9308835], [80.1943161, 12.9307745], [80.1956988, 12.9306915], [80.195578, 12.9306303], [80.1954829, 12.9295579], [80.1954598, 12.9294035], [80.1951693, 12.9282148], [80.1950415, 12.9269907], [80.1949075, 12.9257075], [80.1952616, 12.9245643], [80.1955665, 12.9243607], [80.1959588, 12.9241436], [80.1967828, 12.9239034], [80.1975633, 12.9236907], [80.1974194, 12.9218787], [80.1973742, 12.9217944], [80.1970044, 12.9211041], [80.1968994, 12.920908], [80.1963129, 12.9189989], [80.1963824, 12.9188588], [80.1971283, 12.9173558], [80.1966392, 12.9157358], [80.1957893, 12.9143984], [80.1949041, 12.9128538], [80.1944991, 12.9098548], [80.1958316, 12.9102017], [80.2033301, 12.9093744], [80.2048372, 12.9093135], [80.2088321, 12.9095543], [80.2140518, 12.9093375], [80.2139243, 12.9081398], [80.21345, 12.9036352], [80.2129381, 12.8912998], [80.2101373, 12.8794463], [80.2077606, 12.8754889], [80.2077099, 12.8753993], [80.2082513, 12.8739249], [80.2119087, 12.8635829], [80.2136832, 12.8600342], [80.2156454, 12.8578274], [80.2165083, 12.8570451], [80.2172663, 12.856358], [80.2166123, 12.8539459], [80.2181817, 12.8526021], [80.2240278, 12.8524223], [80.2285402, 12.8522835], [80.2320854, 12.8519771], [80.2332097, 12.854321], [80.2360008, 12.8589846], [80.2399786, 12.8581583], [80.2399931, 12.8579748], [80.2413898, 12.8580101], [80.2420628, 12.8580172], [80.2492621, 12.8567479], [80.2523393, 12.8761322], [80.2526722, 12.8787813], [80.2558753, 12.9042689], [80.2579036, 12.9204068], [80.2598867, 12.9381692], [80.2608153, 12.9435145], [80.2628393, 12.9551644], [80.2625022, 12.9562721], [80.2638817, 12.9613595], [80.2647466, 12.965262], [80.2663066, 12.9735739], [80.2683936, 12.9830499], [80.2698781, 12.9882586], [80.2702331, 12.989504], [80.2719658, 12.9962004], [80.2722072, 12.9973655], [80.2709627, 12.997721], [80.2713275, 13.000669], [80.2724218, 13.0023416], [80.2737093, 13.0023416], [80.2767338, 13.0126159], [80.2775817, 13.017744], [80.2777412, 13.0187087], [80.2777497, 13.0187599], [80.2778265, 13.0192245], [80.2778351, 13.0192768], [80.2778667, 13.0194681], [80.2778726, 13.0195034], [80.2778979, 13.0196565], [80.277939, 13.019905], [80.2779467, 13.019952], [80.2780547, 13.0206049], [80.278296, 13.0220644], [80.279088, 13.027817], [80.2800692, 13.035124], [80.2807487, 13.0432342], [80.2809673, 13.0451774], [80.2810049, 13.0459351], [80.2808691, 13.0462771], [80.2808118, 13.0469437], [80.2813656, 13.0503177], [80.2824813, 13.0575709], [80.2858972, 13.0572177], [80.286026, 13.0574477], [80.2873778, 13.062318], [80.2895334, 13.0672197], [80.2946949, 13.079541], [80.301118, 13.0904683], [80.3023445, 13.0930845], [80.3036964, 13.0966165], [80.3035784, 13.0979227], [80.3031814, 13.0984034], [80.2981281, 13.1002948], [80.2975058, 13.1010576], [80.2974415, 13.1015279], [80.2975354, 13.1021013], [80.2979994, 13.1025833], [80.2984363, 13.1041859], [80.3014894, 13.1139583], [80.3020549, 13.1167211], [80.3015613, 13.1177868], [80.3000601, 13.121132], [80.2992657, 13.122971], [80.2975058, 13.1235964], [80.2968406, 13.1244113], [80.2977419, 13.1267309], [80.2985143, 13.1293639], [80.2976346, 13.1300953], [80.2975346, 13.1316098], [80.2988577, 13.1374299], [80.2996731, 13.1409614], [80.3002128, 13.1430664], [80.304561, 13.1422012], [80.3074293, 13.1490849], [80.3106501, 13.1594555], [80.3117082, 13.1631897], [80.3127061, 13.1673712], [80.3156926, 13.1742525], [80.318695, 13.1887431], [80.3227333, 13.2046579], [80.3268506, 13.2179882], [80.3328982, 13.234746], [80.3324012, 13.2346147], [80.3304433, 13.2342641], [80.327074, 13.235158], [80.323534, 13.2325513], [80.3175622, 13.2311942], [80.3175044, 13.2297105], [80.3160846, 13.2265827], [80.3130385, 13.2201535], [80.3078404, 13.2133654], [80.3062915, 13.2114576], [80.3044397, 13.2110432], [80.3008018, 13.2110661], [80.3000776, 13.2127017], [80.2982694, 13.2138243], [80.2977204, 13.2171982], [80.2936796, 13.2203456], [80.292475, 13.2204178], [80.2890123, 13.221111], [80.2882422, 13.2220625], [80.2854471, 13.2264485], [80.2839435, 13.2274435], [80.2762853, 13.2264798], [80.2735376, 13.2267235], [80.2700838, 13.2247114], [80.2686023, 13.2247391], [80.2668555, 13.2237622], [80.2671432, 13.2228382], [80.2703853, 13.2204108], [80.272353, 13.2157819], [80.2708251, 13.2094606], [80.2698936, 13.2035781], [80.2683127, 13.2037138], [80.2664049, 13.2036175], [80.256345, 13.2057566], [80.2538383, 13.2058818], [80.2498599, 13.2060804], [80.2495116, 13.1986751], [80.2391711, 13.1991321], [80.2386656, 13.1961792], [80.2283692, 13.1973707], [80.229593, 13.1957129], [80.2304349, 13.1921499], [80.2316417, 13.1895479], [80.2315518, 13.1870254], [80.2314829, 13.1849212], [80.2299595, 13.184256], [80.2287125, 13.1851519], [80.2279401, 13.1846087], [80.2261094, 13.1851234], [80.2219534, 13.1860294], [80.2216173, 13.1845092], [80.2198871, 13.1819144], [80.2200416, 13.18087], [80.2234471, 13.1802742], [80.2231811, 13.1770878], [80.2175939, 13.1786681], [80.214481, 13.177321], [80.2134377, 13.1778179], [80.2135232, 13.1803778], [80.2115544, 13.1802482], [80.2109241, 13.1799498], [80.2104521, 13.1751862], [80.2088188, 13.17472], [80.206867, 13.1744275], [80.20642, 13.1744756], [80.2051468, 13.1752716], [80.2042365, 13.1756014], [80.2025373, 13.1762171], [80.2015253, 13.1768595], [80.2018046, 13.1782679], [80.2015257, 13.1788947], [80.2006996, 13.1794066], [80.2003133, 13.1791663], [80.2001202, 13.1773069], [80.1999269, 13.177001], [80.199852, 13.1765547], [80.1989849, 13.1758839], [80.1988971, 13.1755623], [80.1992458, 13.1746202], [80.19808, 13.1739414], [80.1972971, 13.1741431], [80.19438, 13.1757837], [80.1917143, 13.175396], [80.1903015, 13.1678282], [80.1908211, 13.1666645], [80.1935233, 13.1648935], [80.1920163, 13.1639827], [80.1918604, 13.159024], [80.1943547, 13.158518], [80.1948224, 13.1562916], [80.1937814, 13.1553445], [80.1930771, 13.1547037], [80.1911926, 13.1529892], [80.1853167, 13.1476433], [80.1832947, 13.1466329], [80.1795965, 13.1486537], [80.1788515, 13.1481356], [80.1773782, 13.1490968], [80.1768397, 13.1488134], [80.1768105, 13.1474386], [80.1775674, 13.146163], [80.1769415, 13.1463189], [80.1771692, 13.1427281], [80.1783771, 13.1394091], [80.1769625, 13.1377254], [80.1719872, 13.1411283], [80.1703993, 13.1423663], [80.1694767, 13.1423768], [80.1688866, 13.1421417], [80.1684274, 13.1413734], [80.1674909, 13.1399225], [80.1663628, 13.1359221], [80.165107, 13.1346785], [80.1645942, 13.1347447], [80.1639889, 13.1348229], [80.1636012, 13.135036], [80.1618718, 13.1394406], [80.1612067, 13.1401661], [80.1602484, 13.1403409], [80.1585318, 13.140654], [80.1574482, 13.1409151], [80.1560963, 13.1413018], [80.1539935, 13.1416465], [80.1520945, 13.1408734], [80.1501775, 13.1397076], [80.1495123, 13.137921], [80.1454426, 13.1385853], [80.1453924, 13.1365732], [80.1471948, 13.132979], [80.1477348, 13.1276334], [80.1463233, 13.1262327], [80.1437459, 13.1244291], [80.1433647, 13.1240717], [80.1433642, 13.1237181], [80.1433637, 13.1236897], [80.1435363, 13.1219977], [80.1432145, 13.1193437], [80.1428282, 13.118163], [80.1426198, 13.11671], [80.1424567, 13.115573], [80.1417929, 13.1150336], [80.1412227, 13.1087164], [80.1401875, 13.1057138]], [[80.1743033, 12.9913738], [80.1757462, 12.9933045], [80.1774691, 12.9953217], [80.1762539, 12.9996387], [80.1774903, 13.0009723], [80.1806525, 13.0038202], [80.1810435, 13.0040487], [80.1820339, 13.0050362], [80.1821844, 13.0051862], [80.1824898, 13.0055837], [80.1836283, 13.0070038], [80.184859, 13.0074918], [80.1853905, 13.0076929], [80.1856397, 13.0080901], [80.1860304, 13.0083468], [80.1863955, 13.0083208], [80.186565, 13.0081805], [80.1868176, 13.008182], [80.1886313, 13.0094084], [80.1891072, 13.0095526], [80.1896128, 13.0094992], [80.1918616, 13.0090606], [80.1934083, 13.0086743], [80.193576, 13.0087602], [80.1937134, 13.0091002], [80.1940365, 13.0107132], [80.1943608, 13.0121848], [80.1943753, 13.013796], [80.1937481, 13.014951], [80.1935702, 13.0160804], [80.1938324, 13.0182583], [80.1944, 13.0241406], [80.19476, 13.0269761], [80.1946816, 13.0270539], [80.1945243, 13.0272877], [80.194357, 13.0274249], [80.1939623, 13.0277571], [80.1949786, 13.0283422], [80.1962174, 13.0287309], [80.1974855, 13.0288764], [80.1979214, 13.0288671], [80.1992769, 13.0288382], [80.2000849, 13.0287449], [80.2005005, 13.0286756], [80.2004627, 13.0283039], [80.2002241, 13.0274358], [80.1984266, 13.0171075], [80.1982322, 13.0158683], [80.1982396, 13.0150017], [80.1984469, 13.014714], [80.1991869, 13.0144296], [80.2020614, 13.0137043], [80.2024732, 13.0134592], [80.2027222, 13.0130893], [80.2031341, 13.0128441], [80.2036681, 13.0126823], [80.2039564, 13.012519], [80.2039185, 13.0121473], [80.2035998, 13.0110724], [80.2037135, 13.0073176], [80.2040434, 13.007072], [80.204042, 13.0064242], [80.2037831, 13.0062352], [80.2023001, 13.0055702], [80.2021154, 13.0054004], [80.2022146, 13.0046702], [80.2024381, 13.0046528], [80.2025222, 13.0035101], [80.2028757, 13.0035123], [80.2030255, 13.0034007], [80.2029719, 13.003138], [80.2027871, 13.002987], [80.2020621, 13.0029076], [80.2020784, 13.0009774], [80.2017066, 13.0009377], [80.2016552, 13.0004126], [80.2010994, 13.0003183], [80.2009677, 13.000296], [80.200633, 13.0002752], [80.2005598, 13.0001249], [80.2006811, 12.9989824], [80.2007754, 12.9988331], [80.2007029, 12.9986078], [80.2005356, 12.998588], [80.1999578, 12.9986969], [80.199437, 12.998675], [80.1987142, 12.9985034], [80.1986776, 12.9971595], [80.1972662, 12.9971662], [80.1935373, 12.9967479], [80.1909324, 12.9961667], [80.1891968, 12.9956474], [80.1867386, 12.9943041], [80.1860948, 12.9940912], [80.185955, 12.994045], [80.1856499, 12.9936191], [80.1855434, 12.9929402], [80.1850519, 12.9913262], [80.1850579, 12.9906196], [80.1852599, 12.9899708], [80.1853193, 12.9895754], [80.1850965, 12.9893762], [80.1845391, 12.9889206], [80.1842892, 12.9886082], [80.1834226, 12.9882072], [80.1812131, 12.9873176], [80.1796126, 12.9874209], [80.179219, 12.9875033], [80.1788778, 12.9880383], [80.1786289, 12.9886704], [80.1785336, 12.9889124], [80.1783643, 12.9890244], [80.1779436, 12.9889936], [80.1773519, 12.9892726], [80.1743033, 12.9913738]]]}}, {"type": "Feature", "properties": {"corridor_name": "NH16", "query": "NH 16, Chennai", "osm_display_name": "Chennai Corporation, Chennai, Tamil Nadu, India", "osm_type": "administrative", "source": "cmp_pdf_mention+nominatim"}, "geometry": {"type": "Polygon", "coordinates": [[[80.1401875, 13.1057138], [80.1403998, 13.0978875], [80.1435871, 13.0955556], [80.1449449, 13.0925863], [80.1444724, 13.0901636], [80.1455482, 13.0895991], [80.1461328, 13.0884445], [80.1463258, 13.0881259], [80.1462668, 13.0879065], [80.1460415, 13.0877602], [80.1460147, 13.0874258], [80.1461166, 13.0870914], [80.1470071, 13.086736], [80.1474303, 13.0862678], [80.1496432, 13.0865486], [80.1503445, 13.0863596], [80.1514757, 13.0849856], [80.151186, 13.0844631], [80.1530494, 13.0832436], [80.1541143, 13.0821881], [80.1566361, 13.0812845], [80.1597769, 13.080519], [80.1613459, 13.0797058], [80.161333, 13.0792356], [80.1604374, 13.0791086], [80.1602997, 13.0788829], [80.1603708, 13.0734575], [80.160681, 13.0729571], [80.1619423, 13.0727143], [80.1622206, 13.0724502], [80.1620671, 13.0721337], [80.1626873, 13.0717134], [80.1630628, 13.0703548], [80.1630546, 13.0694307], [80.1627256, 13.0686678], [80.1623847, 13.0684611], [80.1621401, 13.0682124], [80.1620719, 13.0672187], [80.1628782, 13.0673165], [80.1631084, 13.0668881], [80.1631883, 13.0642594], [80.1628053, 13.0638438], [80.1618893, 13.0635271], [80.1617432, 13.0629555], [80.1617593, 13.0612258], [80.1616894, 13.0604082], [80.161523, 13.0558154], [80.1614964, 13.0506928], [80.162063, 13.0502008], [80.1624191, 13.0486944], [80.1626122, 13.0474977], [80.1624405, 13.0466093], [80.1621673, 13.0462858], [80.1615983, 13.046071], [80.1613087, 13.0455937], [80.1613462, 13.0427734], [80.1609384, 13.0410704], [80.160751, 13.0410731], [80.1585305, 13.041105], [80.150618, 13.0410244], [80.1502955, 13.0397423], [80.1496303, 13.0398782], [80.1496732, 13.0408502], [80.1486429, 13.0412981], [80.1465133, 13.0412636], [80.1465095, 13.0396982], [80.1465093, 13.0396326], [80.146501, 13.0362007], [80.1462017, 13.0344341], [80.1461863, 13.034004], [80.1465511, 13.0336381], [80.1472056, 13.0339308], [80.1479052, 13.0339193], [80.1478596, 13.0332207], [80.1473532, 13.0317576], [80.1453817, 13.0315686], [80.1451522, 13.027541], [80.1452841, 13.0245695], [80.1454568, 13.0240949], [80.1454353, 13.0236768], [80.1450273, 13.0230616], [80.1448721, 13.021858], [80.144856, 13.0215235], [80.1451617, 13.0213876], [80.1463956, 13.0213144], [80.1473803, 13.0208522], [80.1474755, 13.018431], [80.1475435, 13.0173057], [80.1476401, 13.0170652], [80.1479673, 13.016945], [80.1487666, 13.016945], [80.1489973, 13.0174311], [80.1493084, 13.01752], [80.1502133, 13.017391], [80.1515259, 13.0169854], [80.1517232, 13.0166108], [80.1526904, 13.0160913], [80.1528015, 13.0158219], [80.1529036, 13.0154925], [80.1530119, 13.0151429], [80.1532158, 13.0149586], [80.1532241, 13.0149427], [80.1534934, 13.0144255], [80.1539829, 13.0141903], [80.1542417, 13.0139199], [80.1544429, 13.0137591], [80.154685, 13.0135618], [80.1548949, 13.0133347], [80.1550859, 13.0132887], [80.1557547, 13.0131868], [80.1558745, 13.0131685], [80.1565441, 13.0131358], [80.1578808, 13.013715], [80.1582468, 13.0143628], [80.1587566, 13.0150266], [80.1593345, 13.0151419], [80.159694, 13.0150426], [80.1600771, 13.0146223], [80.1611512, 13.0146735], [80.1615708, 13.0142248], [80.1611743, 13.0129092], [80.161421, 13.0116016], [80.1603642, 13.0115575], [80.1603197, 13.0106276], [80.1594449, 13.0106276], [80.1589452, 13.0074759], [80.1590595, 13.0067906], [80.1634242, 13.006315], [80.1635617, 13.0060631], [80.1636485, 13.0039386], [80.1627384, 13.0026615], [80.1605108, 12.9987609], [80.1645505, 12.9883777], [80.1662506, 12.9840079], [80.1654044, 12.9811678], [80.1727216, 12.9797879], [80.1736753, 12.9799918], [80.1742461, 12.9799291], [80.1751387, 12.9796782], [80.1754649, 12.9794774], [80.1755164, 12.9785992], [80.1762974, 12.9777545], [80.1763833, 12.975513], [80.1768382, 12.9724601], [80.176452, 12.9710801], [80.1816876, 12.9681526], [80.1819639, 12.9680062], [80.1830867, 12.9682781], [80.1844428, 12.9689556], [80.1857045, 12.969148], [80.1860478, 12.9694825], [80.1862195, 12.969516], [80.1873267, 12.969516], [80.1877215, 12.9696331], [80.1884425, 12.9695913], [80.1887601, 12.9695578], [80.1898158, 12.9692149], [80.19117, 12.9685695], [80.1907621, 12.9673775], [80.1901746, 12.9669949], [80.1899132, 12.9659065], [80.1900887, 12.9657403], [80.1904213, 12.9656462], [80.1905639, 12.9654293], [80.1893898, 12.9594201], [80.1889408, 12.9590436], [80.1887674, 12.9583771], [80.1878188, 12.9586334], [80.1876867, 12.9582615], [80.190314, 12.9574461], [80.1922502, 12.9574673], [80.1921564, 12.9572149], [80.1918805, 12.9564715], [80.1907432, 12.956278], [80.1905072, 12.9544692], [80.1906681, 12.9542183], [80.1920521, 12.954051], [80.192213, 12.9538314], [80.1924065, 12.9529795], [80.1924595, 12.9520214], [80.1926476, 12.9517377], [80.1932273, 12.9515392], [80.193533, 12.9515254], [80.1937024, 12.9516423], [80.1935918, 12.9525305], [80.1937683, 12.9529695], [80.194737, 12.9533031], [80.1973844, 12.9535202], [80.1992857, 12.9534926], [80.2007369, 12.9531163], [80.2013031, 12.9527571], [80.2017, 12.9521349], [80.2019473, 12.9514535], [80.2019977, 12.9506946], [80.2014851, 12.9489632], [80.1989952, 12.9479662], [80.200386, 12.9436505], [80.1997705, 12.9417176], [80.199601, 12.9412728], [80.1993538, 12.9408602], [80.1984938, 12.9396871], [80.1978152, 12.9392564], [80.1973734, 12.9390794], [80.197008, 12.938743], [80.1969874, 12.9383982], [80.1967862, 12.9380417], [80.1959643, 12.9374362], [80.196119, 12.9365863], [80.1951742, 12.9367356], [80.194391, 12.936631], [80.1943593, 12.9365604], [80.1941657, 12.9361291], [80.1939082, 12.9360036], [80.1935275, 12.9359534], [80.1928461, 12.9352136], [80.1927592, 12.9347096], [80.1933556, 12.9344926], [80.1939404, 12.9343217], [80.1947236, 12.9341894], [80.1956836, 12.9340296], [80.1956772, 12.933331], [80.1956989, 12.932828], [80.1957009, 12.9326014], [80.1956955, 12.9324444], [80.1956654, 12.931569], [80.1940856, 12.9316098], [80.1940422, 12.9308638], [80.1943166, 12.9308835], [80.1943161, 12.9307745], [80.1956988, 12.9306915], [80.195578, 12.9306303], [80.1954829, 12.9295579], [80.1954598, 12.9294035], [80.1951693, 12.9282148], [80.1950415, 12.9269907], [80.1949075, 12.9257075], [80.1952616, 12.9245643], [80.1955665, 12.9243607], [80.1959588, 12.9241436], [80.1967828, 12.9239034], [80.1975633, 12.9236907], [80.1974194, 12.9218787], [80.1973742, 12.9217944], [80.1970044, 12.9211041], [80.1968994, 12.920908], [80.1963129, 12.9189989], [80.1963824, 12.9188588], [80.1971283, 12.9173558], [80.1966392, 12.9157358], [80.1957893, 12.9143984], [80.1949041, 12.9128538], [80.1944991, 12.9098548], [80.1958316, 12.9102017], [80.2033301, 12.9093744], [80.2048372, 12.9093135], [80.2088321, 12.9095543], [80.2140518, 12.9093375], [80.2139243, 12.9081398], [80.21345, 12.9036352], [80.2129381, 12.8912998], [80.2101373, 12.8794463], [80.2077606, 12.8754889], [80.2077099, 12.8753993], [80.2082513, 12.8739249], [80.2119087, 12.8635829], [80.2136832, 12.8600342], [80.2156454, 12.8578274], [80.2165083, 12.8570451], [80.2172663, 12.856358], [80.2166123, 12.8539459], [80.2181817, 12.8526021], [80.2240278, 12.8524223], [80.2285402, 12.8522835], [80.2320854, 12.8519771], [80.2332097, 12.854321], [80.2360008, 12.8589846], [80.2399786, 12.8581583], [80.2399931, 12.8579748], [80.2413898, 12.8580101], [80.2420628, 12.8580172], [80.2492621, 12.8567479], [80.2523393, 12.8761322], [80.2526722, 12.8787813], [80.2558753, 12.9042689], [80.2579036, 12.9204068], [80.2598867, 12.9381692], [80.2608153, 12.9435145], [80.2628393, 12.9551644], [80.2625022, 12.9562721], [80.2638817, 12.9613595], [80.2647466, 12.965262], [80.2663066, 12.9735739], [80.2683936, 12.9830499], [80.2698781, 12.9882586], [80.2702331, 12.989504], [80.2719658, 12.9962004], [80.2722072, 12.9973655], [80.2709627, 12.997721], [80.2713275, 13.000669], [80.2724218, 13.0023416], [80.2737093, 13.0023416], [80.2767338, 13.0126159], [80.2775817, 13.017744], [80.2777412, 13.0187087], [80.2777497, 13.0187599], [80.2778265, 13.0192245], [80.2778351, 13.0192768], [80.2778667, 13.0194681], [80.2778726, 13.0195034], [80.2778979, 13.0196565], [80.277939, 13.019905], [80.2779467, 13.019952], [80.2780547, 13.0206049], [80.278296, 13.0220644], [80.279088, 13.027817], [80.2800692, 13.035124], [80.2807487, 13.0432342], [80.2809673, 13.0451774], [80.2810049, 13.0459351], [80.2808691, 13.0462771], [80.2808118, 13.0469437], [80.2813656, 13.0503177], [80.2824813, 13.0575709], [80.2858972, 13.0572177], [80.286026, 13.0574477], [80.2873778, 13.062318], [80.2895334, 13.0672197], [80.2946949, 13.079541], [80.301118, 13.0904683], [80.3023445, 13.0930845], [80.3036964, 13.0966165], [80.3035784, 13.0979227], [80.3031814, 13.0984034], [80.2981281, 13.1002948], [80.2975058, 13.1010576], [80.2974415, 13.1015279], [80.2975354, 13.1021013], [80.2979994, 13.1025833], [80.2984363, 13.1041859], [80.3014894, 13.1139583], [80.3020549, 13.1167211], [80.3015613, 13.1177868], [80.3000601, 13.121132], [80.2992657, 13.122971], [80.2975058, 13.1235964], [80.2968406, 13.1244113], [80.2977419, 13.1267309], [80.2985143, 13.1293639], [80.2976346, 13.1300953], [80.2975346, 13.1316098], [80.2988577, 13.1374299], [80.2996731, 13.1409614], [80.3002128, 13.1430664], [80.304561, 13.1422012], [80.3074293, 13.1490849], [80.3106501, 13.1594555], [80.3117082, 13.1631897], [80.3127061, 13.1673712], [80.3156926, 13.1742525], [80.318695, 13.1887431], [80.3227333, 13.2046579], [80.3268506, 13.2179882], [80.3328982, 13.234746], [80.3324012, 13.2346147], [80.3304433, 13.2342641], [80.327074, 13.235158], [80.323534, 13.2325513], [80.3175622, 13.2311942], [80.3175044, 13.2297105], [80.3160846, 13.2265827], [80.3130385, 13.2201535], [80.3078404, 13.2133654], [80.3062915, 13.2114576], [80.3044397, 13.2110432], [80.3008018, 13.2110661], [80.3000776, 13.2127017], [80.2982694, 13.2138243], [80.2977204, 13.2171982], [80.2936796, 13.2203456], [80.292475, 13.2204178], [80.2890123, 13.221111], [80.2882422, 13.2220625], [80.2854471, 13.2264485], [80.2839435, 13.2274435], [80.2762853, 13.2264798], [80.2735376, 13.2267235], [80.2700838, 13.2247114], [80.2686023, 13.2247391], [80.2668555, 13.2237622], [80.2671432, 13.2228382], [80.2703853, 13.2204108], [80.272353, 13.2157819], [80.2708251, 13.2094606], [80.2698936, 13.2035781], [80.2683127, 13.2037138], [80.2664049, 13.2036175], [80.256345, 13.2057566], [80.2538383, 13.2058818], [80.2498599, 13.2060804], [80.2495116, 13.1986751], [80.2391711, 13.1991321], [80.2386656, 13.1961792], [80.2283692, 13.1973707], [80.229593, 13.1957129], [80.2304349, 13.1921499], [80.2316417, 13.1895479], [80.2315518, 13.1870254], [80.2314829, 13.1849212], [80.2299595, 13.184256], [80.2287125, 13.1851519], [80.2279401, 13.1846087], [80.2261094, 13.1851234], [80.2219534, 13.1860294], [80.2216173, 13.1845092], [80.2198871, 13.1819144], [80.2200416, 13.18087], [80.2234471, 13.1802742], [80.2231811, 13.1770878], [80.2175939, 13.1786681], [80.214481, 13.177321], [80.2134377, 13.1778179], [80.2135232, 13.1803778], [80.2115544, 13.1802482], [80.2109241, 13.1799498], [80.2104521, 13.1751862], [80.2088188, 13.17472], [80.206867, 13.1744275], [80.20642, 13.1744756], [80.2051468, 13.1752716], [80.2042365, 13.1756014], [80.2025373, 13.1762171], [80.2015253, 13.1768595], [80.2018046, 13.1782679], [80.2015257, 13.1788947], [80.2006996, 13.1794066], [80.2003133, 13.1791663], [80.2001202, 13.1773069], [80.1999269, 13.177001], [80.199852, 13.1765547], [80.1989849, 13.1758839], [80.1988971, 13.1755623], [80.1992458, 13.1746202], [80.19808, 13.1739414], [80.1972971, 13.1741431], [80.19438, 13.1757837], [80.1917143, 13.175396], [80.1903015, 13.1678282], [80.1908211, 13.1666645], [80.1935233, 13.1648935], [80.1920163, 13.1639827], [80.1918604, 13.159024], [80.1943547, 13.158518], [80.1948224, 13.1562916], [80.1937814, 13.1553445], [80.1930771, 13.1547037], [80.1911926, 13.1529892], [80.1853167, 13.1476433], [80.1832947, 13.1466329], [80.1795965, 13.1486537], [80.1788515, 13.1481356], [80.1773782, 13.1490968], [80.1768397, 13.1488134], [80.1768105, 13.1474386], [80.1775674, 13.146163], [80.1769415, 13.1463189], [80.1771692, 13.1427281], [80.1783771, 13.1394091], [80.1769625, 13.1377254], [80.1719872, 13.1411283], [80.1703993, 13.1423663], [80.1694767, 13.1423768], [80.1688866, 13.1421417], [80.1684274, 13.1413734], [80.1674909, 13.1399225], [80.1663628, 13.1359221], [80.165107, 13.1346785], [80.1645942, 13.1347447], [80.1639889, 13.1348229], [80.1636012, 13.135036], [80.1618718, 13.1394406], [80.1612067, 13.1401661], [80.1602484, 13.1403409], [80.1585318, 13.140654], [80.1574482, 13.1409151], [80.1560963, 13.1413018], [80.1539935, 13.1416465], [80.1520945, 13.1408734], [80.1501775, 13.1397076], [80.1495123, 13.137921], [80.1454426, 13.1385853], [80.1453924, 13.1365732], [80.1471948, 13.132979], [80.1477348, 13.1276334], [80.1463233, 13.1262327], [80.1437459, 13.1244291], [80.1433647, 13.1240717], [80.1433642, 13.1237181], [80.1433637, 13.1236897], [80.1435363, 13.1219977], [80.1432145, 13.1193437], [80.1428282, 13.118163], [80.1426198, 13.11671], [80.1424567, 13.115573], [80.1417929, 13.1150336], [80.1412227, 13.1087164], [80.1401875, 13.1057138]], [[80.1743033, 12.9913738], [80.1757462, 12.9933045], [80.1774691, 12.9953217], [80.1762539, 12.9996387], [80.1774903, 13.0009723], [80.1806525, 13.0038202], [80.1810435, 13.0040487], [80.1820339, 13.0050362], [80.1821844, 13.0051862], [80.1824898, 13.0055837], [80.1836283, 13.0070038], [80.184859, 13.0074918], [80.1853905, 13.0076929], [80.1856397, 13.0080901], [80.1860304, 13.0083468], [80.1863955, 13.0083208], [80.186565, 13.0081805], [80.1868176, 13.008182], [80.1886313, 13.0094084], [80.1891072, 13.0095526], [80.1896128, 13.0094992], [80.1918616, 13.0090606], [80.1934083, 13.0086743], [80.193576, 13.0087602], [80.1937134, 13.0091002], [80.1940365, 13.0107132], [80.1943608, 13.0121848], [80.1943753, 13.013796], [80.1937481, 13.014951], [80.1935702, 13.0160804], [80.1938324, 13.0182583], [80.1944, 13.0241406], [80.19476, 13.0269761], [80.1946816, 13.0270539], [80.1945243, 13.0272877], [80.194357, 13.0274249], [80.1939623, 13.0277571], [80.1949786, 13.0283422], [80.1962174, 13.0287309], [80.1974855, 13.0288764], [80.1979214, 13.0288671], [80.1992769, 13.0288382], [80.2000849, 13.0287449], [80.2005005, 13.0286756], [80.2004627, 13.0283039], [80.2002241, 13.0274358], [80.1984266, 13.0171075], [80.1982322, 13.0158683], [80.1982396, 13.0150017], [80.1984469, 13.014714], [80.1991869, 13.0144296], [80.2020614, 13.0137043], [80.2024732, 13.0134592], [80.2027222, 13.0130893], [80.2031341, 13.0128441], [80.2036681, 13.0126823], [80.2039564, 13.012519], [80.2039185, 13.0121473], [80.2035998, 13.0110724], [80.2037135, 13.0073176], [80.2040434, 13.007072], [80.204042, 13.0064242], [80.2037831, 13.0062352], [80.2023001, 13.0055702], [80.2021154, 13.0054004], [80.2022146, 13.0046702], [80.2024381, 13.0046528], [80.2025222, 13.0035101], [80.2028757, 13.0035123], [80.2030255, 13.0034007], [80.2029719, 13.003138], [80.2027871, 13.002987], [80.2020621, 13.0029076], [80.2020784, 13.0009774], [80.2017066, 13.0009377], [80.2016552, 13.0004126], [80.2010994, 13.0003183], [80.2009677, 13.000296], [80.200633, 13.0002752], [80.2005598, 13.0001249], [80.2006811, 12.9989824], [80.2007754, 12.9988331], [80.2007029, 12.9986078], [80.2005356, 12.998588], [80.1999578, 12.9986969], [80.199437, 12.998675], [80.1987142, 12.9985034], [80.1986776, 12.9971595], [80.1972662, 12.9971662], [80.1935373, 12.9967479], [80.1909324, 12.9961667], [80.1891968, 12.9956474], [80.1867386, 12.9943041], [80.1860948, 12.9940912], [80.185955, 12.994045], [80.1856499, 12.9936191], [80.1855434, 12.9929402], [80.1850519, 12.9913262], [80.1850579, 12.9906196], [80.1852599, 12.9899708], [80.1853193, 12.9895754], [80.1850965, 12.9893762], [80.1845391, 12.9889206], [80.1842892, 12.9886082], [80.1834226, 12.9882072], [80.1812131, 12.9873176], [80.1796126, 12.9874209], [80.179219, 12.9875033], [80.1788778, 12.9880383], [80.1786289, 12.9886704], [80.1785336, 12.9889124], [80.1783643, 12.9890244], [80.1779436, 12.9889936], [80.1773519, 12.9892726], [80.1743033, 12.9913738]]]}}]}