{
"type": "FeatureCollection",
"name": "metro_area_boundaries",
"crs": { "type": "name", "properties": { "name": "urn:ogc:def:crs:OGC:1.3:CRS84" } },
"features": [
{ "type": "Feature", "properties": { "name": "Tambaram", "label": "Tambaram", "kind": "municipal_boundary", "source": "OSM Nominatim", "osm_id": 10326121.0, "note": "OSM administrative boundary. Not GCC wards. Tambaram official ward maps on OpenCity are PDF-only." }, "geometry": { "type": "Polygon", "coordinates": [ [ [ 80.0643897, 12.9017352 ], [ 80.0676298, 12.9009195 ], [ 80.0689601, 12.9003338 ], [ 80.0723934, 12.8992462 ], [ 80.0755262, 12.8994135 ], [ 80.0794315, 12.8998318 ], [ 80.0826072, 12.8996227 ], [ 80.0863409, 12.8980749 ], [ 80.0905036, 12.8968617 ], [ 80.0941944, 12.8961924 ], [ 80.0981855, 12.8963179 ], [ 80.0988721, 12.8981585 ], [ 80.0999879, 12.900041 ], [ 80.1015758, 12.9025928 ], [ 80.1044082, 12.9039732 ], [ 80.1065111, 12.9022999 ], [ 80.1084852, 12.9043079 ], [ 80.1109314, 12.9046843 ], [ 80.1129913, 12.9054791 ], [ 80.1155662, 12.9061066 ], [ 80.1187849, 12.9056465 ], [ 80.1208448, 12.90527 ], [ 80.1238489, 12.9035967 ], [ 80.1250934, 12.9020908 ], [ 80.1262521, 12.8994135 ], [ 80.1274108, 12.8968617 ], [ 80.129385, 12.8955649 ], [ 80.1313591, 12.8933896 ], [ 80.1328611, 12.8913816 ], [ 80.1345348, 12.8902102 ], [ 80.1368951, 12.8907541 ], [ 80.1386547, 12.8921346 ], [ 80.1427316, 12.8934733 ], [ 80.1473236, 12.8921346 ], [ 80.1504135, 12.8911306 ], [ 80.1510143, 12.8905449 ], [ 80.1502418, 12.8889971 ], [ 80.1484823, 12.888244 ], [ 80.1468086, 12.8866543 ], [ 80.1464223, 12.8837259 ], [ 80.1459503, 12.8817178 ], [ 80.145564, 12.880923 ], [ 80.1443624, 12.8806301 ], [ 80.1428604, 12.8828892 ], [ 80.1402854, 12.882931 ], [ 80.137453, 12.8817178 ], [ 80.1352214, 12.8804628 ], [ 80.1320457, 12.8787057 ], [ 80.130372, 12.8762373 ], [ 80.1285696, 12.8733088 ], [ 80.1277113, 12.8697945 ], [ 80.1286125, 12.8677863 ], [ 80.1295995, 12.8672424 ], [ 80.1335048, 12.8662801 ], [ 80.1357793, 12.8654852 ], [ 80.1365089, 12.8636862 ], [ 80.1386118, 12.8654015 ], [ 80.1406288, 12.8682465 ], [ 80.1415729, 12.8700037 ], [ 80.1429033, 12.8713843 ], [ 80.1440191, 12.871468 ], [ 80.1473236, 12.8705057 ], [ 80.1495981, 12.8694598 ], [ 80.1513576, 12.8700037 ], [ 80.1550054, 12.8713006 ], [ 80.1597261, 12.8728486 ], [ 80.1632452, 12.8734343 ], [ 80.164833, 12.8741455 ], [ 80.1673221, 12.8732251 ], [ 80.169897, 12.8715098 ], [ 80.1718282, 12.869669 ], [ 80.1729869, 12.8679955 ], [ 80.1763343, 12.8625984 ], [ 80.1768493, 12.8602136 ], [ 80.1783084, 12.8593768 ], [ 80.1792955, 12.8602554 ], [ 80.1821708, 12.8677863 ], [ 80.1836299, 12.8706313 ], [ 80.1851749, 12.8727231 ], [ 80.1867198, 12.8751496 ], [ 80.1893806, 12.8784129 ], [ 80.1868915, 12.8794169 ], [ 80.1848315, 12.8796679 ], [ 80.1819991, 12.8820944 ], [ 80.182085, 12.8853575 ], [ 80.1828574, 12.8888716 ], [ 80.1828574, 12.8916326 ], [ 80.1828574, 12.8947283 ], [ 80.1826785, 12.8961231 ], [ 80.1823424, 12.8987442 ], [ 80.1783942, 12.9008359 ], [ 80.174446, 12.9048517 ], [ 80.1735019, 12.9066086 ], [ 80.1722144, 12.9102897 ], [ 80.1722452, 12.9112183 ], [ 80.1723003, 12.9128832 ], [ 80.1724719, 12.9153093 ], [ 80.1740169, 12.9167315 ], [ 80.1782226, 12.9181537 ], [ 80.1803683, 12.9189903 ], [ 80.1824175, 12.9192253 ], [ 80.1847457, 12.9194923 ], [ 80.1872348, 12.9210818 ], [ 80.1875781, 12.9235915 ], [ 80.1869773, 12.9287781 ], [ 80.1808833, 12.9316224 ], [ 80.1715886, 12.9367847 ], [ 80.1607051, 12.9375985 ], [ 80.1507683, 12.9367056 ], [ 80.1459056, 12.9378732 ], [ 80.1418886, 12.9410327 ], [ 80.1377306, 12.9436427 ], [ 80.1322337, 12.9440548 ], [ 80.1282166, 12.9476263 ], [ 80.1232835, 12.9495494 ], [ 80.1201121, 12.9499615 ], [ 80.1168703, 12.947901 ], [ 80.1125009, 12.9481757 ], [ 80.1065107, 12.9519532 ], [ 80.1048733, 12.9531939 ], [ 80.1034212, 12.9513429 ], [ 80.1038718, 12.9463659 ], [ 80.0991297, 12.947035 ], [ 80.0947308, 12.9474324 ], [ 80.0916838, 12.9420788 ], [ 80.0912332, 12.9390883 ], [ 80.090568, 12.9355331 ], [ 80.0885939, 12.9316014 ], [ 80.0885725, 12.9297192 ], [ 80.0883579, 12.9273141 ], [ 80.0869417, 12.926122 ], [ 80.083723, 12.9232986 ], [ 80.0791096, 12.920036 ], [ 80.0778436, 12.9190739 ], [ 80.0767493, 12.9186974 ], [ 80.0755477, 12.9186765 ], [ 80.0740886, 12.9183001 ], [ 80.0727796, 12.916857 ], [ 80.0716424, 12.9135733 ], [ 80.0699043, 12.9105197 ], [ 80.0689173, 12.9086374 ], [ 80.0657415, 12.9051026 ], [ 80.0643897, 12.9017352 ] ] ] } },
{ "type": "Feature", "properties": { "name": "Chengalpattu", "label": "Chengalpattu", "kind": "admin_boundary", "source": "OSM Nominatim", "osm_id": 10326124.0, "note": "OSM administrative boundary covering Chengalpattu area (may be taluk-scale)." }, "geometry": { "type": "Polygon", "coordinates": [ [ [ 79.8776436, 12.7799748 ], [ 79.8779654, 12.7783425 ], [ 79.8791027, 12.7777984 ], [ 79.8802185, 12.7775055 ], [ 79.8819351, 12.7776519 ], [ 79.8849606, 12.7778821 ], [ 79.887042, 12.7769405 ], [ 79.8881793, 12.774513 ], [ 79.8887801, 12.7736968 ], [ 79.8897457, 12.7736759 ], [ 79.8915267, 12.7736131 ], [ 79.8910117, 12.772525 ], [ 79.8883724, 12.7713112 ], [ 79.8874283, 12.7706625 ], [ 79.8855614, 12.7691557 ], [ 79.8827076, 12.7671886 ], [ 79.887557, 12.7642588 ], [ 79.8945951, 12.7605337 ], [ 79.8977279, 12.758985 ], [ 79.9026632, 12.7563063 ], [ 79.906311, 12.755218 ], [ 79.9099588, 12.7542972 ], [ 79.9141216, 12.7533763 ], [ 79.9194431, 12.7515346 ], [ 79.9222755, 12.7498603 ], [ 79.9313736, 12.7413632 ], [ 79.9394416, 12.7320285 ], [ 79.9424886, 12.7292239 ], [ 79.9429607, 12.7255401 ], [ 79.9463081, 12.7200563 ], [ 79.9524021, 12.7086277 ], [ 79.9540329, 12.7047343 ], [ 79.9536037, 12.7002129 ], [ 79.954977, 12.6996267 ], [ 79.9571228, 12.6959844 ], [ 79.9579382, 12.6870249 ], [ 79.9576807, 12.6845966 ], [ 79.957509, 12.6801167 ], [ 79.9566507, 12.672957 ], [ 79.954462, 12.6653366 ], [ 79.9533462, 12.6628243 ], [ 79.9522304, 12.6615682 ], [ 79.9507713, 12.6600608 ], [ 79.9480247, 12.657046 ], [ 79.9484109, 12.6532356 ], [ 79.9513292, 12.6523981 ], [ 79.9512863, 12.6418877 ], [ 79.9489259, 12.6415946 ], [ 79.9476814, 12.640464 ], [ 79.9468231, 12.6374071 ], [ 79.9454927, 12.6339314 ], [ 79.948647, 12.6330938 ], [ 79.9519729, 12.6322772 ], [ 79.9545479, 12.6314397 ], [ 79.9574232, 12.6308534 ], [ 79.961822, 12.6291993 ], [ 79.9647617, 12.6281733 ], [ 79.9669075, 12.6273567 ], [ 79.9680447, 12.6278592 ], [ 79.9687099, 12.6295552 ], [ 79.9688601, 12.6308115 ], [ 79.9681949, 12.6329263 ], [ 79.9682379, 12.6349154 ], [ 79.9689245, 12.6358995 ], [ 79.969933, 12.6375955 ], [ 79.9703836, 12.6388936 ], [ 79.9711132, 12.6416993 ], [ 79.9723792, 12.6437093 ], [ 79.9725294, 12.6450074 ], [ 79.9720359, 12.6465986 ], [ 79.9719071, 12.6492157 ], [ 79.9719286, 12.6538846 ], [ 79.9739456, 12.6573182 ], [ 79.9758124, 12.660312 ], [ 79.9794173, 12.6616938 ], [ 79.9810481, 12.6618194 ], [ 79.983387, 12.6626359 ], [ 79.9848461, 12.6635571 ], [ 79.9860477, 12.6643945 ], [ 79.987421, 12.6648551 ], [ 79.9963259, 12.6651272 ], [ 79.9980855, 12.6641851 ], [ 79.9991154, 12.6629081 ], [ 80.0008964, 12.6607726 ], [ 80.0021624, 12.659349 ], [ 80.0031495, 12.6598096 ], [ 80.0034714, 12.6612332 ], [ 80.0036001, 12.663892 ], [ 80.0043511, 12.6657762 ], [ 80.0053596, 12.666823 ], [ 80.0063467, 12.6683722 ], [ 80.00669, 12.6737526 ], [ 80.0078702, 12.6751657 ], [ 80.0090503, 12.6765787 ], [ 80.0104022, 12.6782116 ], [ 80.013535, 12.6812681 ], [ 80.0161743, 12.6812681 ], [ 80.0184488, 12.6808075 ], [ 80.0207233, 12.6801376 ], [ 80.022397, 12.6799492 ], [ 80.025208, 12.6797399 ], [ 80.0253153, 12.6729361 ], [ 80.0263881, 12.6705914 ], [ 80.025444, 12.6690212 ], [ 80.0251651, 12.6673255 ], [ 80.0254655, 12.6660693 ], [ 80.0264954, 12.6653785 ], [ 80.0293922, 12.6646039 ], [ 80.0329971, 12.6647923 ], [ 80.0347781, 12.6641642 ], [ 80.0335765, 12.6634733 ], [ 80.031538, 12.6634524 ], [ 80.0295424, 12.6635361 ], [ 80.0281906, 12.6627406 ], [ 80.0274181, 12.6617775 ], [ 80.0269675, 12.6602701 ], [ 80.0278902, 12.6594536 ], [ 80.0301003, 12.6592652 ], [ 80.0312805, 12.6586162 ], [ 80.0316238, 12.65736 ], [ 80.0322461, 12.6557479 ], [ 80.0339842, 12.6524818 ], [ 80.0361085, 12.6514769 ], [ 80.0384688, 12.6503044 ], [ 80.0409364, 12.6485039 ], [ 80.0428891, 12.6476664 ], [ 80.0442838, 12.6472267 ], [ 80.0458932, 12.6469336 ], [ 80.0484681, 12.6465777 ], [ 80.0503349, 12.6462845 ], [ 80.0544065, 12.6489536 ], [ 80.0577051, 12.6506183 ], [ 80.0604634, 12.6508403 ], [ 80.0634492, 12.6512565 ], [ 80.0644445, 12.6519224 ], [ 80.0646435, 12.6535316 ], [ 80.0636483, 12.6556403 ], [ 80.0625393, 12.6573883 ], [ 80.0619137, 12.6593304 ], [ 80.0617715, 12.6612448 ], [ 80.0624539, 12.6619939 ], [ 80.0640748, 12.6623823 ], [ 80.0681128, 12.6632702 ], [ 80.0707858, 12.6656562 ], [ 80.0723498, 12.6674596 ], [ 80.0739137, 12.6699565 ], [ 80.0750512, 12.671316 ], [ 80.0774967, 12.6713714 ], [ 80.0797432, 12.6708166 ], [ 80.0857432, 12.6695681 ], [ 80.0911745, 12.6695126 ], [ 80.0927385, 12.6708721 ], [ 80.0929376, 12.6724534 ], [ 80.0929092, 12.6787234 ], [ 80.0929092, 12.6837725 ], [ 80.0953547, 12.6852429 ], [ 80.0991083, 12.6842997 ], [ 80.1017244, 12.6837171 ], [ 80.1039424, 12.6832454 ], [ 80.1054495, 12.684799 ], [ 80.105222, 12.6864913 ], [ 80.1038571, 12.6886551 ], [ 80.1031178, 12.6910687 ], [ 80.1029756, 12.693177 ], [ 80.1033737, 12.6945363 ], [ 80.1052789, 12.6949802 ], [ 80.1084069, 12.6945918 ], [ 80.1108524, 12.6953408 ], [ 80.1107102, 12.6982536 ], [ 80.1092316, 12.6996684 ], [ 80.1079804, 12.7012773 ], [ 80.1077813, 12.7021928 ], [ 80.1090894, 12.7073524 ], [ 80.1105112, 12.7136493 ], [ 80.1122458, 12.7156742 ], [ 80.1149188, 12.7157574 ], [ 80.1170515, 12.7152581 ], [ 80.1189852, 12.7154523 ], [ 80.1214023, 12.716756 ], [ 80.1214876, 12.7182816 ], [ 80.1194686, 12.7196131 ], [ 80.1173643, 12.7197518 ], [ 80.1150325, 12.7196408 ], [ 80.1134686, 12.720473 ], [ 80.1129567, 12.7229417 ], [ 80.1131558, 12.7247446 ], [ 80.1130136, 12.7270469 ], [ 80.1154022, 12.7290717 ], [ 80.1171368, 12.730098 ], [ 80.117933, 12.7320396 ], [ 80.117933, 12.7338147 ], [ 80.1182743, 12.7358395 ], [ 80.1190136, 12.7371431 ], [ 80.1200942, 12.7373373 ], [ 80.1224828, 12.7356731 ], [ 80.1249852, 12.7354789 ], [ 80.1284544, 12.7350352 ], [ 80.1307009, 12.7356731 ], [ 80.1321512, 12.7375592 ], [ 80.1325208, 12.7395562 ], [ 80.1327768, 12.7436889 ], [ 80.1328052, 12.7472945 ], [ 80.1318384, 12.7492914 ], [ 80.1274023, 12.7499848 ], [ 80.126816, 12.7501262 ], [ 80.1267182, 12.7501497 ], [ 80.1248715, 12.750595 ], [ 80.1227672, 12.7513438 ], [ 80.1201226, 12.7515102 ], [ 80.1181605, 12.7514548 ], [ 80.1173359, 12.7529247 ], [ 80.1178193, 12.7555317 ], [ 80.1188146, 12.7604407 ], [ 80.118843, 12.7638797 ], [ 80.1172506, 12.7652664 ], [ 80.1158288, 12.7659597 ], [ 80.1136392, 12.7674296 ], [ 80.1115918, 12.7697314 ], [ 80.1098571, 12.7689271 ], [ 80.10926, 12.7711735 ], [ 80.111023, 12.7737804 ], [ 80.1122742, 12.7745291 ], [ 80.113696, 12.7744182 ], [ 80.1151463, 12.7729761 ], [ 80.1167956, 12.7716172 ], [ 80.1184449, 12.7705911 ], [ 80.1194117, 12.7709239 ], [ 80.1201511, 12.773503 ], [ 80.1223691, 12.7767755 ], [ 80.1243028, 12.7779402 ], [ 80.1298194, 12.7831538 ], [ 80.1352791, 12.7882286 ], [ 80.1482461, 12.8060312 ], [ 80.1475352, 12.8087763 ], [ 80.1448053, 12.8114105 ], [ 80.1424451, 12.8130465 ], [ 80.1390327, 12.8154588 ], [ 80.13781, 12.8167343 ], [ 80.1385777, 12.8190634 ], [ 80.1400849, 12.8212261 ], [ 80.1413645, 12.823167 ], [ 80.1412508, 12.824692 ], [ 80.137355, 12.8288233 ], [ 80.1357057, 12.8318732 ], [ 80.1365019, 12.8355053 ], [ 80.1372412, 12.8389987 ], [ 80.1375825, 12.8415217 ], [ 80.1396299, 12.8460685 ], [ 80.143156, 12.8527501 ], [ 80.1459996, 12.8544135 ], [ 80.1512318, 12.8521401 ], [ 80.1543598, 12.8516411 ], [ 80.1579428, 12.8516411 ], [ 80.1637438, 12.8532491 ], [ 80.1663599, 12.8546907 ], [ 80.1692035, 12.8559106 ], [ 80.1710235, 12.8594037 ], [ 80.1696585, 12.8625641 ], [ 80.1676111, 12.8648373 ], [ 80.1655637, 12.8664452 ], [ 80.1639144, 12.8694115 ], [ 80.1632452, 12.8734343 ], [ 80.1597261, 12.8728486 ], [ 80.1550054, 12.8713006 ], [ 80.1513576, 12.8700037 ], [ 80.1495981, 12.8694598 ], [ 80.1473236, 12.8705057 ], [ 80.1440191, 12.871468 ], [ 80.1429033, 12.8713843 ], [ 80.1415729, 12.8700037 ], [ 80.1406288, 12.8682465 ], [ 80.1386118, 12.8654015 ], [ 80.1365089, 12.8636862 ], [ 80.1357793, 12.8654852 ], [ 80.1335048, 12.8662801 ], [ 80.1295995, 12.8672424 ], [ 80.1286125, 12.8677863 ], [ 80.1277113, 12.8697945 ], [ 80.1285696, 12.8733088 ], [ 80.130372, 12.8762373 ], [ 80.1320457, 12.8787057 ], [ 80.1352214, 12.8804628 ], [ 80.137453, 12.8817178 ], [ 80.1402854, 12.882931 ], [ 80.1428604, 12.8828892 ], [ 80.1443624, 12.8806301 ], [ 80.145564, 12.880923 ], [ 80.1459503, 12.8817178 ], [ 80.1464223, 12.8837259 ], [ 80.1468086, 12.8866543 ], [ 80.1484823, 12.888244 ], [ 80.1502418, 12.8889971 ], [ 80.1510143, 12.8905449 ], [ 80.1504135, 12.8911306 ], [ 80.1473236, 12.8921346 ], [ 80.1427316, 12.8934733 ], [ 80.1386547, 12.8921346 ], [ 80.1368951, 12.8907541 ], [ 80.1345348, 12.8902102 ], [ 80.1328611, 12.8913816 ], [ 80.1313591, 12.8933896 ], [ 80.129385, 12.8955649 ], [ 80.1274108, 12.8968617 ], [ 80.1262521, 12.8994135 ], [ 80.1250934, 12.9020908 ], [ 80.1238489, 12.9035967 ], [ 80.1208448, 12.90527 ], [ 80.1187849, 12.9056465 ], [ 80.1155662, 12.9061066 ], [ 80.1129913, 12.9054791 ], [ 80.1109314, 12.9046843 ], [ 80.1084852, 12.9043079 ], [ 80.1065111, 12.9022999 ], [ 80.1044082, 12.9039732 ], [ 80.1015758, 12.9025928 ], [ 80.0999879, 12.900041 ], [ 80.0988721, 12.8981585 ], [ 80.0981855, 12.8963179 ], [ 80.0941944, 12.8961924 ], [ 80.0905036, 12.8968617 ], [ 80.0863409, 12.8980749 ], [ 80.0826072, 12.8996227 ], [ 80.0794315, 12.8998318 ], [ 80.0755262, 12.8994135 ], [ 80.0723934, 12.8992462 ], [ 80.0689601, 12.9003338 ], [ 80.0676298, 12.9009195 ], [ 80.0643897, 12.9017352 ], [ 80.0639176, 12.9007103 ], [ 80.0629735, 12.8968826 ], [ 80.0618791, 12.8954394 ], [ 80.0607848, 12.8929712 ], [ 80.0585532, 12.8874283 ], [ 80.057888, 12.8862151 ], [ 80.0564074, 12.8847508 ], [ 80.055871, 12.8833912 ], [ 80.056901, 12.8805673 ], [ 80.0579095, 12.8789357 ], [ 80.0590467, 12.8768439 ], [ 80.0608492, 12.8750241 ], [ 80.0634455, 12.8722629 ], [ 80.0638318, 12.8670332 ], [ 80.0641322, 12.866301 ], [ 80.0646686, 12.8643556 ], [ 80.063703, 12.863205 ], [ 80.0626731, 12.861657 ], [ 80.05939, 12.8570129 ], [ 80.0574374, 12.8537912 ], [ 80.0558924, 12.8508624 ], [ 80.0556135, 12.8439586 ], [ 80.05512, 12.8423477 ], [ 80.0538111, 12.8395862 ], [ 80.0511288, 12.8389167 ], [ 80.0486612, 12.8397117 ], [ 80.0468373, 12.840423 ], [ 80.0446272, 12.8402556 ], [ 80.0429106, 12.8386656 ], [ 80.0422025, 12.8347952 ], [ 80.0407004, 12.8342094 ], [ 80.0389409, 12.8339583 ], [ 80.0377393, 12.8331424 ], [ 80.0353575, 12.8319289 ], [ 80.033791, 12.8305481 ], [ 80.032804, 12.826803 ], [ 80.0316453, 12.8238111 ], [ 80.0294351, 12.8234345 ], [ 80.02671, 12.8234136 ], [ 80.0245642, 12.8234764 ], [ 80.0234699, 12.824104 ], [ 80.0218391, 12.8244806 ], [ 80.0189209, 12.8228487 ], [ 80.0169253, 12.822493 ], [ 80.014565, 12.821405 ], [ 80.0128698, 12.8190826 ], [ 80.0126123, 12.8174088 ], [ 80.0112605, 12.816258 ], [ 80.0103164, 12.8143121 ], [ 80.0103593, 12.8108389 ], [ 80.0094795, 12.8097299 ], [ 80.0069475, 12.8103995 ], [ 80.0071406, 12.8120315 ], [ 80.0036001, 12.8123663 ], [ 80.0004458, 12.8123244 ], [ 79.9977422, 12.811069 ], [ 79.9937939, 12.8103995 ], [ 79.9892235, 12.8098554 ], [ 79.9858117, 12.8116549 ], [ 79.9828505, 12.8132451 ], [ 79.9793744, 12.8137681 ], [ 79.9730229, 12.8133287 ], [ 79.9684524, 12.8135171 ], [ 79.9670791, 12.8149398 ], [ 79.9656629, 12.8175134 ], [ 79.9642682, 12.8195847 ], [ 79.9622726, 12.8222419 ], [ 79.9594188, 12.8240413 ], [ 79.9573374, 12.8222838 ], [ 79.9580884, 12.8190407 ], [ 79.9583888, 12.8147097 ], [ 79.9586911, 12.8131494 ], [ 79.9587948, 12.812614 ], [ 79.9592685, 12.8101693 ], [ 79.9603843, 12.8096044 ], [ 79.9637103, 12.8095625 ], [ 79.9638819, 12.8087256 ], [ 79.9639249, 12.8062147 ], [ 79.9628305, 12.8040805 ], [ 79.9618006, 12.8011092 ], [ 79.9607491, 12.7974893 ], [ 79.9599767, 12.795899 ], [ 79.959054, 12.7943924 ], [ 79.9584532, 12.7933252 ], [ 79.9573374, 12.7914838 ], [ 79.9558139, 12.7908561 ], [ 79.952445, 12.7907724 ], [ 79.9465012, 12.7910444 ], [ 79.9451279, 12.7909398 ], [ 79.9435186, 12.7910444 ], [ 79.9416733, 12.7906468 ], [ 79.9413514, 12.7890774 ], [ 79.9415016, 12.7868803 ], [ 79.9414587, 12.7849342 ], [ 79.9409222, 12.7845157 ], [ 79.9393129, 12.7844529 ], [ 79.9377036, 12.7845994 ], [ 79.9361801, 12.7848505 ], [ 79.9346781, 12.7853109 ], [ 79.9334764, 12.7878428 ], [ 79.9329829, 12.7893285 ], [ 79.932425, 12.790877 ], [ 79.9315667, 12.7921116 ], [ 79.930644, 12.7940367 ], [ 79.9287987, 12.7969034 ], [ 79.9274683, 12.7978659 ], [ 79.9267173, 12.7977404 ], [ 79.9262452, 12.7960036 ], [ 79.9259019, 12.7953759 ], [ 79.924829, 12.7951666 ], [ 79.9241423, 12.7955642 ], [ 79.9227261, 12.7962966 ], [ 79.9213099, 12.7971336 ], [ 79.9198079, 12.7977613 ], [ 79.9166751, 12.7985564 ], [ 79.9128127, 12.7990168 ], [ 79.9101519, 12.7989331 ], [ 79.9095297, 12.7975102 ], [ 79.9086928, 12.7955642 ], [ 79.9078131, 12.7935136 ], [ 79.9066543, 12.7900819 ], [ 79.9053025, 12.78891 ], [ 79.903779, 12.7874662 ], [ 79.9019766, 12.7856038 ], [ 79.900217, 12.7845157 ], [ 79.8967409, 12.7842646 ], [ 79.8952603, 12.7840553 ], [ 79.893136, 12.7831346 ], [ 79.8916769, 12.7828835 ], [ 79.8896813, 12.7825905 ], [ 79.8869991, 12.7821511 ], [ 79.8849821, 12.781607 ], [ 79.8831796, 12.7816698 ], [ 79.8797893, 12.7810001 ], [ 79.8776436, 12.7799748 ] ] ] } },
{ "type": "Feature", "properties": { "name": "Mahabalipuram", "label": "Mahabalipuram (study buffer)", "kind": "study_buffer", "source": "Derived buffer around Mamallapuram town point", "osm_id": null, "note": "Approx. 3–4 km study buffer around Mahabalipuram / Mamallapuram — not an official municipal ward map." }, "geometry": { "type": "Polygon", "coordinates": [ [ [ 80.2278, 12.6208 ], [ 80.227631465433532, 12.617369400088464 ], [ 80.227127484814119, 12.613971838729436 ], [ 80.226292911750633, 12.610640036296093 ], [ 80.225135783637896, 12.607406079867221 ], [ 80.223667244252198, 12.60430111421109 ], [ 80.221901436430599, 12.601355041844313 ], [ 80.219855365867701, 12.598596235054272 ], [ 80.217548737341531, 12.59605126265847 ], [ 80.215003764945735, 12.593744634132303 ], [ 80.212244958155694, 12.591698563569411 ], [ 80.209298885788911, 12.589932755747807 ], [ 80.20619392013279, 12.588464216362103 ], [ 80.202959963703918, 12.587307088249371 ], [ 80.199628161270567, 12.586472515185886 ], [ 80.196230599911544, 12.585968534566472 ], [ 80.1928, 12.5858 ], [ 80.189369400088466, 12.585968534566472 ], [ 80.185971838729444, 12.586472515185886 ], [ 80.182640036296092, 12.587307088249371 ], [ 80.179406079867221, 12.588464216362103 ], [ 80.1763011142111, 12.589932755747807 ], [ 80.173355041844317, 12.591698563569411 ], [ 80.170596235054276, 12.593744634132303 ], [ 80.16805126265848, 12.59605126265847 ], [ 80.165744634132309, 12.598596235054272 ], [ 80.163698563569412, 12.601355041844313 ], [ 80.161932755747813, 12.60430111421109 ], [ 80.160464216362115, 12.607406079867221 ], [ 80.159307088249378, 12.610640036296093 ], [ 80.158472515185892, 12.613971838729436 ], [ 80.157968534566479, 12.617369400088464 ], [ 80.1578, 12.6208 ], [ 80.157968534566479, 12.624230599911535 ], [ 80.158472515185892, 12.627628161270563 ], [ 80.159307088249378, 12.630959963703905 ], [ 80.160464216362115, 12.634193920132777 ], [ 80.161932755747813, 12.637298885788908 ], [ 80.163698563569412, 12.640244958155685 ], [ 80.165744634132309, 12.643003764945727 ], [ 80.16805126265848, 12.645548737341528 ], [ 80.170596235054276, 12.647855365867695 ], [ 80.173355041844317, 12.649901436430588 ], [ 80.1763011142111, 12.651667244252192 ], [ 80.179406079867221, 12.653135783637895 ], [ 80.182640036296092, 12.654292911750627 ], [ 80.185971838729444, 12.655127484814113 ], [ 80.189369400088466, 12.655631465433526 ], [ 80.1928, 12.6558 ], [ 80.196230599911544, 12.655631465433526 ], [ 80.199628161270567, 12.655127484814113 ], [ 80.202959963703918, 12.654292911750627 ], [ 80.20619392013279, 12.653135783637895 ], [ 80.209298885788911, 12.651667244252192 ], [ 80.212244958155694, 12.649901436430588 ], [ 80.215003764945735, 12.647855365867695 ], [ 80.217548737341531, 12.645548737341528 ], [ 80.219855365867701, 12.643003764945727 ], [ 80.221901436430599, 12.640244958155685 ], [ 80.223667244252198, 12.637298885788908 ], [ 80.225135783637896, 12.634193920132777 ], [ 80.226292911750633, 12.630959963703905 ], [ 80.227127484814119, 12.627628161270563 ], [ 80.227631465433532, 12.624230599911535 ], [ 80.2278, 12.6208 ] ] ] } }
]
}
