{
"type": "FeatureCollection",
"name": "mrts_lines",
"crs": { "type": "name", "properties": { "name": "urn:ogc:def:crs:OGC:1.3:CRS84" } },
"features": [
{ "type": "Feature", "properties": { "line_name": null }, "geometry": { "type": "MultiLineString", "coordinates": [ [ [ 80.292771756220205, 13.0931445379628 ], [ 80.292246043981393, 13.0913732701831 ], [ 80.291977823061103, 13.090675732061399 ], [ 80.291594266550902, 13.089473976554499 ], [ 80.291385054549593, 13.0885308555675 ], [ 80.291269719488895, 13.0877523211682 ], [ 80.291049778922002, 13.0867961300414 ], [ 80.290760100194603, 13.086127317185801 ], [ 80.290084182913503, 13.085463728198 ], [ 80.289115905822698, 13.085090131576401 ], [ 80.287611186336093, 13.0848419375807 ], [ 80.286777019749593, 13.0849072515463 ], [ 80.285492240951598, 13.0850091415215 ], [ 80.284939706246405, 13.0849882409556 ], [ 80.284489095617602, 13.0848785135139 ], [ 80.2840250727387, 13.0846486076939 ], [ 80.283464491192902, 13.0841496057349 ], [ 80.282957553806995, 13.0833475438139 ], [ 80.282391607778294, 13.082430525879699 ], [ 80.281766653475501, 13.081531792057801 ], [ 80.281165838538499, 13.0807271086179 ], [ 80.280543565372099, 13.0801810725208 ], [ 80.279814004569999, 13.079828368831301 ], [ 80.279181003396801, 13.079679449458 ], [ 80.277955233659796, 13.079606296018801 ], [ 80.275629759068707, 13.0794364753009 ], [ 80.275066494684097, 13.0792823299538 ], [ 80.274605154633903, 13.079041968443899 ], [ 80.274248421411301, 13.0787702549045 ], [ 80.273880958843804, 13.0783261068127 ], [ 80.273561776035706, 13.0776363702963 ], [ 80.273492038098397, 13.0772287974238 ], [ 80.273516178055402, 13.076476353377799 ], [ 80.273634195158706, 13.0754208374162 ], [ 80.273714661200898, 13.074642261937999 ], [ 80.273894369611895, 13.073234024777101 ], [ 80.274039208649796, 13.072643556310799 ], [ 80.274218916670605, 13.0722307499426 ], [ 80.274682938996506, 13.071632440906701 ], [ 80.275530517043606, 13.0709949387814 ], [ 80.277306139246306, 13.069759121574201 ], [ 80.2777031067031, 13.069393339669499 ], [ 80.277947187626097, 13.0690824246673 ], [ 80.278148352974597, 13.068727092682799 ], [ 80.278328061055703, 13.068248960583199 ], [ 80.278478264832401, 13.067457297936899 ], [ 80.278593599413796, 13.066851138873099 ], [ 80.278770625842796, 13.0663364247253 ], [ 80.279060304568006, 13.065821709928599 ], [ 80.279677212312293, 13.0649594948526 ], [ 80.280304849473893, 13.064050245959701 ], [ 80.280484557489601, 13.0636557144104 ], [ 80.280618667754993, 13.0630678358211 ], [ 80.280653536474404, 13.0626471746771 ], [ 80.280586480743494, 13.062061906444701 ], [ 80.280337035748204, 13.0602773510213 ], [ 80.280328989423595, 13.059373310953699 ], [ 80.280396044548596, 13.0581975316443 ], [ 80.280455052842598, 13.0572542908724 ], [ 80.280519425528396, 13.056073275719401 ], [ 80.280602574117196, 13.054615288201701 ], [ 80.280589163051701, 13.0539751300138 ], [ 80.280479193125203, 13.053504808391899 ], [ 80.280186831731001, 13.0528411308721 ], [ 80.279706716184805, 13.0520076120719 ], [ 80.279156863845898, 13.0510225409172 ], [ 80.2784219385847, 13.049729139354801 ], [ 80.278092026529094, 13.0490027417039 ], [ 80.2777433399458, 13.0480307232258 ], [ 80.277418792680606, 13.0470796045716 ], [ 80.277056694119494, 13.0459821556392 ], [ 80.276265442365002, 13.0436461416945 ], [ 80.275879204462896, 13.043050376274801 ], [ 80.275299847187497, 13.0425460644816 ], [ 80.274792909657904, 13.0422586330637 ], [ 80.2740016582799, 13.042036526318 ], [ 80.272690057404901, 13.0420600432619 ], [ 80.272175074081403, 13.0420182345082 ], [ 80.271523297280496, 13.041840549697101 ], [ 80.270935892929202, 13.0415165347768 ], [ 80.270294845199103, 13.041038350107501 ], [ 80.269860326974893, 13.0405288080754 ], [ 80.269584059509498, 13.0399905222817 ], [ 80.269420444890599, 13.039363391526701 ], [ 80.269275605757599, 13.038090833316501 ], [ 80.269138813337193, 13.0375447023776 ], [ 80.268905460407098, 13.0370665110039 ], [ 80.268570184720403, 13.0365987699959 ], [ 80.267615318716693, 13.0355561499128 ], [ 80.266588032161295, 13.034364577644499 ], [ 80.266038179443797, 13.033967385999199 ], [ 80.265338122541294, 13.0336694918717 ], [ 80.264793634765596, 13.0334552167495 ], [ 80.264380574527806, 13.033287977740001 ], [ 80.263913870154298, 13.0330345056908 ], [ 80.263621508870401, 13.032807164291 ], [ 80.262773931400503, 13.032031066764301 ], [ 80.262486934978497, 13.0317566884006 ], [ 80.262041687954607, 13.0312366758205 ], [ 80.261776149256093, 13.0308499312167 ], [ 80.261435508611299, 13.0301339297644 ], [ 80.2609902624326, 13.0290808299488 ], [ 80.260158777554096, 13.0270582373893 ], [ 80.259732305759599, 13.026065227381 ], [ 80.2594158053477, 13.025495551700899 ], [ 80.258994698117107, 13.0250356289056 ], [ 80.258503854088502, 13.024706365710999 ], [ 80.257425605920005, 13.0242150824603 ], [ 80.2540299291894, 13.0227490681403 ], [ 80.253418385537302, 13.0224250274923 ], [ 80.253029465959003, 13.022095761298401 ], [ 80.252718329799507, 13.021727295577 ], [ 80.2510660887163, 13.019388438918901 ], [ 80.250011980612001, 13.0182229223369 ], [ 80.249446034760894, 13.0176009623891 ], [ 80.248979330315805, 13.016960708244699 ], [ 80.248735249462001, 13.016430210699401 ], [ 80.248523354081698, 13.015638382009399 ], [ 80.248099565416695, 13.011864749144999 ], [ 80.247863531419796, 13.009277530101899 ], [ 80.247801839953695, 13.007534408827199 ], [ 80.247681140508604, 13.0044035533267 ], [ 80.247742831276696, 13.0035202165818 ], [ 80.247978866377494, 13.0023990544857 ], [ 80.248252451573194, 13.0013693575365 ], [ 80.248496532215597, 13.000467715424 ], [ 80.248759388974307, 12.9994327837545 ], [ 80.249038338438496, 12.998371712474601 ], [ 80.249408483845102, 12.996963041545801 ], [ 80.250062942229803, 12.9944566864663 ], [ 80.251860022171698, 12.987617003229399 ], [ 80.251959264330694, 12.9870080351584 ], [ 80.251932441805096, 12.9863102027177 ], [ 80.251758098413305, 12.985575777617401 ], [ 80.251385271439702, 12.984846577859001 ], [ 80.250921249205604, 12.9842428298725 ], [ 80.250084399899805, 12.983283626542701 ], [ 80.249258279527893, 12.9823479411313 ], [ 80.248300731368701, 12.981268501346101 ], [ 80.247498750586601, 12.980421673338499 ], [ 80.246809423233699, 12.979864961659301 ], [ 80.245798230426203, 12.9793030202657 ], [ 80.244626105046706, 12.978900513280299 ], [ 80.243864357930406, 12.9787750564604 ], [ 80.242362320463897, 12.9786940313094 ], [ 80.239149034210996, 12.978615621147201 ], [ 80.237923264399598, 12.9785764155581 ], [ 80.236842334546395, 12.9785058465351 ], [ 80.236134231349197, 12.9783882303058 ], [ 80.235026478583407, 12.978035381373999 ], [ 80.233674645192195, 12.977311387159 ], [ 80.233079195435494, 12.976859216088 ], [ 80.232424736453595, 12.976260675913 ], [ 80.230265557951697, 12.974135717393599 ], [ 80.229278504866002, 12.973166019270399 ], [ 80.227923989633098, 12.971814709113801 ], [ 80.227049589431999, 12.9709390975245 ], [ 80.226244926710805, 12.9701288272824 ], [ 80.225268602704901, 12.9691721830559 ], [ 80.224107205536697, 12.9683357686257 ], [ 80.222809016308105, 12.9677293670069 ], [ 80.221666395936793, 12.967431393451299 ], [ 80.221084356704495, 12.9673555933658 ], [ 80.220153629553295, 12.967347751595 ], [ 80.219694971705707, 12.967355592833901 ], [ 80.219182670018597, 12.9674026420559 ], [ 80.218058824971294, 12.9676457260306 ], [ 80.216967502696406, 12.9680958447207 ], [ 80.214666614179393, 12.9697726304114 ], [ 80.215062834273098, 12.969440657022799 ], [ 80.212884654563595, 12.9711322065627 ], [ 80.209068862020999, 12.974432126320201 ], [ 80.206328922045898, 12.976473751261899 ], [ 80.204764421575007, 12.9777576479462 ], [ 80.204038899643507, 12.978187000032801 ], [ 80.203285200441499, 12.9786051999252 ], [ 80.203162462460298, 12.9786676618352 ], [ 80.202564862135304, 12.978943030121 ], [ 80.2020916002852, 12.979138400098099 ], [ 80.201190399723501, 12.979520000411901 ], [ 80.200246300330406, 12.979917200309799 ], [ 80.2001003464174, 12.9799823886874 ], [ 80.198866118226604, 12.9804456780608 ], [ 80.198400929073799, 12.980848632374499 ], [ 80.198180999602201, 12.981004500054301 ], [ 80.198001912994101, 12.9811942650839 ], [ 80.197414924628802, 12.981702719164501 ], [ 80.197356795874697, 12.981778230636801 ], [ 80.196236004068993, 12.9834566907302 ], [ 80.196225599809907, 12.9834822996553 ], [ 80.196145200356597, 12.9838794996832 ], [ 80.196143868187306, 12.983924199733901 ], [ 80.196067026783098, 12.984169021770599 ], [ 80.196073045275796, 12.984379087846101 ], [ 80.196110751713206, 12.9856952823465 ], [ 80.196115218301102, 12.985851190632699 ], [ 80.195712686192905, 12.987087628091899 ], [ 80.195463402124403, 12.9885298917608 ], [ 80.195457819075102, 12.990264456924701 ] ] ] } },
{ "type": "Feature", "properties": { "line_name": null }, "geometry": { "type": "MultiLineString", "coordinates": [ [ [ 80.292334556304198, 13.0935076723637 ], [ 80.291760564105502, 13.0915770457385 ], [ 80.291433333951403, 13.090537269831801 ], [ 80.290867388218402, 13.0887581455654 ], [ 80.290304124473295, 13.0869189197886 ], [ 80.290116369888906, 13.086466949444601 ], [ 80.289786457758495, 13.0859366013099 ], [ 80.289429724320996, 13.085589130867699 ], [ 80.289016663886599, 13.0853121990424 ], [ 80.288676023032707, 13.085155445720201 ], [ 80.288193226276803, 13.085027429843301 ], [ 80.287772118631295, 13.084983015870399 ], [ 80.287064015471401, 13.085024817504999 ], [ 80.285213291212401, 13.085152832797601 ], [ 80.284599065646702, 13.085053555329999 ], [ 80.284148454588404, 13.084891576173799 ], [ 80.283676385817799, 13.0846041935363 ], [ 80.283209681933499, 13.084060778515299 ], [ 80.282453298714003, 13.0828119639809 ], [ 80.281149744667601, 13.0809308925915 ], [ 80.280516743938605, 13.080319541385 ], [ 80.280039310305597, 13.0800844050558 ], [ 80.279470682052803, 13.079943324395799 ], [ 80.277222990885406, 13.079744765129201 ], [ 80.276654362388797, 13.079687287134901 ], [ 80.275678038342406, 13.0797813418022 ], [ 80.274766087223099, 13.080053053643599 ], [ 80.273392796696399, 13.080455397308899 ], [ 80.272577405032095, 13.080674856883901 ], [ 80.272175073710599, 13.0807427842536 ], [ 80.271686911916206, 13.080753234873701 ], [ 80.271048546081701, 13.080685306826799 ], [ 80.269160270397094, 13.0804135952247 ], [ 80.268167853390295, 13.0802150364008 ], [ 80.267558992340795, 13.080006027083 ], [ 80.266950130444499, 13.0797264761748 ], [ 80.265968441527306, 13.079282330154699 ], [ 80.264858007254801, 13.0787937687971 ], [ 80.264174043856997, 13.0786343982468 ], [ 80.263473987973697, 13.0786474613632 ], [ 80.263047516548895, 13.078723227401699 ], [ 80.262417197179502, 13.0788042192173 ], [ 80.261918306730294, 13.0787728677307 ], [ 80.259844958942196, 13.0784593514198 ], [ 80.259276330485903, 13.078365296858699 ], [ 80.258871316465701, 13.0782607915101 ], [ 80.258383155117201, 13.0780831313989 ], [ 80.257675051713903, 13.077730424971101 ], [ 80.257149338991198, 13.0775188006308 ], [ 80.256867706618806, 13.0774378089833 ], [ 80.256100595275498, 13.077296726050101 ], [ 80.254067480723407, 13.077001496132 ], [ 80.251280665004899, 13.0765677963591 ], [ 80.250846147090002, 13.076494642070299 ], [ 80.250245332779599, 13.076374459126701 ], [ 80.249338746260307, 13.076131482697001 ], [ 80.247753560841105, 13.075669040809 ], [ 80.246184468190606, 13.0752222745019 ], [ 80.244274735335196, 13.074778120388499 ], [ 80.242238938867303, 13.0741772049529 ], [ 80.240887105835, 13.0737800772018 ], [ 80.240195095671893, 13.0735240339505 ], [ 80.239079296812704, 13.0731347432496 ], [ 80.237512886933104, 13.0727010354888 ], [ 80.236890614148294, 13.072531209993199 ], [ 80.235965252077193, 13.0722046229535 ], [ 80.235144495963098, 13.0717709141945 ], [ 80.234734118290206, 13.071454776600699 ], [ 80.234347879974706, 13.0710654819858 ], [ 80.233824849363202, 13.0703495979563 ], [ 80.233505666630904, 13.069646774728501 ], [ 80.233264267378303, 13.0685259109597 ], [ 80.2331006527521, 13.0674834254394 ], [ 80.232902169155096, 13.0665689605946 ], [ 80.232588350415199, 13.064823630428 ], [ 80.232333540670098, 13.062942421024999 ], [ 80.232137739844802, 13.0610742622526 ], [ 80.231987535746399, 13.059953360650301 ], [ 80.231547653903903, 13.0571001317683 ], [ 80.231207013073202, 13.054881803020301 ], [ 80.2310433982326, 13.053969904307699 ], [ 80.230852961873495, 13.0531468406166 ], [ 80.230681299851895, 13.052261065256101 ], [ 80.2304533126471, 13.0507481837399 ], [ 80.230383574873798, 13.050141983444201 ], [ 80.230356753302701, 13.0497160751123 ], [ 80.230332612718598, 13.049222229046499 ], [ 80.230168998017106, 13.0480620786253 ], [ 80.230000019213193, 13.046883632021199 ], [ 80.229820310966502, 13.045825376892401 ], [ 80.229584277040402, 13.0446443072567 ], [ 80.229208767283595, 13.0432359001226 ], [ 80.228943228983496, 13.0422037597463 ], [ 80.2285757662073, 13.040978250067001 ], [ 80.228269994301002, 13.039977457030499 ], [ 80.227905213811994, 13.038934850524999 ], [ 80.227596760224301, 13.0378713356817 ], [ 80.227277576917004, 13.0367032934428 ], [ 80.227119326853497, 13.0357599704398 ], [ 80.2270388604136, 13.035396751311501 ], [ 80.226824283492107, 13.0344560368573 ], [ 80.226531923072301, 13.0333768232969 ], [ 80.226228832929607, 13.032292379196999 ], [ 80.225979387685996, 13.0313568793902 ], [ 80.225711166486406, 13.0303952444918 ], [ 80.225335657523601, 13.029072990546201 ], [ 80.225086212516899, 13.0280512433686 ], [ 80.2247536178606, 13.0269406443566 ], [ 80.224445163805498, 13.025843105962499 ], [ 80.224179625517905, 13.0251819679427 ], [ 80.223830938630002, 13.0240974880792 ], [ 80.223517119636497, 13.022950286056 ], [ 80.223205983553896, 13.021826598101599 ], [ 80.223007500589006, 13.0213039502254 ], [ 80.222709775248504, 13.0206610931666 ], [ 80.222049951723207, 13.0193596926255 ], [ 80.221537649328297, 13.0183901714898 ], [ 80.220891237568495, 13.017133184748401 ], [ 80.219960510703203, 13.0152463867334 ], [ 80.218968093782706, 13.013417067916 ], [ 80.217884480521704, 13.0122724300822 ], [ 80.216902792210803, 13.011535468808599 ], [ 80.215526819348298, 13.010490128846699 ], [ 80.214563905983297, 13.0097975894512 ], [ 80.213187933133796, 13.0089404052727 ], [ 80.2118602395566, 13.007926416325599 ], [ 80.211146772204401, 13.0072861370467 ], [ 80.210698843358301, 13.0066902835708 ], [ 80.210165083304801, 13.005650150494301 ], [ 80.209561586524103, 13.0044924100286 ], [ 80.208976865245305, 13.003342503433 ], [ 80.208357274891995, 13.0021873653538 ], [ 80.207796693251296, 13.0010740368868 ], [ 80.207340717215601, 13.0002037555609 ], [ 80.206428766140604, 12.9988891807321 ], [ 80.2056106929045, 12.997937874032001 ], [ 80.2047765255911, 12.997221777757201 ], [ 80.203607082783094, 12.9966076055566 ], [ 80.201823413591697, 12.9959490033775 ], [ 80.1999485494147, 12.9953426684178 ], [ 80.197867154791197, 12.9944906622458 ], [ 80.196263193652001, 12.9937850104372 ], [ 80.194112062192502, 12.992946065859901 ], [ 80.192213058885898, 12.992206433115401 ], [ 80.190649330586297, 12.9916105443642 ], [ 80.188557207732202, 12.9908656803439 ], [ 80.187095403768694, 12.9903560352644 ], [ 80.185813308098602, 12.989757528147299 ], [ 80.184375643511302, 12.988968228464801 ], [ 80.182887017321406, 12.988280855826 ], [ 80.1813769341327, 12.987583026521399 ], [ 80.179030001570894, 12.9864722465827 ], [ 80.177125633043204, 12.985609755211399 ], [ 80.175449251971699, 12.9849276005751 ], [ 80.173566341596597, 12.984038967165199 ], [ 80.171112120023196, 12.982768738093 ], [ 80.168306529267198, 12.9814566852559 ], [ 80.166884959200303, 12.9808869065425 ], [ 80.165101289966103, 12.9800531457396 ], [ 80.163803100211695, 12.9791226766148 ], [ 80.162681937297904, 12.978074587069999 ], [ 80.161560773666693, 12.977052630443399 ], [ 80.160471797199094, 12.9760411235115 ], [ 80.159490108454904, 12.975131548801899 ], [ 80.157642066770705, 12.973437848569899 ], [ 80.156571865343906, 12.972436783054 ], [ 80.155193209332396, 12.971158654034401 ], [ 80.153688489931099, 12.969823015622 ], [ 80.152824818677004, 12.968816706939201 ], [ 80.151937008359099, 12.967533331991801 ], [ 80.151306688389596, 12.966422462335901 ], [ 80.150298178557307, 12.9649561062709 ], [ 80.148927569730304, 12.96298265465 ], [ 80.147039293921097, 12.960279915293301 ], [ 80.145800114004103, 12.958510311201101 ], [ 80.145073234707596, 12.957454293427499 ], [ 80.144459008753202, 12.9565446504928 ], [ 80.143657028323602, 12.9554598710583 ], [ 80.142983794507501, 12.954424751156999 ], [ 80.142211317810407, 12.953353032701999 ], [ 80.141766070888195, 12.952853766902001 ], [ 80.141130387731096, 12.9520538939082 ], [ 80.140293538120801, 12.9508514657639 ], [ 80.139681994820805, 12.949936570457901 ], [ 80.139102637892506, 12.9489458659385 ], [ 80.1383221145324, 12.9478218428407 ], [ 80.137568413937203, 12.946726569949901 ], [ 80.137112438585305, 12.946075676413701 ], [ 80.136436522412694, 12.945129396150699 ], [ 80.135883986589207, 12.9443242701022 ], [ 80.135242939073706, 12.943396280399799 ], [ 80.134465098498296, 12.942303601531 ], [ 80.133129358257094, 12.9403508833926 ], [ 80.132174491862401, 12.939130099757699 ], [ 80.1310667395434, 12.9375956161076 ], [ 80.130264758766302, 12.9363722053121 ], [ 80.129599571656101, 12.9354703281792 ], [ 80.128912925387198, 12.934516164170301 ], [ 80.127923190286594, 12.9334417451874 ], [ 80.126187801284502, 12.932030093201 ], [ 80.125283897068698, 12.9313294924077 ], [ 80.124224424163401, 12.9304877233107 ], [ 80.122765302675504, 12.929287805228499 ], [ 80.122019648182203, 12.928647324039099 ], [ 80.1217058303003, 12.928378059574399 ], [ 80.120485424844304, 12.927371583944 ], [ 80.119586884832998, 12.926603000643601 ], [ 80.118717849212203, 12.925928527136101 ], [ 80.117760300548994, 12.9251364102061 ] ] ] } },
{ "type": "Feature", "properties": { "line_name": null }, "geometry": { "type": "MultiLineString", "coordinates": [ [ [ 80.274095534839404, 13.0840137519381 ], [ 80.273392796826997, 13.0883871662584 ], [ 80.273481309584298, 13.0900173802147 ], [ 80.273551047236793, 13.091206070183601 ], [ 80.273457169456094, 13.0922223314949 ], [ 80.273250639169405, 13.0927631158228 ], [ 80.272526443434899, 13.093990980466801 ], [ 80.272027551826199, 13.095085602772199 ], [ 80.271668135816299, 13.095979062653401 ], [ 80.271509886157403, 13.0974315802601 ], [ 80.271386504587596, 13.099923830133299 ], [ 80.271177291733906, 13.101501719202799 ], [ 80.271021723353797, 13.103983478588299 ], [ 80.2709144355494, 13.104584321484801 ], [ 80.270410180540907, 13.1054254999755 ], [ 80.269621610391795, 13.1062614502902 ], [ 80.267985463002205, 13.107818399929901 ], [ 80.266966223761102, 13.1087274873948 ], [ 80.265941620318998, 13.109265623655 ], [ 80.264911651391998, 13.1095320788779 ], [ 80.263833403287606, 13.1095634265179 ], [ 80.262800753291998, 13.1095817123682 ], [ 80.261899531200299, 13.1096235098137 ] ], [ [ 80.292452573774995, 13.093178499988401 ], [ 80.293605923329196, 13.0970867383704 ], [ 80.294850468293504, 13.1010471626014 ], [ 80.294925570156394, 13.1020555458948 ], [ 80.294501781225193, 13.103116171942601 ], [ 80.293900966899898, 13.1037953880499 ], [ 80.292345285661597, 13.1048612314252 ], [ 80.290279984070494, 13.105812126901499 ], [ 80.286074280442506, 13.107442225648301 ], [ 80.282785892295195, 13.108575972778199 ], [ 80.278757214328095, 13.1096679184745 ], [ 80.277598500650399, 13.1098560042405 ], [ 80.276300310779803, 13.109970945734201 ], [ 80.272947550225098, 13.110357566256701 ], [ 80.271483063871599, 13.1104672823269 ], [ 80.269653797199098, 13.110399362993199 ], [ 80.263774394822093, 13.109887351851 ], [ 80.257514118831907, 13.1090148421815 ], [ 80.251221657217798, 13.108199799278999 ], [ 80.245310067929907, 13.1075728412531 ], [ 80.238368510762101, 13.107484022224501 ], [ 80.231394768013999, 13.107860197114499 ], [ 80.224324465172799, 13.1085341763579 ], [ 80.216701626887897, 13.1093910144163 ], [ 80.210065841554197, 13.110174705424001 ], [ 80.2038323881103, 13.111057661114501 ], [ 80.196880101979801, 13.1118570201129 ], [ 80.190598368871306, 13.112583232956 ], [ 80.183104276654504, 13.1135027515197 ], [ 80.175642370869497, 13.1142498578038 ], [ 80.168346762571403, 13.1146155737013 ], [ 80.165213942227297, 13.1145946758216 ], [ 80.152886509440094, 13.1142812054371 ], [ 80.144292712022093, 13.114714839380801 ], [ 80.134808421400095, 13.115639574207 ], [ 80.123226642463294, 13.1167680595967 ], [ 80.115222930623105, 13.117603972192899 ], [ 80.107825398073501, 13.118095068530801 ], [ 80.095712542921603, 13.118309270627099 ], [ 80.083358288254203, 13.118466002650401 ], [ 80.073316097653802, 13.1186802037814 ], [ 80.062270760305907, 13.1190197909714 ], [ 80.055828094388602, 13.1197407589527 ], [ 80.045045614226595, 13.121590187993201 ], [ 80.036387443451105, 13.1229903111618 ], [ 80.027514696046595, 13.1238941173574 ], [ 80.014742017082497, 13.123909790211201 ], [ 80.007639526988896, 13.1238470989706 ], [ 80.000858902746202, 13.1237844070963 ], [ 79.994223118121397, 13.123831425536 ], [ 79.989502429591596, 13.1240247256675 ], [ 79.977056980358697, 13.1245314825997 ], [ 79.961446524070496, 13.1251949668551 ], [ 79.952160715842396, 13.125100929752699 ], [ 79.942595958862398, 13.124160557275999 ], [ 79.931502342539503, 13.1219193218793 ], [ 79.926824569641497, 13.1205766606901 ], [ 79.920451641221007, 13.1185234718861 ], [ 79.912061691084901, 13.115879900682399 ], [ 79.904782175771501, 13.113460955543101 ], [ 79.9002707003783, 13.1120660022848 ], [ 79.892824888611599, 13.1096574698979 ], [ 79.884413481059596, 13.1069197591193 ], [ 79.870637655035907, 13.1024056051098 ], [ 79.858911037255297, 13.098654196441 ], [ 79.849416017312095, 13.096428403272 ], [ 79.836359024311605, 13.094672834438899 ], [ 79.824900626951106, 13.0940980917104 ], [ 79.813624620409698, 13.0951848766837 ], [ 79.804612398341703, 13.0963970541916 ], [ 79.797477722331706, 13.096501552277299 ], [ 79.788969755362402, 13.095519270729 ], [ 79.780086279255201, 13.0933143489702 ], [ 79.775387048576405, 13.092029006619599 ], [ 79.770559072173, 13.0911407577295 ], [ 79.763467311550201, 13.0903674564196 ], [ 79.756793975511897, 13.0896046029972 ], [ 79.746419191675301, 13.0883192402865 ], [ 79.725991487239696, 13.085988851754401 ], [ 79.713835716453602, 13.0851946339625 ], [ 79.707484245333504, 13.0848079742211 ], [ 79.699941873278505, 13.0842959099792 ], [ 79.681552648704994, 13.0826865595416 ], [ 79.677271843179099, 13.0822894452533 ], [ 79.667959213324593, 13.081537016719 ], [ 79.656908512135203, 13.081108549365201 ], [ 79.648025035817994, 13.0814847645927 ], [ 79.648647307996399, 13.0863128084584 ], [ 79.650127887815302, 13.0895314516694 ], [ 79.653689861710504, 13.0980167650936 ], [ 79.654515981791207, 13.101256154882099 ], [ 79.652584791334704, 13.1055613416071 ], [ 79.6502888206264, 13.1101903792577 ], [ 79.644516706917301, 13.121506597835699 ], [ 79.640858173570805, 13.128778795574901 ], [ 79.637188910990005, 13.1360298825907 ], [ 79.634463787244698, 13.1418180597556 ], [ 79.633347987831399, 13.145892688215 ], [ 79.632103443121807, 13.1505314127779 ], [ 79.631170034618506, 13.1533522167078 ], [ 79.629474878311896, 13.1566222183616 ], [ 79.626642465533607, 13.1606025767147 ], [ 79.621868133557101, 13.167152790163 ], [ 79.618488550422796, 13.171749325696201 ], [ 79.612426758217296, 13.179312529274901 ] ] ] } },
{ "type": "Feature", "properties": { "line_name": null }, "geometry": { "type": "MultiLineString", "coordinates": [ [ [ 80.274116993121595, 13.0839092487439 ], [ 80.273816585242002, 13.0852939107706 ], [ 80.2736020090599, 13.086709916359601 ], [ 80.2733874323972, 13.0878489849724 ], [ 80.273344516974007, 13.0884968924197 ], [ 80.273505449147507, 13.090388356323 ], [ 80.273548364539195, 13.0912086830019 ], [ 80.273500084973406, 13.0919663070548 ], [ 80.273328423505106, 13.0927970778218 ], [ 80.272690057749799, 13.093936118327999 ], [ 80.272201895829696, 13.0948243570655 ], [ 80.271890759838996, 13.0956028697913 ], [ 80.271794199616195, 13.0958850138513 ], [ 80.271654724974397, 13.096459753022099 ], [ 80.271536708080603, 13.098189184760701 ], [ 80.271456242020804, 13.099401347863999 ], [ 80.271520614688001, 13.100571706576799 ], [ 80.271536707575294, 13.101877903092401 ], [ 80.271445512329805, 13.1033408357154 ], [ 80.271429419956903, 13.103926006447301 ], [ 80.271601080478206, 13.104652242732399 ], [ 80.271917581715201, 13.1057546557027 ], [ 80.272191167129904, 13.1065226840166 ], [ 80.272877812783307, 13.108037835018999 ], [ 80.274589061436103, 13.1117577530679 ], [ 80.276801884165096, 13.116681856446 ] ], [ [ 80.292452573774995, 13.093178499988401 ], [ 80.293605923329196, 13.0970867383704 ], [ 80.294850468293504, 13.1010471626014 ], [ 80.294925570156394, 13.1020555458948 ], [ 80.294501781225193, 13.103116171942601 ], [ 80.293900966899898, 13.1037953880499 ], [ 80.292345285661597, 13.1048612314252 ], [ 80.290279984070494, 13.105812126901499 ], [ 80.286074280442506, 13.107442225648301 ], [ 80.282785892295195, 13.108575972778199 ], [ 80.281997322702694, 13.1088215306184 ], [ 80.280817150683802, 13.1091297838542 ], [ 80.280369222116306, 13.109257787014 ], [ 80.2799051999813, 13.109443260536899 ], [ 80.279146134974098, 13.1098168197384 ], [ 80.278285145684194, 13.1103915259344 ], [ 80.2774670719472, 13.111311052629301 ], [ 80.276879668573798, 13.1123089442465 ], [ 80.276488066128096, 13.1134949149428 ], [ 80.276396870616495, 13.1145502672933 ], [ 80.276530980856407, 13.1156082271286 ], [ 80.276753604222307, 13.116470265932699 ], [ 80.276812613182301, 13.116700142336899 ], [ 80.277011096706303, 13.1171233228178 ], [ 80.277864038798299, 13.1189832206702 ], [ 80.278856456380396, 13.1211800756309 ], [ 80.280063450070898, 13.1238497107359 ], [ 80.281576216046403, 13.127135778391599 ], [ 80.283115803963099, 13.1304688201324 ], [ 80.284502506269604, 13.133506653580101 ], [ 80.286074280775296, 13.136944089501 ], [ 80.287973284587807, 13.141175515995201 ], [ 80.288649201232204, 13.142716573754299 ], [ 80.289459228102501, 13.144153143437199 ], [ 80.291508436011796, 13.1486195168112 ], [ 80.292377471900494, 13.1506985722351 ], [ 80.293005108658093, 13.1522238986327 ], [ 80.295043587597405, 13.156658783341999 ], [ 80.296787023772694, 13.160388411710301 ], [ 80.299984216814906, 13.1675288730681 ], [ 80.301175117449702, 13.1700204113118 ], [ 80.302028060066405, 13.1719530343088 ], [ 80.304452777138906, 13.1772963942737 ], [ 80.307569503527802, 13.1840550817448 ], [ 80.309650897568901, 13.188630408858399 ], [ 80.312311649394402, 13.1944695717484 ], [ 80.313969254273601, 13.1981829566068 ], [ 80.315680503659095, 13.2018597260015 ], [ 80.318571924874107, 13.2082678267106 ], [ 80.321211219125601, 13.2140072947705 ], [ 80.321538448560801, 13.2148794313915 ], [ 80.321769118041303, 13.215840344532999 ], [ 80.321801305164598, 13.216561027095199 ], [ 80.321763753758702, 13.217652491464699 ], [ 80.321602821592805, 13.218477614849499 ], [ 80.321291685147401, 13.219725738800699 ], [ 80.321018099564, 13.220425520831901 ], [ 80.320728421016995, 13.2209686343729 ], [ 80.320481657748999, 13.221412523562901 ], [ 80.319328308366096, 13.2230000749667 ], [ 80.317440032848296, 13.225543268982801 ], [ 80.316072106390905, 13.2273918987411 ], [ 80.313261151415205, 13.231193556341101 ], [ 80.310573577772402, 13.234880272894801 ], [ 80.307682156728902, 13.2387496978179 ], [ 80.306003093729601, 13.2410473025028 ], [ 80.304672718275597, 13.2428331531795 ], [ 80.302028059727306, 13.246206391947201 ], [ 80.300091504710096, 13.2488328898979 ], [ 80.295274257533293, 13.2554172865166 ], [ 80.293385982096396, 13.258012357110299 ], [ 80.292356013830698, 13.259223728212101 ], [ 80.291562079996496, 13.2599495035566 ], [ 80.290360451056799, 13.260643949103599 ], [ 80.287361740883497, 13.262325229179799 ], [ 80.283375978418903, 13.2644816363372 ], [ 80.278236865677897, 13.2672802384386 ], [ 80.2771103384339, 13.2679485563594 ], [ 80.276064276884597, 13.2687212970683 ], [ 80.273966789344598, 13.270365972923599 ], [ 80.271917581442096, 13.272062849059999 ], [ 80.270002484406405, 13.2736030803731 ], [ 80.267518759227599, 13.2756758507899 ], [ 80.265539288894601, 13.2772160591402 ], [ 80.263355969954802, 13.279012086115699 ], [ 80.260764956618303, 13.2811526828274 ], [ 80.257616042677697, 13.2837109321143 ], [ 80.255443453379996, 13.2854703651637 ], [ 80.252938271023794, 13.287506487966001 ], [ 80.250497460408695, 13.289485166073399 ], [ 80.248180031959095, 13.291448165512699 ], [ 80.246082544368207, 13.2930979081597 ], [ 80.243631005607597, 13.295097422929 ], [ 80.241581797844404, 13.2967732445975 ], [ 80.239087343534806, 13.298636994401001 ], [ 80.236367583105107, 13.3005268317906 ], [ 80.233594179467502, 13.3024845216472 ], [ 80.232832432085402, 13.3030326720808 ], [ 80.231705903841998, 13.303742655116499 ], [ 80.2285623551942, 13.3059770011381 ], [ 80.2259767051777, 13.3078197985541 ], [ 80.222747325535806, 13.3100854285619 ], [ 80.220623016194693, 13.3116932821228 ], [ 80.219104886099601, 13.3127582180782 ], [ 80.216739178122495, 13.314454797409301 ], [ 80.213912129450705, 13.316438475882901 ], [ 80.2105647322675, 13.3188397487618 ], [ 80.206616521288694, 13.321653383596299 ], [ 80.205066204414095, 13.323047138255101 ], [ 80.204004049513102, 13.324252965442099 ], [ 80.203456879033993, 13.324994205801101 ], [ 80.202593207342005, 13.326429701303301 ], [ 80.201257467003103, 13.328783895692 ], [ 80.200345516238102, 13.3303498659185 ], [ 80.198135375845496, 13.334155132117701 ], [ 80.197910070106204, 13.334530957177 ], [ 80.197593569684997, 13.3350790350756 ], [ 80.196874737719199, 13.3359872747154 ], [ 80.196209549592893, 13.336676282911201 ], [ 80.1953136924311, 13.3373913867366 ], [ 80.193216204336807, 13.338816369882201 ], [ 80.188393592552899, 13.342172614312901 ], [ 80.184600949459096, 13.3447928533308 ], [ 80.181376934099205, 13.347026819607899 ], [ 80.179161429689202, 13.3486396469733 ], [ 80.178008079580096, 13.3493703741633 ], [ 80.176742076838707, 13.3500854412179 ], [ 80.172471999803406, 13.3520949242281 ], [ 80.166925191831993, 13.3546211077048 ], [ 80.161657333802296, 13.357016781528101 ], [ 80.156802535077503, 13.3592088808622 ], [ 80.150687098049204, 13.361969853826499 ], [ 80.146905183762001, 13.363723498431501 ], [ 80.145526528738202, 13.3643341394232 ], [ 80.144676268095395, 13.3647986440346 ], [ 80.144311487374694, 13.365015237608301 ], [ 80.143911838735605, 13.365291851674201 ], [ 80.143329798779007, 13.365787668725501 ], [ 80.142828226091794, 13.3663408939665 ], [ 80.142146944586301, 13.367316865 ], [ 80.141578316874899, 13.368378946979099 ], [ 80.141366421998995, 13.3688486615131 ], [ 80.141167939127101, 13.3694723373257 ], [ 80.140800475797604, 13.3708605977518 ], [ 80.140502750513804, 13.3721992698633 ], [ 80.140108466164904, 13.373770176846801 ], [ 80.139572023909295, 13.3759647337125 ], [ 80.139158964104496, 13.377736543064399 ], [ 80.138724445849306, 13.3795083386489 ], [ 80.138209462575006, 13.381692405514 ], [ 80.137707888951695, 13.383748593044301 ], [ 80.136983692408506, 13.3867441246637 ], [ 80.136468708297997, 13.388865502837 ], [ 80.135902762842207, 13.3911851670307 ], [ 80.135398507209402, 13.3933195515749 ], [ 80.135012268567905, 13.394718111563501 ], [ 80.134870112273603, 13.3951486363567 ], [ 80.134572387142398, 13.395774853282401 ], [ 80.134164690680393, 13.396495001161799 ], [ 80.133641659880197, 13.397269940170499 ], [ 80.132906734665696, 13.398052704624 ], [ 80.131919682260801, 13.398992018083201 ], [ 80.131415426358103, 13.3995112474412 ], [ 80.130870938708597, 13.3999600286676 ], [ 80.1297712324141, 13.400998483649399 ], [ 80.127542317229995, 13.403051897727 ], [ 80.127295553275005, 13.4032945484657 ], [ 80.126810074051804, 13.4038424702802 ], [ 80.126496255502204, 13.404207750256401 ], [ 80.125860571916505, 13.405329678755299 ], [ 80.124385356561007, 13.4079961952591 ], [ 80.123685300458405, 13.4092668246732 ], [ 80.122478306294397, 13.4113932214876 ], [ 80.122000873491103, 13.4122046394716 ], [ 80.121839940968599, 13.412549034153299 ], [ 80.121416151843306, 13.4134856818537 ], [ 80.121142566360007, 13.414312746705701 ], [ 80.121005773561706, 13.4149545678975 ], [ 80.120919943232707, 13.415685094269699 ], [ 80.120697319485004, 13.418239309189 ], [ 80.120539069067405, 13.419872531931601 ], [ 80.120402276490594, 13.4212865908141 ], [ 80.120166242126999, 13.4236659473491 ], [ 80.119906067535197, 13.4263740031532 ], [ 80.119801461895605, 13.4276340993056 ], [ 80.119691491500404, 13.4287663538133 ], [ 80.119586885176105, 13.4298568616625 ], [ 80.1194849614687, 13.430863880869699 ], [ 80.119364261748203, 13.432199610439501 ], [ 80.119254290649494, 13.433433587677101 ], [ 80.119133591202598, 13.434735387776399 ], [ 80.118996799248606, 13.436154577039201 ], [ 80.118755400293097, 13.4386198760801 ], [ 80.118259191603201, 13.443970401023201 ], [ 80.117411613024103, 13.4525685556423 ], [ 80.117272138404601, 13.4536015663935 ], [ 80.116907358613901, 13.455302371044301 ], [ 80.116542577590195, 13.456700569755901 ], [ 80.115952491337595, 13.458453523496299 ], [ 80.114815235104302, 13.4619280898446 ], [ 80.1139676567782, 13.46418183654 ], [ 80.112808943214404, 13.467666754403499 ], [ 80.1107275488162, 13.4740625937212 ], [ 80.109032392216903, 13.4791228019341 ], [ 80.106242895109204, 13.487511035369399 ], [ 80.103850364361904, 13.4945636008517 ], [ 80.103485584045899, 13.4957946485805 ], [ 80.102627277017007, 13.498402779962101 ], [ 80.100631713844706, 13.502210600474699 ], [ 80.098260640683705, 13.506571262193599 ], [ 80.096125602777605, 13.510483271185301 ], [ 80.095031261583401, 13.512642672989299 ], [ 80.094505548810005, 13.513852763722801 ], [ 80.093271732148906, 13.515834795549299 ], [ 80.092413425781501, 13.5167736471609 ], [ 80.091447830176904, 13.517451705047201 ], [ 80.086598396628105, 13.520841961635901 ], [ 80.078455209987595, 13.5265270531642 ], [ 80.077553987906299, 13.5276014687007 ], [ 80.077081918504604, 13.5282794944925 ], [ 80.076878070751803, 13.5286445850432 ], [ 80.075869560488997, 13.5310333056693 ], [ 80.075225829692499, 13.5327335588761 ], [ 80.0746786594068, 13.534214751156901 ], [ 80.072854757058906, 13.538783441619501 ], [ 80.071706771994897, 13.541568421971199 ], [ 80.070708990156604, 13.543174725274801 ], [ 80.069335699212601, 13.5450939310933 ], [ 80.068166255896102, 13.546470743165001 ], [ 80.065054893310403, 13.5505281189635 ], [ 80.062147379335002, 13.554428976453201 ], [ 80.056740045316602, 13.5615838581675 ], [ 80.050495863353703, 13.569927470363799 ], [ 80.042749643735505, 13.58020014131 ], [ 80.036140680712904, 13.5889185259547 ], [ 80.032954216171703, 13.593173315117101 ], [ 80.032106637633206, 13.5946437023377 ], [ 80.0315272810289, 13.595769949739299 ], [ 80.030905008044201, 13.597282033340599 ], [ 80.030454397259007, 13.5989296729841 ], [ 80.029896498004007, 13.6012446901902 ], [ 80.028834343309398, 13.6058016629508 ], [ 80.026549100584006, 13.6155097033364 ], [ 80.025594234382794, 13.6196180343116 ], [ 80.0243282317861, 13.6249566729475 ], [ 80.023244619418406, 13.629742576403199 ], [ 80.022128820785298, 13.6344553968217 ], [ 80.019489526547801, 13.645684460915 ], [ 80.016871690903997, 13.6567461827791 ], [ 80.015090703758204, 13.664335829423599 ], [ 80.014919042814, 13.665743223121 ], [ 80.014951228998498, 13.666827432263799 ], [ 80.015058517029601, 13.667578035738099 ], [ 80.015745162651598, 13.6694336827181 ], [ 80.017172098602202, 13.672019055431599 ], [ 80.019811392276296, 13.6767310314782 ], [ 80.020154714320299, 13.677408631114499 ], [ 80.020551681388994, 13.678409389738899 ], [ 80.020712613751499, 13.6789618899301 ], [ 80.020884275352003, 13.6800460381922 ], [ 80.020905733034297, 13.680942541497201 ], [ 80.020809173514806, 13.681901587144999 ], [ 80.020176171901795, 13.685748157424699 ], [ 80.019586086508198, 13.689313214476799 ], [ 80.018963814008004, 13.6929824568423 ], [ 80.018384456403993, 13.696568251405401 ] ] ] } },
{ "type": "Feature", "properties": { "line_name": null }, "geometry": { "type": "MultiLineString", "coordinates": [ [ [ 79.981133462482802, 12.6932611632526 ], [ 79.980363676351402, 12.694458750185801 ], [ 79.980230014344997, 12.694631893940301 ], [ 79.979701440409002, 12.695348094628599 ], [ 79.979407055653098, 12.6957422755655 ], [ 79.9790227155585, 12.6962299938498 ], [ 79.978692001583497, 12.6966210847306 ], [ 79.978279379762697, 12.6970765852226 ], [ 79.978092337320305, 12.6972695928003 ], [ 79.977787796779893, 12.6976258833435 ], [ 79.977527285959397, 12.6980062897756 ], [ 79.977313028542795, 12.698413460047201 ], [ 79.977044198679707, 12.698948118101001 ], [ 79.976734030296299, 12.6994317935188 ], [ 79.976388580118396, 12.6998392192256 ], [ 79.976117694224797, 12.700141381192999 ], [ 79.975753170060301, 12.7005397160358 ], [ 79.975111186517907, 12.701245045514399 ], [ 79.973601116637198, 12.7029062596964 ], [ 79.972812015632996, 12.703761027215799 ], [ 79.971627927006907, 12.7050664921132 ], [ 79.970376621314898, 12.706443611192899 ], [ 79.969213349322402, 12.707715590708601 ], [ 79.968819578207601, 12.7081364108745 ], [ 79.967759539391906, 12.709312417058401 ], [ 79.966869708416297, 12.710283713552901 ], [ 79.966079863621601, 12.7111489426063 ], [ 79.965433863720904, 12.7118439139355 ], [ 79.964819551377701, 12.7125262666192 ], [ 79.964140370061102, 12.713262370407501 ], [ 79.963556622160496, 12.713915764927 ], [ 79.963203705339893, 12.7142924637461 ], [ 79.962537899836505, 12.715018879900301 ], [ 79.961731592741899, 12.715897830166901 ], [ 79.961015080580196, 12.716693720169401 ], [ 79.960657846515304, 12.717065961350601 ], [ 79.959827114544197, 12.7179879001219 ], [ 79.959183347892505, 12.718693168580799 ], [ 79.958356899645295, 12.7195966223724 ], [ 79.957856057553897, 12.720177216840501 ], [ 79.957515521694901, 12.7206083709965 ], [ 79.957192120452007, 12.7210628441876 ], [ 79.956793769861207, 12.7217066574221 ], [ 79.956318004243499, 12.722588821959 ], [ 79.955705335534205, 12.7237326541293 ], [ 79.955147155893101, 12.724773556111501 ], [ 79.954478692749802, 12.726019963984999 ], [ 79.953523713552798, 12.727803408870001 ], [ 79.952687820900294, 12.7293501887382 ], [ 79.952007867249904, 12.730626236924699 ], [ 79.951213500197497, 12.7320910614841 ], [ 79.950586927785693, 12.733283539188299 ], [ 79.950059300266901, 12.7342322365218 ], [ 79.949880492943905, 12.734525370410701 ], [ 79.949480619296196, 12.735107156321099 ], [ 79.949211164179701, 12.735452926768099 ], [ 79.948779654039598, 12.7359425946889 ], [ 79.948264346850394, 12.736535849287501 ], [ 79.947563940469905, 12.7373334481605 ], [ 79.946885739751295, 12.7381268881723 ], [ 79.946694211392398, 12.7383379821466 ], [ 79.946472370197, 12.7385959964516 ], [ 79.946146130056107, 12.7389625106483 ], [ 79.9457309319545, 12.739456855043199 ], [ 79.944993917279206, 12.7403069883642 ], [ 79.9442258493943, 12.741190237297999 ], [ 79.943270577693596, 12.7422771669409 ], [ 79.942360732147904, 12.743310928316999 ], [ 79.941031219035594, 12.7448422639012 ], [ 79.939597714781002, 12.746469415751299 ], [ 79.937690882059997, 12.748611333716999 ], [ 79.937022864114695, 12.7494109576699 ], [ 79.936071973443902, 12.7504956702545 ], [ 79.935431632175295, 12.7511058553065 ], [ 79.935102803492796, 12.7513642040575 ], [ 79.934024938877997, 12.7520511724067 ], [ 79.931317894949203, 12.7535037342621 ], [ 79.926532234894907, 12.755988008914199 ], [ 79.921603061403303, 12.7586375583082 ], [ 79.918589940643201, 12.7601829425251 ], [ 79.911394636866405, 12.764022936337099 ], [ 79.907282167121807, 12.7662240021456 ], [ 79.905567809539306, 12.7671229463334 ], [ 79.904474524376894, 12.7676654839021 ], [ 79.902499643304793, 12.768755464734401 ], [ 79.898987784236596, 12.7705727497853 ], [ 79.898167249196703, 12.7709927871575 ], [ 79.896423000457304, 12.7717734555468 ], [ 79.895553121860203, 12.7720770196952 ], [ 79.894400894688005, 12.77238631702 ], [ 79.889412440840601, 12.773616480425201 ], [ 79.887061037629806, 12.774233117967499 ], [ 79.884888532974998, 12.7747874687504 ], [ 79.881554797772196, 12.775644727773599 ], [ 79.879127737101001, 12.7762726052781 ], [ 79.876639579802003, 12.776912594143299 ], [ 79.873754857961302, 12.777667910421 ], [ 79.871704288899807, 12.7781806009774 ], [ 79.869814155867005, 12.7787439901425 ], [ 79.868577383372894, 12.7790711179487 ], [ 79.860972224317507, 12.7800677185095 ], [ 79.856869806298107, 12.780657171536101 ], [ 79.854604840904202, 12.7809764089333 ], [ 79.852160280760501, 12.781312818181901 ], [ 79.849811638067706, 12.7816238983498 ], [ 79.848937943455894, 12.781751539072999 ], [ 79.847364876575796, 12.781971881308399 ], [ 79.845501065675606, 12.7822282177485 ], [ 79.844900215318503, 12.7823429406532 ], [ 79.844313118325701, 12.782527458043001 ], [ 79.843934274617496, 12.7826854141579 ], [ 79.843695003512707, 12.782792668187801 ], [ 79.843224555380104, 12.7830255655619 ], [ 79.842232730450107, 12.783579882372599 ], [ 79.840739854781305, 12.7844270924216 ], [ 79.8258151788269, 12.7928543994945 ], [ 79.815047844940096, 12.798906211996499 ], [ 79.808187105907294, 12.8027168504196 ], [ 79.806447305994993, 12.8033995493617 ], [ 79.804218624395702, 12.8041407521723 ], [ 79.801914416806397, 12.804949173336199 ], [ 79.797835592207093, 12.806325663432 ], [ 79.7929895257288, 12.807997977992899 ], [ 79.791003048302798, 12.8086590930986 ], [ 79.789352346854997, 12.809223939741999 ], [ 79.787086836148504, 12.8099927758756 ], [ 79.786004961608, 12.810340793872999 ], [ 79.785236931812605, 12.810610165737099 ], [ 79.784456041553199, 12.810876234638201 ], [ 79.784165581269804, 12.8109882973498 ], [ 79.783687455170096, 12.811169222342899 ], [ 79.783389022419996, 12.8113052918333 ], [ 79.782989384853096, 12.8115375748079 ], [ 79.782374385170598, 12.8119934257821 ], [ 79.781866364298693, 12.8124186104048 ], [ 79.780643578103195, 12.8134745942858 ], [ 79.780028913542395, 12.813999114014401 ], [ 79.778765829331803, 12.815093802468899 ], [ 79.778167656320207, 12.8155986635178 ], [ 79.777954429114502, 12.8157751704831 ], [ 79.777549542431004, 12.8160572797916 ], [ 79.777335133527302, 12.816193069179601 ], [ 79.777078740072398, 12.816341659672901 ], [ 79.774396675932195, 12.8176166267579 ], [ 79.769081207362504, 12.820094688068799 ], [ 79.767464104789795, 12.820744748065801 ], [ 79.766055375067396, 12.8210738894663 ], [ 79.765205693638705, 12.8212997566475 ], [ 79.763835342493493, 12.8216910115007 ], [ 79.7613926934592, 12.8223567582102 ], [ 79.760240980001299, 12.8226638563725 ], [ 79.759302001688596, 12.8229184730412 ], [ 79.754715492023493, 12.824147254313701 ], [ 79.752372570416, 12.8247831614117 ], [ 79.751242848512405, 12.8250880234039 ], [ 79.749776117308102, 12.825483725953401 ], [ 79.7482306505742, 12.8259016608952 ], [ 79.746387441927297, 12.8263964366287 ], [ 79.743892439365894, 12.827071443860101 ], [ 79.739295442554194, 12.8283115451472 ], [ 79.738190806341507, 12.8286188317394 ], [ 79.735562680347599, 12.829320291010401 ], [ 79.733733988391606, 12.8298200311225 ], [ 79.7316937848762, 12.830368537079501 ], [ 79.728208688047303, 12.8313034022334 ], [ 79.726405689096296, 12.8317871456824 ], [ 79.725229779806895, 12.8321010172579 ], [ 79.723663774450003, 12.832527458538401 ], [ 79.722444625121796, 12.832850193946401 ], [ 79.721344518102597, 12.833149982942899 ], [ 79.720825154619504, 12.8332887235523 ], [ 79.719509004178207, 12.833649356998 ], [ 79.717905689332298, 12.8340750903889 ], [ 79.716098159440307, 12.834573086861999 ], [ 79.715517446632404, 12.834705773121501 ], [ 79.715254866805907, 12.8347911381545 ], [ 79.714908232217198, 12.834931231540001 ], [ 79.714628325443101, 12.8350753240726 ], [ 79.714473508117294, 12.835165377681699 ], [ 79.714302205176395, 12.8352818906056 ], [ 79.714051199668504, 12.8354639874724 ], [ 79.713816693811197, 12.8356633721043 ], [ 79.713569405416294, 12.8359180984185 ], [ 79.713480442777495, 12.836024169400201 ], [ 79.713350486561893, 12.836196929511599 ], [ 79.713198592764599, 12.8364282313365 ], [ 79.713065690200096, 12.8366456273432 ], [ 79.712957198697495, 12.8368758469016 ], [ 79.712856804729896, 12.8371149379771 ], [ 79.712744783439106, 12.837491768559399 ], [ 79.712659268619504, 12.8379264433147 ], [ 79.712545659621995, 12.8389574307231 ], [ 79.712449886459297, 12.840138537584799 ], [ 79.712387816914003, 12.8410661511728 ], [ 79.712260866582895, 12.8422693712839 ], [ 79.712231861046504, 12.8425172513054 ], [ 79.712104236766606, 12.8433391451129 ], [ 79.712035889227593, 12.843874997077499 ], [ 79.711943104286803, 12.844259152789199 ], [ 79.711811863278299, 12.8446118903358 ], [ 79.711679408771204, 12.8448629314636 ], [ 79.711534096976607, 12.8451074832488 ], [ 79.711278272964194, 12.845417999976201 ], [ 79.710995420275395, 12.8456888123655 ], [ 79.710634035097996, 12.845932314551201 ], [ 79.709624082544906, 12.8463888419531 ], [ 79.707810171035803, 12.847241945268999 ], [ 79.707406458061996, 12.8474374891639 ], [ 79.706858884554705, 12.847701365253901 ], [ 79.706102532837207, 12.8480561808344 ], [ 79.704163989974404, 12.848976064513201 ], [ 79.703787526235402, 12.849157469644499 ], [ 79.703450571379904, 12.8493329161953 ], [ 79.703154101232599, 12.8495063590386 ], [ 79.702872939040205, 12.8496939182853 ], [ 79.702621030231498, 12.8498996878299 ], [ 79.702519920360501, 12.8499896007164 ], [ 79.702314921133905, 12.8501851063912 ], [ 79.702149467943599, 12.8503717956086 ], [ 79.701956011387495, 12.8506058633207 ], [ 79.701854867971804, 12.8507384397699 ], [ 79.7017491954294, 12.850897631329699 ], [ 79.701597163402795, 12.851160700958401 ], [ 79.701488659458306, 12.8513529872715 ], [ 79.7013231114056, 12.8516695596559 ], [ 79.701112298594296, 12.852109750276 ], [ 79.700897872737798, 12.852563093269801 ], [ 79.700650493473603, 12.8530729626309 ], [ 79.700417207164307, 12.8535535887469 ], [ 79.700160447140703, 12.8540886454012 ], [ 79.700043535779898, 12.854345364826299 ], [ 79.699848802486102, 12.8547400331781 ], [ 79.699479412757697, 12.8555121205447 ], [ 79.699213764661806, 12.856061752408101 ], [ 79.698928220176498, 12.856657525694001 ], [ 79.6987412372536, 12.8570444146794 ], [ 79.6985757288992, 12.8573913054438 ], [ 79.698361645884901, 12.857835224855201 ], [ 79.698176195098696, 12.858215885478799 ], [ 79.697935529435995, 12.8587234184327 ], [ 79.6976228326442, 12.859365585519001 ], [ 79.6973550119354, 12.8599238584808 ], [ 79.697109294530406, 12.8604261505573 ], [ 79.696958327499999, 12.8607429540958 ], [ 79.696821370719903, 12.861032382284099 ], [ 79.696591368934406, 12.8615007325063 ], [ 79.696516656380595, 12.861664774321101 ], [ 79.696177583677198, 12.8623603467616 ], [ 79.695904950708993, 12.862923805574599 ], [ 79.695767807167599, 12.8632119627083 ], [ 79.695568643666903, 12.86361734199 ], [ 79.695408589132597, 12.8639521116731 ], [ 79.6950699618709, 12.864652210894601 ], [ 79.694718081016006, 12.865366078455001 ], [ 79.694551070000799, 12.865731651407099 ], [ 79.6944510679144, 12.865941547342899 ], [ 79.694301870503807, 12.866251177324401 ], [ 79.694183557507898, 12.8664990739272 ], [ 79.694072850450894, 12.866704659985899 ], [ 79.693852821020897, 12.8671780892944 ], [ 79.693639124620603, 12.867622886416299 ], [ 79.693276953052703, 12.8683706141492 ], [ 79.6931962325406, 12.8685375257612 ], [ 79.692947134188003, 12.869062691662799 ], [ 79.692807705705604, 12.8693447661117 ], [ 79.6925593204584, 12.8698541445861 ], [ 79.6922509260678, 12.870498563983899 ], [ 79.691864512379993, 12.87129205834 ], [ 79.691758154420796, 12.871524227982601 ], [ 79.691637350500699, 12.871772190012701 ], [ 79.691519944481399, 12.872015575361599 ], [ 79.691414048939706, 12.872236453503399 ], [ 79.691303474257595, 12.8724638482353 ], [ 79.691201381859997, 12.8726762551511 ], [ 79.691045817633395, 12.8729940595295 ], [ 79.6908605236694, 12.873383915815401 ], [ 79.690648252765101, 12.873873210986201 ], [ 79.690451541571207, 12.874416182118299 ], [ 79.690310265210499, 12.874926938842799 ], [ 79.690201622637701, 12.875385844913501 ], [ 79.690072891292402, 12.8759357622296 ], [ 79.689926857800501, 12.876567215583499 ], [ 79.689749337472307, 12.8772972108716 ], [ 79.689601176976694, 12.877927091876799 ], [ 79.689473701254599, 12.8784419027395 ], [ 79.689310472595594, 12.8791193115919 ], [ 79.689202070615494, 12.879577364544 ], [ 79.689108353593696, 12.879975959088201 ], [ 79.688989940085506, 12.880464391688101 ], [ 79.688924298802206, 12.880733583088499 ], [ 79.688827281768496, 12.8811405036151 ], [ 79.688739827316894, 12.881522875942199 ], [ 79.688543269055401, 12.882348093397701 ], [ 79.688359521327499, 12.8830666371757 ], [ 79.688197702948301, 12.8837004567131 ], [ 79.688120842890299, 12.8840015384342 ], [ 79.687985873997604, 12.884480144044201 ], [ 79.687846953413001, 12.885052841946299 ], [ 79.6877432930563, 12.885496343862201 ], [ 79.687654331240296, 12.8858563539637 ], [ 79.687480478091004, 12.8866283690481 ], [ 79.687378411726698, 12.8870694955282 ], [ 79.687254486159006, 12.8876160835198 ], [ 79.687124652841902, 12.888178786533601 ], [ 79.6870134115795, 12.888603384700399 ], [ 79.686885183054699, 12.8891417219414 ], [ 79.686748223097695, 12.8897394927093 ], [ 79.686635093692303, 12.890215035020301 ], [ 79.686484589472002, 12.8908477880882 ], [ 79.686361876652995, 12.891353560056199 ], [ 79.686251884207806, 12.8918066743769 ], [ 79.686132971118894, 12.892286221128 ], [ 79.686005987404499, 12.892787873185901 ], [ 79.685853335007295, 12.893370115524901 ], [ 79.685738777846396, 12.8938530731144 ], [ 79.685606721350595, 12.8943788432143 ], [ 79.685489357832097, 12.894887407629501 ], [ 79.685284810015901, 12.8956914897906 ], [ 79.685101297840504, 12.8964800632736 ], [ 79.684863065128695, 12.8974428916496 ], [ 79.684746607363394, 12.897943400184401 ], [ 79.684607194929498, 12.898522711530999 ], [ 79.684477775545403, 12.899038467649399 ], [ 79.684356784004095, 12.899551966994499 ], [ 79.684271019910895, 12.899876787476799 ], [ 79.684130754225095, 12.9004312521707 ], [ 79.684003967373201, 12.9009351823522 ], [ 79.683844309129896, 12.9015898069563 ], [ 79.683789307217296, 12.901809650329399 ], [ 79.683701901310499, 12.9021592452282 ], [ 79.683580975868296, 12.902658521444 ], [ 79.683465722232896, 12.903159725530401 ], [ 79.683390896416796, 12.9035158855555 ], [ 79.683297795202805, 12.903941644027199 ], [ 79.683170748894696, 12.9045584712999 ], [ 79.683068062027203, 12.905137112404001 ], [ 79.682995489904599, 12.9055689842157 ], [ 79.682883870850702, 12.9062293100215 ], [ 79.682808430407604, 12.9066869637326 ], [ 79.682721480661698, 12.9071826484062 ], [ 79.682607193299205, 12.9079127169171 ], [ 79.682537899231093, 12.9083062003614 ], [ 79.682466120167803, 12.908713072132601 ], [ 79.682364613152998, 12.909298780052501 ], [ 79.682273881019299, 12.909916664384401 ], [ 79.682207711018506, 12.9102386792201 ], [ 79.682147947670003, 12.910609268073101 ], [ 79.682037632139895, 12.9113331422752 ], [ 79.681988107135197, 12.911650817329599 ], [ 79.681898591868702, 12.912240584777599 ], [ 79.6818095340833, 12.9127918504868 ], [ 79.681718909497604, 12.9133057605482 ], [ 79.681602469957298, 12.913968534006701 ], [ 79.681419375239102, 12.9149859214304 ], [ 79.681282198266999, 12.9157867538137 ], [ 79.681123952250303, 12.9166925368788 ], [ 79.681031137363803, 12.917202873244101 ], [ 79.680902294650394, 12.917928307850399 ], [ 79.680824848854499, 12.918390680770299 ], [ 79.680708077724603, 12.919007143714101 ], [ 79.680613996575204, 12.919577975703501 ], [ 79.680534667951804, 12.9200541212702 ], [ 79.680442532950806, 12.9205844574147 ], [ 79.680350877084095, 12.9211054198871 ], [ 79.680250689133402, 12.921675501023101 ], [ 79.680170740610805, 12.9221215903976 ], [ 79.680104323332401, 12.9225454105928 ], [ 79.679952180561102, 12.9234050802803 ], [ 79.679866150992595, 12.9239533362624 ], [ 79.679779456663198, 12.9244759388246 ], [ 79.679671327744501, 12.9250620244492 ], [ 79.679581839978397, 12.9255998415838 ], [ 79.679434194251698, 12.9264091400279 ], [ 79.679362770950704, 12.926811949341699 ], [ 79.679258694846396, 12.9274138127677 ], [ 79.679182599505396, 12.9279055351182 ], [ 79.679084993756206, 12.928469989485199 ], [ 79.679004774007197, 12.9289589036004 ], [ 79.678905981678696, 12.9294797824715 ], [ 79.678684714066705, 12.9307327383213 ], [ 79.678454006113597, 12.9318367492329 ], [ 79.678239397331296, 12.9332450676999 ], [ 79.677863460552501, 12.935207880447701 ], [ 79.677544043434096, 12.937204475518399 ], [ 79.677091563361799, 12.9392736196376 ], [ 79.676848457079203, 12.940055721557 ], [ 79.676503422579103, 12.94093782343 ], [ 79.676289852566597, 12.941877849465699 ], [ 79.675999317298903, 12.943319141030299 ], [ 79.675782018611997, 12.944688330080499 ], [ 79.675698348275404, 12.945283666748301 ], [ 79.675577045761401, 12.9459727273632 ], [ 79.675462927046695, 12.946560796910299 ], [ 79.675401357398897, 12.9468910369764 ], [ 79.675269592931201, 12.947666118367801 ], [ 79.675212299661794, 12.947978008718 ], [ 79.675088328723305, 12.9486608452036 ], [ 79.674950829975799, 12.9493897856242 ], [ 79.674849960536903, 12.949954280772101 ], [ 79.674776306558101, 12.9503844295369 ], [ 79.674686629074401, 12.950880204454499 ], [ 79.674600543529095, 12.9513600554366 ], [ 79.674436558608804, 12.9522963295273 ], [ 79.674350470239503, 12.952700141950301 ], [ 79.674277866567294, 12.953062189544299 ], [ 79.674191360446002, 12.953585286250499 ], [ 79.674032506271303, 12.954491186902301 ], [ 79.673960041980607, 12.955017420502401 ], [ 79.673895144801193, 12.955557628567201 ], [ 79.673860616159899, 12.9561773934442 ], [ 79.673840487451301, 12.9566710019478 ] ] ] } },
{ "type": "Feature", "properties": { "line_name": null }, "geometry": { "type": "MultiLineString", "coordinates": [ [ [ 80.117760300548994, 12.9251364102061 ], [ 80.117745433486604, 12.9251252792517 ], [ 80.116730232909305, 12.9243297144628 ], [ 80.116049684432994, 12.923823639950101 ], [ 80.115605553290393, 12.923405215497199 ], [ 80.114658455947904, 12.922573594713301 ], [ 80.112634508012704, 12.9209441425087 ], [ 80.110924107090199, 12.9195553561206 ], [ 80.108660016771495, 12.917719169776399 ], [ 80.107185624669498, 12.916523065409301 ], [ 80.105272623732304, 12.914993599823999 ], [ 80.103609637793994, 12.9136573392942 ], [ 80.100883619012706, 12.911447940635099 ], [ 80.099331584574699, 12.9101928632009 ], [ 80.098764446122601, 12.909704828589 ], [ 80.098511916329102, 12.909458980258099 ], [ 80.098167033691794, 12.9091338758116 ], [ 80.097844189287699, 12.9087982401171 ], [ 80.097433433097606, 12.908339595709799 ], [ 80.096804751668401, 12.9075682761497 ], [ 80.095801954031003, 12.906304364116099 ], [ 80.094502738923197, 12.9046395805304 ], [ 80.093662394839896, 12.9034573149012 ], [ 80.092630664248006, 12.9021068094803 ], [ 80.091666642759193, 12.90082364992 ], [ 80.091184601758002, 12.900192088057199 ], [ 80.090294158347007, 12.899049285365599 ], [ 80.089434435125, 12.897916888243399 ], [ 80.088676987197204, 12.8969087983003 ], [ 80.087685595474099, 12.895623333633701 ], [ 80.086603225725, 12.8942055902173 ], [ 80.085477826319305, 12.8925528305077 ], [ 80.084966226869895, 12.8917640515467 ], [ 80.084644871870907, 12.891280454949699 ], [ 80.084361651604993, 12.8908604264942 ], [ 80.083984110127304, 12.890251987686099 ], [ 80.083547701089003, 12.889404399777799 ], [ 80.083067907248704, 12.888432065000099 ], [ 80.082662447471606, 12.887622369731201 ], [ 80.082086121020197, 12.8865019441238 ], [ 80.081756155216596, 12.885871320962799 ], [ 80.0814863939313, 12.885326082758599 ], [ 80.081125607309602, 12.8845847043258 ], [ 80.0806193470995, 12.883484296221001 ], [ 80.080276026436096, 12.882757800283301 ], [ 80.0800169121175, 12.8821790235435 ], [ 80.080010127725302, 12.8821586684543 ], [ 80.079512206277499, 12.8811147834313 ], [ 80.078980184193995, 12.879997833515 ], [ 80.078621509029801, 12.879229029794301 ], [ 80.078082719937001, 12.8780005889452 ], [ 80.077836550935103, 12.877477391297299 ], [ 80.077679860301004, 12.8771408080567 ], [ 80.077469944527394, 12.876673612074899 ], [ 80.077219355927696, 12.8761305689628 ], [ 80.076872354966795, 12.875413798951399 ], [ 80.076642853327897, 12.874921237371 ], [ 80.0765248753126, 12.8746533362976 ], [ 80.076372111521195, 12.874320180426899 ], [ 80.076192218539106, 12.8739598235365 ], [ 80.076069667007999, 12.873717239319699 ], [ 80.075819860187096, 12.873290367944699 ], [ 80.075640422848593, 12.872990669753399 ], [ 80.075336570343893, 12.8725250895834 ], [ 80.074896203775097, 12.8718541189956 ], [ 80.074404382977704, 12.871106112254999 ], [ 80.073916863841802, 12.8703692349393 ], [ 80.073521188975505, 12.8696663130868 ], [ 80.0732315311121, 12.869145419396199 ], [ 80.072947753555198, 12.868621630275401 ], [ 80.072523530884297, 12.867938579428801 ], [ 80.072108210850502, 12.867305416534901 ], [ 80.071816104902794, 12.866870811708999 ], [ 80.0714527148955, 12.8663717723673 ], [ 80.071214430614503, 12.866047687481901 ], [ 80.070936518440007, 12.8656732189267 ], [ 80.070663911978798, 12.8653011315263 ], [ 80.070389099649901, 12.864933172657 ], [ 80.070232207725795, 12.864709869827699 ], [ 80.069995740241197, 12.8643399687579 ], [ 80.069671125970302, 12.8638221440908 ], [ 80.069386934027406, 12.863390518078999 ], [ 80.069118106967096, 12.863003645935899 ], [ 80.068645662881906, 12.862278040999101 ], [ 80.068467016015504, 12.8620021556205 ], [ 80.068211584511005, 12.8616060344649 ], [ 80.067988938727296, 12.861241783230501 ], [ 80.067496843625804, 12.8604490641412 ], [ 80.067302682700202, 12.8601207071579 ], [ 80.066827306706699, 12.859387540119601 ], [ 80.066512142164001, 12.858895162993299 ], [ 80.066186421885007, 12.858392542586801 ], [ 80.065922753988005, 12.8579935195056 ], [ 80.065723158494805, 12.857695180621301 ], [ 80.065318416659196, 12.857091543173899 ], [ 80.064856323650105, 12.856384962436801 ], [ 80.064564407523704, 12.8559375185718 ], [ 80.064297076497496, 12.8555304077067 ], [ 80.063920025487803, 12.8549630675237 ], [ 80.063687588484399, 12.8545940332257 ], [ 80.063281698309694, 12.8539872832112 ], [ 80.062990161874296, 12.853542275073099 ], [ 80.062664177759501, 12.853049319276399 ], [ 80.0623198586119, 12.8525251172704 ], [ 80.061609069880106, 12.851464021552401 ], [ 80.061245308547399, 12.8509040982686 ], [ 80.060572407453293, 12.8498722807541 ], [ 80.060197916603002, 12.849294870963901 ], [ 80.059884741285501, 12.8488215831697 ], [ 80.059655467998297, 12.848490159907699 ], [ 80.059445103289406, 12.8481602255673 ], [ 80.059202938853005, 12.8477465331405 ], [ 80.0588239223801, 12.8470990267754 ], [ 80.058595681210704, 12.8466943595019 ], [ 80.0584678462574, 12.8464915910044 ], [ 80.058312990387506, 12.8462684323367 ], [ 80.058169939218502, 12.8460810677733 ], [ 80.057848479533604, 12.8456538908193 ], [ 80.057562993581101, 12.8452991338392 ], [ 80.057184401353197, 12.844845839417999 ], [ 80.056994131637296, 12.8446286099998 ], [ 80.056875079903804, 12.8444994041147 ], [ 80.0565633527535, 12.8441701653271 ], [ 80.056116295549202, 12.8437253660602 ], [ 80.0555528121713, 12.843177959011999 ], [ 80.0551066287629, 12.842750562138599 ], [ 80.054620672502494, 12.8422763897462 ], [ 80.054254107838503, 12.841923355938301 ], [ 80.053978978429299, 12.8416515444165 ], [ 80.053661417392505, 12.8413464401245 ], [ 80.053228387952402, 12.840930572585499 ], [ 80.052870622543097, 12.840575312873501 ], [ 80.052517518592694, 12.8402388229437 ], [ 80.051927438234003, 12.8396796104086 ], [ 80.051735550309004, 12.839487013169199 ], [ 80.051494110098105, 12.8392333537093 ], [ 80.051151481424498, 12.838888704570101 ], [ 80.050868179731197, 12.838626255889301 ], [ 80.050580149249498, 12.838339385392301 ], [ 80.049871555375503, 12.837644267798799 ], [ 80.049397670242996, 12.8371696196517 ], [ 80.048912964716806, 12.836666485500199 ], [ 80.048485213126696, 12.8362428579032 ], [ 80.047943368224793, 12.835693645848099 ], [ 80.047394222811207, 12.835152390166799 ], [ 80.046942250872704, 12.8347079580379 ], [ 80.046644102615403, 12.834409617439601 ], [ 80.046256503204106, 12.834023751158499 ], [ 80.045883396073606, 12.8336484615114 ], [ 80.045579818052502, 12.833327996815299 ], [ 80.045306365533193, 12.833023044656301 ], [ 80.045069898936305, 12.8327359013145 ], [ 80.044908879365195, 12.8325393367309 ], [ 80.044703610707103, 12.8322718826255 ], [ 80.044519945567799, 12.832023882347601 ], [ 80.044298741726195, 12.8317181019972 ], [ 80.044152810647603, 12.831507902750101 ], [ 80.0437882309879, 12.8309781181189 ], [ 80.043498671203807, 12.830556579162099 ], [ 80.043269634159302, 12.8302178587348 ], [ 80.043046703488699, 12.829896808840401 ], [ 80.042876619554093, 12.8296580813565 ], [ 80.042503448218895, 12.829112718576599 ], [ 80.042180666668003, 12.828646546993401 ], [ 80.041663140642001, 12.827906000636 ], [ 80.041333699416796, 12.827431302913601 ], [ 80.040976264301094, 12.826915248253099 ], [ 80.040526168112393, 12.8262680255565 ], [ 80.040215129360604, 12.825820856108701 ], [ 80.039949669230793, 12.8254391798125 ], [ 80.039639240269807, 12.824987474901199 ], [ 80.039294223482898, 12.824493415067799 ], [ 80.038959582641894, 12.8239906829108 ], [ 80.038633598716501, 12.823472395984099 ], [ 80.038170672518305, 12.822760956000501 ], [ 80.037961887536895, 12.8224571668637 ], [ 80.036648401633897, 12.820548136127201 ], [ 80.035793733153497, 12.819380798721699 ], [ 80.035188500747097, 12.8185433216672 ], [ 80.034535475917195, 12.817601423887499 ], [ 80.033770425080903, 12.8165014447204 ], [ 80.032925628837503, 12.8152762943045 ], [ 80.032534519602606, 12.8147127794553 ], [ 80.031924476477698, 12.813831989583999 ], [ 80.031441018697706, 12.813134405564 ], [ 80.030934445588898, 12.812405805958701 ], [ 80.0303125558017, 12.8115126527839 ], [ 80.0299284525411, 12.810951344060401 ], [ 80.029433449675196, 12.8102374620121 ], [ 80.029099788080302, 12.8097391841508 ], [ 80.028764893716101, 12.809188559167699 ], [ 80.028369667428393, 12.8085089388779 ], [ 80.028135044245104, 12.808110912356 ], [ 80.027949924503204, 12.8077365667863 ], [ 80.027722136364403, 12.8073370407709 ], [ 80.027511063329897, 12.8069707655684 ], [ 80.026859478335595, 12.806008103878099 ], [ 80.026293429170394, 12.805227608473199 ], [ 80.026162978915806, 12.805073795818 ], [ 80.026050258027198, 12.8049528048103 ], [ 80.025668904391694, 12.804523407222399 ], [ 80.025493485278901, 12.804294752829801 ], [ 80.025210748949306, 12.803903887985101 ], [ 80.024704442465605, 12.8032255790352 ], [ 80.023992243637593, 12.8022083492896 ], [ 80.023340029575095, 12.801270769485299 ], [ 80.022684096659901, 12.800321846241401 ], [ 80.021980089281499, 12.7993038846408 ], [ 80.021614586962002, 12.7987721920246 ], [ 80.021023616057306, 12.7979350507457 ], [ 80.020568622943699, 12.7972766257011 ], [ 80.019939573157501, 12.7963622752121 ], [ 80.019713874432597, 12.7960312065488 ], [ 80.019423231589101, 12.795656832523401 ], [ 80.019066098525897, 12.795206647869501 ], [ 80.018747190138498, 12.794762819432099 ], [ 80.018391474946498, 12.7942503422871 ], [ 80.017603485737595, 12.7931328187831 ], [ 80.017048833168104, 12.792326364361299 ], [ 80.016499290222797, 12.7915126377448 ], [ 80.016131370749093, 12.7908567200913 ], [ 80.015442964185894, 12.789536726055101 ], [ 80.0149856354777, 12.7885291283415 ], [ 80.014456179247105, 12.7873565541964 ], [ 80.013970952465399, 12.786269372962 ], [ 80.013615066992699, 12.7854795708114 ], [ 80.013168651140802, 12.784507543325899 ], [ 80.012733576900999, 12.7835130439962 ], [ 80.012174613009407, 12.782270687263599 ], [ 80.011788631054401, 12.781407690502601 ], [ 80.011308807778704, 12.7803585159935 ], [ 80.011005665172704, 12.779666232100301 ], [ 80.010552033684306, 12.7786710347543 ], [ 80.010308268045407, 12.778134562387701 ], [ 80.010092126793495, 12.777659904491699 ], [ 80.009798044811603, 12.777007618481701 ], [ 80.009307144826906, 12.7759259979549 ], [ 80.0089782465338, 12.7751943287453 ], [ 80.008358374407607, 12.7738184985124 ], [ 80.007896448185093, 12.7727952699263 ], [ 80.007539278547, 12.771990872429299 ], [ 80.007261155860604, 12.771388791877101 ], [ 80.007008365711201, 12.770894708405899 ], [ 80.006649674756801, 12.7702653603657 ], [ 80.006482775117306, 12.7699931640869 ], [ 80.006229240834003, 12.769612931362699 ], [ 80.005965366189997, 12.7692154469458 ], [ 80.005329346034401, 12.7683549708059 ], [ 80.004792887647596, 12.7676402761765 ], [ 80.004322370517301, 12.766998240072899 ], [ 80.004004078435898, 12.766544451853701 ], [ 80.003305716506503, 12.7655359166416 ], [ 80.002637690390102, 12.7645772116642 ], [ 80.001988676682899, 12.7636614516273 ], [ 80.001462864829804, 12.7628396030003 ], [ 80.000805447792899, 12.7618385742322 ], [ 80.000420258562201, 12.761326202777999 ], [ 79.999855272374802, 12.760652731984701 ], [ 79.999382774122296, 12.7601301083014 ], [ 79.999037087873603, 12.759731240523999 ], [ 79.998626604580295, 12.759223884990501 ], [ 79.998125989107393, 12.7586250982812 ], [ 79.997400589910001, 12.757736667720099 ], [ 79.996862190956406, 12.7570259404655 ], [ 79.996212072205296, 12.7561634602087 ], [ 79.995797065587297, 12.755620759055899 ], [ 79.995182866085301, 12.7547981971701 ], [ 79.9947407414476, 12.7542000893714 ], [ 79.994200128561403, 12.7534742650093 ], [ 79.993699242788793, 12.752801454564 ], [ 79.993207125984696, 12.752152168648299 ], [ 79.992656488133903, 12.751410660564501 ], [ 79.991946181038998, 12.7504629853591 ], [ 79.991207886218007, 12.7494625624139 ], [ 79.990579165029899, 12.7486260084712 ], [ 79.990034981784305, 12.7478876859234 ], [ 79.989824261630403, 12.7476066336851 ], [ 79.989147089235402, 12.7467150381802 ], [ 79.988481995891206, 12.745830005506299 ], [ 79.987826368731405, 12.744947708378801 ], [ 79.987365654439202, 12.744346475730501 ], [ 79.987065739321196, 12.743942179447901 ], [ 79.986805987539, 12.7435645023816 ], [ 79.986545399885202, 12.7431746121154 ], [ 79.9864181851176, 12.7429662202651 ], [ 79.986222242066106, 12.742598624431 ], [ 79.986112980407995, 12.742387294914399 ], [ 79.985930486311602, 12.742006424922799 ], [ 79.9856216770863, 12.7412544651211 ], [ 79.985365381844204, 12.740608812365201 ], [ 79.985194891148097, 12.7398734611818 ], [ 79.985109281960803, 12.7393665334722 ], [ 79.9850469252588, 12.739010339839799 ], [ 79.984945669189003, 12.7382060658468 ], [ 79.984829149877498, 12.7373943263909 ], [ 79.984756160757797, 12.736770227965801 ], [ 79.984696936639693, 12.7363866981269 ], [ 79.984643100267306, 12.735913301795099 ], [ 79.984524863531206, 12.734941711744201 ], [ 79.984383446062594, 12.733554612381001 ], [ 79.984219791471503, 12.732339499383301 ], [ 79.984066933071304, 12.731268413533799 ], [ 79.983920230969204, 12.7301417932427 ], [ 79.983474909392896, 12.727260242070001 ], [ 79.983350517146803, 12.726347105392099 ], [ 79.983305225329303, 12.7259653484561 ], [ 79.983021267153205, 12.7239072648568 ], [ 79.982863943951102, 12.7227429178074 ], [ 79.982632389649496, 12.721009712930901 ], [ 79.982452327687994, 12.7197329761005 ], [ 79.982245020837894, 12.7181178742201 ], [ 79.982098578505997, 12.7171285689505 ], [ 79.981965264498001, 12.7165493964362 ], [ 79.981857772883501, 12.7162015532832 ], [ 79.9816928038545, 12.715729768409901 ], [ 79.981472227253605, 12.715253566394599 ], [ 79.9811643092537, 12.714659015681001 ], [ 79.980686815062796, 12.713852943447099 ], [ 79.980142055692596, 12.712947355722999 ], [ 79.979493431548704, 12.7118547178338 ], [ 79.9791199560552, 12.711196974301799 ], [ 79.978935328196698, 12.7108312826677 ], [ 79.978758192592693, 12.7102745624275 ], [ 79.978643029144393, 12.7098055122161 ], [ 79.978567902165395, 12.709409311600799 ], [ 79.978533176008398, 12.7091217188629 ], [ 79.978465571881799, 12.70835576703 ], [ 79.978423387769993, 12.7073889370357 ], [ 79.978387224524496, 12.706875382540201 ], [ 79.978339093278706, 12.706362819015601 ], [ 79.978272922040702, 12.705898326257101 ], [ 79.978218771070502, 12.7055161566352 ], [ 79.978146373313805, 12.705162603050599 ], [ 79.9779976029442, 12.7044314325532 ], [ 79.9779015985916, 12.703923605905601 ], [ 79.977789662705902, 12.703346070322899 ], [ 79.977669448869506, 12.7027277567894 ], [ 79.977557398186605, 12.702156802985799 ], [ 79.977406233497604, 12.7013945063119 ], [ 79.977309722938301, 12.7008928258516 ], [ 79.9772113440347, 12.700423414913899 ], [ 79.977139410585394, 12.6999390976911 ], [ 79.977126214713294, 12.6995541489992 ], [ 79.977148975402997, 12.6992514683509 ], [ 79.977226176764802, 12.698842300090799 ], [ 79.977324684671302, 12.6985482575534 ], [ 79.977409705224403, 12.6983286903166 ], [ 79.977523151734999, 12.6980893093306 ], [ 79.977686743130107, 12.6978285010803 ], [ 79.977841170773303, 12.697611786831599 ], [ 79.978220774694293, 12.697187186389201 ], [ 79.978649633733895, 12.6967417864841 ], [ 79.979070686925397, 12.6962565726188 ], [ 79.979556441988706, 12.695716395782201 ], [ 79.980015919978001, 12.6952049778056 ], [ 79.980344501214404, 12.6948126525298 ], [ 79.980792051311596, 12.694141366459499 ], [ 79.981302921314693, 12.693325267514201 ] ] ] } },
{ "type": "Feature", "properties": { "line_name": null }, "geometry": { "type": "MultiLineString", "coordinates": [ [ [ 80.218201350958694, 12.967731608916599 ], [ 80.216323204011701, 12.968461849995 ], [ 80.212884654563595, 12.9711322065627 ], [ 80.209068862020999, 12.974432126320201 ], [ 80.206328922045898, 12.976473751261899 ], [ 80.204286877240406, 12.9781495365912 ], [ 80.201227284977705, 12.979559365634501 ], [ 80.198866118226604, 12.9804456780608 ], [ 80.197414924628802, 12.981702719164501 ], [ 80.196446103094303, 12.9829612422708 ], [ 80.196067026783098, 12.984169021770599 ], [ 80.196115218301102, 12.985851190632699 ], [ 80.195465601281896, 12.9878465791063 ], [ 80.195457819075102, 12.990264456924701 ] ] ] } }
]
}
