{
"type": "FeatureCollection",
"name": "omr_south_rail_stations",
"crs": { "type": "name", "properties": { "name": "urn:ogc:def:crs:OGC:1.3:CRS84" } },
"features": [
{ "type": "Feature", "properties": { "label": "Palavanthangal", "hub_type": "construction", "railway": "station", "network": "IR", "operator": "SR", "outside_gcc": false, "aoi_hints": "Toward Tambaram", "note": "OSM railway station — GTFS unified feed has no suburban rail shapes." }, "geometry": { "type": "Point", "coordinates": [ 80.1879401, 12.9906385 ] } },
{ "type": "Feature", "properties": { "label": "Palur", "hub_type": "construction", "railway": "station", "network": "IR", "operator": "SR", "outside_gcc": true, "aoi_hints": "Toward Chengalpattu", "note": "OSM railway station — GTFS unified feed has no suburban rail shapes." }, "geometry": { "type": "Point", "coordinates": [ 79.9069065, 12.766346 ] } },
{ "type": "Feature", "properties": { "label": "St. Thomas Mount", "hub_type": "construction", "railway": "station", "network": "IR", "operator": "SR", "outside_gcc": false, "aoi_hints": "Toward Tambaram", "note": "OSM railway station — GTFS unified feed has no suburban rail shapes." }, "geometry": { "type": "Point", "coordinates": [ 80.1993715, 12.9947654 ] } },
{ "type": "Feature", "properties": { "label": "Pallavaram", "hub_type": "construction", "railway": "station", "network": null, "operator": "SR", "outside_gcc": true, "aoi_hints": "Toward Tambaram", "note": "OSM railway station — GTFS unified feed has no suburban rail shapes." }, "geometry": { "type": "Point", "coordinates": [ 80.1520504, 12.9675742 ] } },
{ "type": "Feature", "properties": { "label": "Perungalattur", "hub_type": "construction", "railway": "station", "network": "IR", "operator": "SR", "outside_gcc": true, "aoi_hints": "Toward Tambaram", "note": "OSM railway station — GTFS unified feed has no suburban rail shapes." }, "geometry": { "type": "Point", "coordinates": [ 80.095046, 12.9052432 ] } },
{ "type": "Feature", "properties": { "label": "Tirusulam", "hub_type": "construction", "railway": "station", "network": "IR", "operator": "SR", "outside_gcc": true, "aoi_hints": "Toward Tambaram", "note": "OSM railway station — GTFS unified feed has no suburban rail shapes." }, "geometry": { "type": "Point", "coordinates": [ 80.1657933, 12.9804609 ] } },
{ "type": "Feature", "properties": { "label": "Meenambakkam", "hub_type": "construction", "railway": "station", "network": "IR", "operator": "SR", "outside_gcc": false, "aoi_hints": "Toward Tambaram", "note": "OSM railway station — GTFS unified feed has no suburban rail shapes." }, "geometry": { "type": "Point", "coordinates": [ 80.1750925, 12.9846976 ] } },
{ "type": "Feature", "properties": { "label": "Chromepet", "hub_type": "construction", "railway": "station", "network": "IR", "operator": "SR", "outside_gcc": true, "aoi_hints": "Toward Tambaram", "note": "OSM railway station — GTFS unified feed has no suburban rail shapes." }, "geometry": { "type": "Point", "coordinates": [ 80.141167699999983, 12.9521897 ] } },
{ "type": "Feature", "properties": { "label": "Kattangulathur", "hub_type": "construction", "railway": "station", "network": "IR", "operator": "SR", "outside_gcc": true, "aoi_hints": "Toward Chengalpattu", "note": "OSM railway station — GTFS unified feed has no suburban rail shapes." }, "geometry": { "type": "Point", "coordinates": [ 80.026633899999979, 12.8055581 ] } },
{ "type": "Feature", "properties": { "label": "Guduvancheri", "hub_type": "construction", "railway": "station", "network": "IR", "operator": "SR", "outside_gcc": true, "aoi_hints": "Toward Chengalpattu", "note": "OSM railway station — GTFS unified feed has no suburban rail shapes." }, "geometry": { "type": "Point", "coordinates": [ 80.0576503, 12.8452303 ] } },
{ "type": "Feature", "properties": { "label": "Tambaram", "hub_type": "construction", "railway": "station", "network": "IR", "operator": "SR", "outside_gcc": true, "aoi_hints": "Toward Tambaram", "note": "OSM railway station — GTFS unified feed has no suburban rail shapes." }, "geometry": { "type": "Point", "coordinates": [ 80.1179194, 12.9257923 ] } },
{ "type": "Feature", "properties": { "label": "Kasturiba Nagar", "hub_type": "construction", "railway": "station", "network": "IR", "operator": "SR", "outside_gcc": false, "aoi_hints": "OMR → Mahabalipuram", "note": "OSM railway station — GTFS unified feed has no suburban rail shapes." }, "geometry": { "type": "Point", "coordinates": [ 80.2478604, 13.0053823 ] } },
{ "type": "Feature", "properties": { "label": "Indira Nagar", "hub_type": "construction", "railway": "station", "network": "IR", "operator": "SR", "outside_gcc": false, "aoi_hints": "OMR → Mahabalipuram", "note": "OSM railway station — GTFS unified feed has no suburban rail shapes." }, "geometry": { "type": "Point", "coordinates": [ 80.249716, 12.9960623 ] } },
{ "type": "Feature", "properties": { "label": "Tiruvanmiyur", "hub_type": "construction", "railway": "station", "network": "IR", "operator": "SR", "outside_gcc": false, "aoi_hints": "OMR → Mahabalipuram", "note": "OSM railway station — GTFS unified feed has no suburban rail shapes." }, "geometry": { "type": "Point", "coordinates": [ 80.251586500000016, 12.9889822 ] } },
{ "type": "Feature", "properties": { "label": "Taramani", "hub_type": "construction", "railway": "station", "network": "IR", "operator": "SR", "outside_gcc": false, "aoi_hints": "OMR → Mahabalipuram", "note": "OSM railway station — GTFS unified feed has no suburban rail shapes." }, "geometry": { "type": "Point", "coordinates": [ 80.241644099999988, 12.9786584 ] } },
{ "type": "Feature", "properties": { "label": "Perungudi", "hub_type": "construction", "railway": "station", "network": "IR", "operator": "SR", "outside_gcc": false, "aoi_hints": "OMR → Mahabalipuram", "note": "OSM railway station — GTFS unified feed has no suburban rail shapes." }, "geometry": { "type": "Point", "coordinates": [ 80.2321916, 12.9760584 ] } },
{ "type": "Feature", "properties": { "label": "Adambakkam", "hub_type": "construction", "railway": "station", "network": "MRTS", "operator": "MRTS", "outside_gcc": false, "aoi_hints": "Toward Tambaram", "note": "OSM railway station — GTFS unified feed has no suburban rail shapes." }, "geometry": { "type": "Point", "coordinates": [ 80.1968882, 12.9823811 ] } },
{ "type": "Feature", "properties": { "label": "Vandalur", "hub_type": "construction", "railway": "station", "network": "IR", "operator": "SR", "outside_gcc": true, "aoi_hints": "Toward Chengalpattu, Toward Tambaram", "note": "OSM railway station — GTFS unified feed has no suburban rail shapes." }, "geometry": { "type": "Point", "coordinates": [ 80.084974, 12.8916061 ] } },
{ "type": "Feature", "properties": { "label": "Tambaram Sanatorium", "hub_type": "construction", "railway": "station", "network": "IR", "operator": "SR", "outside_gcc": true, "aoi_hints": "Toward Tambaram", "note": "OSM railway station — GTFS unified feed has no suburban rail shapes." }, "geometry": { "type": "Point", "coordinates": [ 80.1307034, 12.9369591 ] } }
]
}
