{
"type": "FeatureCollection",
"name": "omr_corridor",
"crs": { "type": "name", "properties": { "name": "urn:ogc:def:crs:OGC:1.3:CRS84" } },
"features": [
{ "type": "Feature", "properties": { "corridor": "OMR / Rajiv Gandhi Salai", "ref": "SH49A", "to": "Mahabalipuram", "note": "OSM ways for OMR / Rajiv Gandhi Salai (SH49A), filtered toward Mamallapuram." }, "geometry": { "type": "MultiLineString", "coordinates": [ [ [ 80.1696935, 12.6148321 ], [ 80.1698013, 12.6154129 ], [ 80.1699835, 12.6163261 ], [ 80.1699447, 12.6167104 ], [ 80.1699039, 12.616879 ], [ 80.1698721, 12.617025 ], [ 80.1694947, 12.6182351 ], [ 80.1694154, 12.6186245 ], [ 80.1693981, 12.6189462 ], [ 80.1694652, 12.6194496 ], [ 80.1696214, 12.6204843 ], [ 80.169755, 12.6210727 ], [ 80.1698782, 12.6214916 ], [ 80.1700216, 12.6218717 ], [ 80.1701864, 12.6222996 ], [ 80.1703091, 12.62276 ], [ 80.1706976, 12.6244609 ], [ 80.1708262, 12.6249909 ], [ 80.1710497, 12.6255274 ], [ 80.1712421, 12.6260207 ], [ 80.1715299, 12.6268074 ], [ 80.1716162, 12.6270509 ], [ 80.1717154, 12.6273789 ], [ 80.1718766, 12.6282769 ], [ 80.1719463, 12.6286287 ], [ 80.1720075, 12.6291264 ], [ 80.1720938, 12.6297083 ], [ 80.1720777, 12.6307055 ], [ 80.1720556, 12.631314 ], [ 80.1720469, 12.6315535 ], [ 80.1720241, 12.6324369 ], [ 80.1719865, 12.6333503 ], [ 80.1719087, 12.633968 ], [ 80.1718658, 12.6346668 ], [ 80.1717558, 12.6357739 ], [ 80.1717678, 12.6362446 ], [ 80.1717907, 12.6377617 ], [ 80.1718403, 12.6384644 ], [ 80.1719235, 12.6392954 ], [ 80.1719785, 12.6396866 ], [ 80.1720697, 12.6400033 ], [ 80.172311, 12.6404707 ], [ 80.1723745, 12.6405701 ], [ 80.1726329, 12.6408631 ], [ 80.1728649, 12.6411653 ], [ 80.1729789, 12.641378 ], [ 80.1731265, 12.6415946 ], [ 80.1732874, 12.641872 ], [ 80.1734887, 12.642248 ], [ 80.1735067, 12.6422816 ], [ 80.1735952, 12.6424203 ], [ 80.1736924, 12.6426087 ], [ 80.1739886, 12.6432189 ], [ 80.174017, 12.6432898 ], [ 80.1741187, 12.6435887 ], [ 80.1741895, 12.6439332 ], [ 80.1743442, 12.644743 ], [ 80.1743666, 12.6449564 ], [ 80.1743817, 12.6451003 ], [ 80.1744136, 12.6454688 ], [ 80.1743938, 12.6459194 ], [ 80.1743831, 12.6462623 ], [ 80.1743845, 12.646767 ], [ 80.174363, 12.6471442 ], [ 80.1743656, 12.6472653 ], [ 80.1743656, 12.647402 ], [ 80.1743887, 12.6474751 ] ], [ [ 80.1743887, 12.6474751 ], [ 80.1744153, 12.6474047 ], [ 80.1744518, 12.6469448 ], [ 80.1744984, 12.6461877 ], [ 80.1745009, 12.6459653 ], [ 80.1745015, 12.6459103 ], [ 80.1745039, 12.645885 ], [ 80.1745066, 12.6454438 ], [ 80.1744729, 12.6450715 ], [ 80.1744327, 12.6447011 ], [ 80.1743215, 12.6439286 ], [ 80.1742315, 12.6435391 ], [ 80.1741001, 12.6431858 ], [ 80.1737927, 12.6425602 ], [ 80.173593, 12.642243 ], [ 80.1735764, 12.6422086 ], [ 80.1733249, 12.6416862 ], [ 80.1731318, 12.6413983 ], [ 80.173087, 12.6413396 ], [ 80.1729132, 12.6411117 ], [ 80.1727067, 12.6408408 ], [ 80.1725638, 12.6406794 ], [ 80.1724583, 12.6405087 ], [ 80.1724083, 12.6404293 ], [ 80.1721988, 12.6400091 ], [ 80.1721358, 12.6397706 ], [ 80.1721019, 12.6396421 ], [ 80.1720275, 12.6392756 ], [ 80.171957, 12.6385455 ], [ 80.1719227, 12.6377682 ], [ 80.1718976, 12.6372005 ], [ 80.1718553, 12.636244 ], [ 80.1718685, 12.6358079 ], [ 80.1719849, 12.6346895 ], [ 80.1720268, 12.6342873 ], [ 80.1720582, 12.6339703 ], [ 80.1721153, 12.6333948 ], [ 80.172162, 12.6324961 ], [ 80.1721973, 12.631371 ], [ 80.1722069, 12.631066 ], [ 80.1722114, 12.6309238 ], [ 80.1722156, 12.6306908 ], [ 80.1722212, 12.6303767 ], [ 80.1722226, 12.6302959 ], [ 80.1722252, 12.6296678 ], [ 80.1721624, 12.6291655 ], [ 80.172062, 12.6286019 ], [ 80.172008, 12.6282989 ], [ 80.1718259, 12.6273632 ], [ 80.171729, 12.6270504 ], [ 80.1716137, 12.6266919 ], [ 80.171335, 12.6260009 ], [ 80.1711309, 12.6254957 ], [ 80.1709098, 12.6249648 ], [ 80.1707828, 12.6244418 ], [ 80.1703941, 12.62274 ], [ 80.1702699, 12.6222738 ], [ 80.1701036, 12.6218419 ], [ 80.1699614, 12.621465 ], [ 80.1698398, 12.6210517 ], [ 80.1697039, 12.6204494 ], [ 80.1695417, 12.6193673 ], [ 80.1694921, 12.6189104 ], [ 80.1694977, 12.6185894 ], [ 80.1695833, 12.618243 ], [ 80.1699941, 12.6169304 ], [ 80.1700392, 12.6166437 ], [ 80.1700515, 12.6164289 ], [ 80.1700584, 12.6163887 ], [ 80.1700575, 12.6163252 ], [ 80.1700392, 12.6160783 ], [ 80.1699883, 12.6158532 ], [ 80.169895, 12.61538 ], [ 80.1698012, 12.6148239 ] ], [ [ 80.1747864, 12.6492442 ], [ 80.1746647, 12.6489788 ], [ 80.1745708, 12.6487865 ], [ 80.1745239, 12.6486556 ], [ 80.1744756, 12.6484633 ], [ 80.1744542, 12.6483599 ], [ 80.1744286, 12.6481309 ], [ 80.1744139, 12.6479595 ], [ 80.1743817, 12.6476847 ], [ 80.1743887, 12.6474751 ] ], [ [ 80.1810555, 12.6939878 ], [ 80.1810728, 12.6938673 ], [ 80.1810391, 12.6937198 ], [ 80.1809798, 12.6934598 ], [ 80.1809193, 12.6931371 ], [ 80.1808418, 12.6923459 ], [ 80.1808204, 12.6920817 ], [ 80.180764, 12.6917873 ], [ 80.1807109, 12.6915608 ], [ 80.1806699, 12.6914562 ], [ 80.1805951, 12.6912652 ], [ 80.1804588, 12.6910286 ], [ 80.1803027, 12.69067 ], [ 80.1801731, 12.690302 ], [ 80.1800881, 12.6899177 ], [ 80.1800439, 12.6895199 ], [ 80.1800036, 12.688697 ], [ 80.17995, 12.6876032 ], [ 80.1798725, 12.686929 ], [ 80.1796187, 12.6852403 ], [ 80.1795007, 12.6843676 ], [ 80.1794256, 12.6839123 ], [ 80.1793591, 12.6834503 ], [ 80.1793339, 12.683156 ], [ 80.1792576, 12.6809932 ], [ 80.1791217, 12.6779954 ], [ 80.1791169, 12.6779077 ], [ 80.17905, 12.6766819 ], [ 80.1790209, 12.6763389 ], [ 80.1790059, 12.6760946 ], [ 80.1789808, 12.6749764 ], [ 80.1789724, 12.6747874 ], [ 80.1789707, 12.6747487 ], [ 80.1788813, 12.6732467 ], [ 80.1788498, 12.6728313 ], [ 80.1785947, 12.6705333 ], [ 80.1785431, 12.6699652 ], [ 80.1784721, 12.6694072 ], [ 80.1783353, 12.6685037 ], [ 80.1782561, 12.6679807 ], [ 80.178201, 12.6676315 ], [ 80.1780107, 12.6663587 ], [ 80.1779806, 12.6661517 ], [ 80.1776122, 12.6637852 ], [ 80.1772653, 12.6614021 ], [ 80.1770501, 12.6600617 ], [ 80.1769422, 12.6593683 ], [ 80.1769068, 12.6591455 ], [ 80.1768409, 12.6587093 ], [ 80.1765906, 12.657039 ], [ 80.1765816, 12.6569691 ], [ 80.1762194, 12.6544691 ], [ 80.1760152, 12.6530471 ], [ 80.1758254, 12.6517237 ], [ 80.1757765, 12.651363 ], [ 80.1757041, 12.6510032 ], [ 80.1756035, 12.6506538 ], [ 80.1754679, 12.650315 ], [ 80.1751247, 12.6497313 ], [ 80.1750105, 12.6495564 ], [ 80.1750037, 12.649546 ], [ 80.174941, 12.64945 ], [ 80.1748551, 12.6492994 ], [ 80.1747864, 12.6492442 ] ], [ [ 80.1747864, 12.6492442 ], [ 80.1747921, 12.6493308 ], [ 80.1748726, 12.6494997 ], [ 80.1749391, 12.6496073 ], [ 80.1750456, 12.6497797 ], [ 80.1753776, 12.650345 ], [ 80.1755163, 12.6506878 ], [ 80.1756182, 12.6510398 ], [ 80.1756906, 12.6513892 ], [ 80.1757358, 12.6517469 ], [ 80.1759289, 12.6530609 ], [ 80.1761252, 12.6544782 ], [ 80.1764853, 12.6569817 ], [ 80.1764927, 12.6570549 ], [ 80.1767937, 12.6589832 ], [ 80.1768199, 12.6591553 ], [ 80.1768557, 12.6593811 ], [ 80.1769637, 12.6600747 ], [ 80.1771787, 12.6614147 ], [ 80.1772353, 12.6618056 ], [ 80.1775203, 12.6637753 ], [ 80.1778914, 12.6661871 ], [ 80.1779196, 12.6663717 ], [ 80.1781087, 12.667646 ], [ 80.1781696, 12.6679932 ], [ 80.178249, 12.6685115 ], [ 80.1783854, 12.6694187 ], [ 80.1784562, 12.6699742 ], [ 80.1785077, 12.6705417 ], [ 80.1787484, 12.6728576 ], [ 80.1787939, 12.6732515 ], [ 80.1788718, 12.6747895 ], [ 80.1788934, 12.6749798 ], [ 80.1789184, 12.6760965 ], [ 80.1789291, 12.6763463 ], [ 80.1789582, 12.676688 ], [ 80.1790297, 12.6779997 ], [ 80.1791656, 12.6809968 ], [ 80.1792261, 12.6827122 ], [ 80.179242, 12.6831613 ], [ 80.1792532, 12.6832923 ], [ 80.1792675, 12.6834602 ], [ 80.1793346, 12.6839257 ], [ 80.1793783, 12.6841908 ], [ 80.1794096, 12.6843806 ], [ 80.1795275, 12.6852527 ], [ 80.1797811, 12.6869405 ], [ 80.1798582, 12.6876103 ], [ 80.1799117, 12.6887013 ], [ 80.179952, 12.6895269 ], [ 80.1799971, 12.689932 ], [ 80.1800843, 12.6903261 ], [ 80.180217, 12.6907031 ], [ 80.1803841, 12.6910876 ], [ 80.180511, 12.6913024 ], [ 80.1806226, 12.691587 ], [ 80.1806739, 12.6918055 ], [ 80.180729, 12.6920935 ], [ 80.1807501, 12.6923537 ], [ 80.180766, 12.6925157 ], [ 80.1808041, 12.6930162 ], [ 80.180828, 12.6931495 ], [ 80.1808895, 12.6934776 ], [ 80.1809781, 12.69389 ], [ 80.1810555, 12.6939878 ] ], [ [ 80.1789841, 12.6186098 ], [ 80.179141, 12.6186279 ], [ 80.1793523, 12.6186887 ], [ 80.1796483, 12.6187824 ] ], [ [ 80.1794161, 12.6189388 ], [ 80.1794875, 12.6188636 ], [ 80.1796483, 12.6187824 ] ], [ [ 80.1796483, 12.6187824 ], [ 80.1797583, 12.6188287 ], [ 80.1801201, 12.6189614 ], [ 80.1802665, 12.6190181 ], [ 80.180583, 12.6191481 ], [ 80.1807732, 12.6192128 ], [ 80.1809296, 12.619248 ], [ 80.1810633, 12.6192652 ], [ 80.1812198, 12.6192731 ], [ 80.181408, 12.6192916 ], [ 80.1815849, 12.6193218 ], [ 80.1817072, 12.6192889 ], [ 80.1831299, 12.6193463 ], [ 80.1840372, 12.6194396 ], [ 80.1845356, 12.6194909 ], [ 80.185182, 12.6195669 ], [ 80.1860438, 12.6196507 ], [ 80.1862414, 12.6196755 ], [ 80.1863687, 12.6196932 ], [ 80.1866039, 12.6197558 ], [ 80.1867808, 12.6198504 ], [ 80.1869875, 12.6200598 ], [ 80.1873902, 12.6207423 ], [ 80.1875974, 12.620983 ], [ 80.1877809, 12.621103 ], [ 80.1878645, 12.6211424 ], [ 80.187981, 12.6211966 ], [ 80.1882594, 12.6212101 ], [ 80.188579, 12.6211962 ], [ 80.1886441, 12.6211938 ], [ 80.1887356, 12.62119 ], [ 80.1895304, 12.6211565 ], [ 80.1895643, 12.6211518 ], [ 80.1898809, 12.6211115 ], [ 80.1902824, 12.6210058 ], [ 80.1910669, 12.6208021 ], [ 80.1915163, 12.6207613 ], [ 80.1918226, 12.6207815 ], [ 80.1924571, 12.6208665 ], [ 80.1928885, 12.6209003 ], [ 80.1930954, 12.6208844 ], [ 80.1933424, 12.6208191 ], [ 80.1944613, 12.6207626 ] ], [ [ 80.1812723, 12.6946015 ], [ 80.1811677, 12.6943372 ], [ 80.1811187, 12.6941845 ], [ 80.1810555, 12.6939878 ] ], [ [ 80.1864757, 12.7121945 ], [ 80.186408, 12.7119049 ], [ 80.1862729, 12.7114642 ], [ 80.1860411, 12.7094161 ], [ 80.1859822, 12.7090281 ], [ 80.1859355, 12.7088338 ], [ 80.1858704, 12.7086455 ], [ 80.1851682, 12.7074633 ], [ 80.1844323, 12.7063204 ], [ 80.1842874, 12.7060474 ], [ 80.1839975, 12.7054368 ], [ 80.1838076, 12.7048526 ], [ 80.183781, 12.7047708 ], [ 80.1836704, 12.7043481 ], [ 80.1836474, 12.7041782 ], [ 80.1836073, 12.7038817 ], [ 80.1835844, 12.7030806 ], [ 80.183593, 12.7027383 ], [ 80.183526, 12.7023585 ], [ 80.183208, 12.7005573 ], [ 80.1831033, 12.6995224 ], [ 80.1830474, 12.6992783 ], [ 80.1830186, 12.699177 ], [ 80.1829938, 12.69909 ], [ 80.1829443, 12.6989159 ], [ 80.182755, 12.6984158 ], [ 80.182364, 12.6974157 ], [ 80.1820286, 12.6964213 ], [ 80.1820126, 12.6963878 ], [ 80.1816654, 12.6954911 ], [ 80.1814266, 12.6948383 ], [ 80.1812723, 12.6946015 ] ], [ [ 80.1812723, 12.6946015 ], [ 80.1813515, 12.6949443 ], [ 80.1815737, 12.6955337 ], [ 80.1819036, 12.6964499 ], [ 80.1822728, 12.6974628 ], [ 80.1826678, 12.6984686 ], [ 80.1828603, 12.6989494 ], [ 80.1829012, 12.6990981 ], [ 80.1829208, 12.699169 ], [ 80.1829669, 12.6993366 ], [ 80.183015, 12.699597 ], [ 80.1831209, 12.7005621 ], [ 80.1832134, 12.7011075 ], [ 80.1834931, 12.7027563 ], [ 80.1834919, 12.7031067 ], [ 80.1835127, 12.7038978 ], [ 80.1835508, 12.7041885 ], [ 80.1835766, 12.7043851 ], [ 80.1837088, 12.7048882 ], [ 80.1839103, 12.7054773 ], [ 80.1840511, 12.70579 ], [ 80.1842034, 12.7060837 ], [ 80.184362, 12.7063872 ], [ 80.1850945, 12.7075208 ], [ 80.1857386, 12.7086895 ], [ 80.1858061, 12.7088958 ], [ 80.1858427, 12.7090805 ], [ 80.1859249, 12.7094993 ], [ 80.1861825, 12.7114834 ], [ 80.1863179, 12.7119391 ], [ 80.1864037, 12.7120773 ], [ 80.1864757, 12.7121945 ] ], [ [ 80.1878625, 12.7155673 ], [ 80.1878302, 12.7154531 ], [ 80.187633, 12.7149091 ], [ 80.1875945, 12.714834 ], [ 80.1875729, 12.7147649 ], [ 80.1872217, 12.7138692 ], [ 80.1871185, 12.7135311 ], [ 80.1870707, 12.7133884 ], [ 80.1870199, 12.7132261 ], [ 80.1869783, 12.7130713 ], [ 80.1868997, 12.7128594 ], [ 80.1868458, 12.7127302 ], [ 80.1867842, 12.7126235 ], [ 80.1866933, 12.7125062 ], [ 80.1865344, 12.7122796 ], [ 80.1864757, 12.7121945 ] ], [ [ 80.1868405, 12.7209313 ], [ 80.1869631, 12.7211283 ] ], [ [ 80.1868613, 12.720763 ], [ 80.1868318, 12.7207598 ], [ 80.1868029, 12.7207662 ], [ 80.1867778, 12.7207816 ], [ 80.1867593, 12.7208043 ], [ 80.1867495, 12.7208316 ], [ 80.1867495, 12.7208418 ], [ 80.1867495, 12.7208605 ], [ 80.1867593, 12.7208878 ], [ 80.1867778, 12.7209104 ], [ 80.1868029, 12.7209258 ], [ 80.1868307, 12.7209322 ], [ 80.1868405, 12.7209313 ] ], [ [ 80.1868405, 12.7209313 ], [ 80.1868592, 12.7209296 ], [ 80.1868853, 12.7209183 ], [ 80.1869063, 12.7208994 ], [ 80.1869109, 12.7208915 ] ], [ [ 80.1869143, 12.7208067 ], [ 80.1869083, 12.7207952 ], [ 80.186888, 12.7207756 ], [ 80.1868613, 12.720763 ] ], [ [ 80.1878625, 12.7155673 ], [ 80.1878697, 12.7157041 ], [ 80.1879165, 12.7158691 ], [ 80.188096, 12.7164244 ], [ 80.1881026, 12.7164446 ], [ 80.1882197, 12.7168044 ], [ 80.1883158, 12.7170681 ], [ 80.1884118, 12.7173315 ], [ 80.1885955, 12.717922 ], [ 80.188638, 12.7181119 ], [ 80.1886423, 12.7182444 ], [ 80.1886371, 12.7183397 ], [ 80.1885891, 12.7184447 ], [ 80.1881572, 12.7190396 ], [ 80.1877507, 12.7195442 ], [ 80.1876457, 12.7196857 ], [ 80.1873893, 12.7200108 ], [ 80.1871247, 12.720343 ], [ 80.1869083, 12.720688 ], [ 80.1868613, 12.720763 ] ], [ [ 80.1869631, 12.7211283 ], [ 80.1869109, 12.7208915 ] ], [ [ 80.1869109, 12.7208915 ], [ 80.1869202, 12.7208751 ], [ 80.1869253, 12.7208476 ], [ 80.1869212, 12.7208201 ], [ 80.1869143, 12.7208067 ] ], [ [ 80.1869143, 12.7208067 ], [ 80.1869649, 12.7207024 ], [ 80.1871678, 12.7204031 ], [ 80.1874512, 12.7200575 ], [ 80.1877085, 12.7197314 ], [ 80.1878132, 12.7195902 ], [ 80.1882199, 12.7190852 ], [ 80.1886575, 12.7184826 ], [ 80.1887145, 12.7183579 ], [ 80.1887206, 12.7182452 ], [ 80.188716, 12.7181025 ], [ 80.1886713, 12.7179026 ], [ 80.1884843, 12.7173031 ], [ 80.1883896, 12.7170429 ], [ 80.1882939, 12.7167801 ], [ 80.1881953, 12.7164209 ], [ 80.1879904, 12.7158438 ], [ 80.1879334, 12.7156996 ], [ 80.1878625, 12.7155673 ] ], [ [ 80.1893875, 12.7326144 ], [ 80.1892199, 12.7317409 ], [ 80.1891754, 12.7313409 ], [ 80.189133, 12.7309367 ], [ 80.1891302, 12.7309062 ], [ 80.1890782, 12.7303506 ], [ 80.1889995, 12.7299245 ], [ 80.1889598, 12.7296079 ], [ 80.1889579, 12.7293606 ], [ 80.1889575, 12.7293141 ], [ 80.1889295, 12.7290316 ], [ 80.1888879, 12.7288796 ], [ 80.1888781, 12.7288358 ], [ 80.1888068, 12.7285867 ], [ 80.1887518, 12.7283942 ], [ 80.1886913, 12.7281798 ], [ 80.1885902, 12.7278201 ], [ 80.1883854, 12.7270911 ], [ 80.1882211, 12.7263595 ], [ 80.188191, 12.7262123 ], [ 80.1881838, 12.7261785 ], [ 80.1880959, 12.7256015 ], [ 80.1880328, 12.7251141 ], [ 80.1879768, 12.7248522 ], [ 80.1877981, 12.7239724 ], [ 80.1871305, 12.7215362 ], [ 80.1869631, 12.7211283 ] ], [ [ 80.2049941, 12.7527807 ], [ 80.2049232, 12.7526353 ], [ 80.2044139, 12.7515912 ], [ 80.2042723, 12.7513177 ], [ 80.204019, 12.7508282 ], [ 80.2035307, 12.7498597 ], [ 80.2031032, 12.7490138 ], [ 80.2029737, 12.7487574 ], [ 80.2010652, 12.7450547 ], [ 80.2008242, 12.7447109 ], [ 80.2006685, 12.7445368 ], [ 80.2006393, 12.7445042 ], [ 80.2004396, 12.7443022 ], [ 80.2002568, 12.7441508 ], [ 80.1999902, 12.7439232 ], [ 80.199136, 12.7431938 ], [ 80.1990238, 12.743098 ], [ 80.1987888, 12.7428973 ], [ 80.1981111, 12.7423187 ], [ 80.1980204, 12.7422412 ], [ 80.1977829, 12.7420383 ], [ 80.1974579, 12.7418058 ], [ 80.1965667, 12.7411681 ], [ 80.1932004, 12.7387465 ], [ 80.1928475, 12.7384862 ], [ 80.1926934, 12.7383387 ], [ 80.1924079, 12.7380444 ], [ 80.1908541, 12.7365049 ], [ 80.1904093, 12.7360402 ], [ 80.1903938, 12.7360151 ], [ 80.1900651, 12.7356705 ], [ 80.1899321, 12.7354649 ], [ 80.1898351, 12.735271 ], [ 80.1898073, 12.7351866 ], [ 80.1896861, 12.7348183 ], [ 80.189681, 12.734751 ], [ 80.1896091, 12.733968 ], [ 80.1895172, 12.7331447 ], [ 80.1895023, 12.7330092 ], [ 80.1894939, 12.7329326 ], [ 80.1893875, 12.7326144 ] ], [ [ 80.1893875, 12.7326144 ], [ 80.1894132, 12.732931 ], [ 80.189441, 12.7331556 ], [ 80.1894734, 12.7334175 ], [ 80.1894976, 12.7336733 ], [ 80.1895254, 12.7339678 ], [ 80.1895467, 12.7341895 ], [ 80.1895832, 12.7345918 ], [ 80.1896013, 12.7347569 ], [ 80.1896545, 12.7349293 ], [ 80.189741, 12.7352092 ], [ 80.1897523, 12.7352329 ], [ 80.1897897, 12.7353551 ], [ 80.1898769, 12.7355251 ], [ 80.1899653, 12.7356809 ], [ 80.1902955, 12.7360279 ], [ 80.1903402, 12.7360654 ], [ 80.1923146, 12.73809 ], [ 80.1928604, 12.7386036 ], [ 80.1950975, 12.740225 ], [ 80.1963826, 12.7411564 ], [ 80.1964219, 12.7411844 ], [ 80.196492, 12.7412344 ], [ 80.1966637, 12.7413552 ], [ 80.1973966, 12.7418709 ], [ 80.1976635, 12.7420587 ], [ 80.1979641, 12.7422898 ], [ 80.1986983, 12.7429235 ], [ 80.1990079, 12.7431756 ], [ 80.2003707, 12.7443841 ], [ 80.2008203, 12.7448792 ], [ 80.2009557, 12.7450558 ], [ 80.2016587, 12.7464314 ], [ 80.2022117, 12.7474785 ], [ 80.202527, 12.7481148 ], [ 80.203608, 12.7502194 ], [ 80.2041897, 12.7513621 ], [ 80.2049189, 12.752838 ] ], [ [ 80.2050091, 12.7529735 ], [ 80.2056105, 12.7540585 ], [ 80.2060276, 12.7548099 ], [ 80.2071957, 12.7569226 ], [ 80.2077481, 12.7579175 ], [ 80.2088077, 12.759835 ], [ 80.2088436, 12.7599 ], [ 80.2094842, 12.7612051 ], [ 80.2096823, 12.761635 ], [ 80.2098603, 12.7619908 ], [ 80.2102523, 12.7629488 ], [ 80.2103419, 12.7631933 ], [ 80.2105838, 12.7637839 ], [ 80.2124087, 12.7687611 ], [ 80.2129967, 12.770443 ], [ 80.2131126, 12.7707745 ], [ 80.2134249, 12.7715986 ], [ 80.2134954, 12.7717821 ], [ 80.2141428, 12.7734717 ], [ 80.2144351, 12.7742455 ], [ 80.2147056, 12.7749201 ], [ 80.2150221, 12.7757847 ], [ 80.2150491, 12.7758688 ], [ 80.2151229, 12.7760427 ], [ 80.2152216, 12.7763119 ], [ 80.2152849, 12.7765072 ], [ 80.2154903, 12.7769707 ] ], [ [ 80.2156412, 12.7768779 ], [ 80.2155019, 12.776669 ], [ 80.2153875, 12.7764786 ], [ 80.2153071, 12.7762632 ], [ 80.2152943, 12.7762317 ], [ 80.2151332, 12.775832 ], [ 80.2151006, 12.7757455 ], [ 80.2148953, 12.7751552 ], [ 80.2148153, 12.7749544 ], [ 80.214481, 12.7741154 ], [ 80.2143133, 12.773698 ], [ 80.2142008, 12.773418 ], [ 80.2140634, 12.7730525 ], [ 80.2138599, 12.7725192 ], [ 80.213568, 12.7717545 ], [ 80.2135416, 12.7716853 ], [ 80.2134357, 12.7713962 ], [ 80.2133313, 12.7711111 ], [ 80.2131959, 12.7707413 ], [ 80.2130647, 12.7703831 ], [ 80.2129034, 12.7699427 ], [ 80.2127156, 12.7693798 ], [ 80.2126987, 12.7693293 ], [ 80.2124612, 12.7686163 ], [ 80.2113684, 12.7656029 ], [ 80.2107775, 12.7640368 ], [ 80.2106627, 12.763755 ], [ 80.2104348, 12.7631599 ], [ 80.2103446, 12.7629156 ], [ 80.21013, 12.7623528 ], [ 80.2099478, 12.7619358 ], [ 80.2097914, 12.7615966 ], [ 80.209584, 12.7611407 ], [ 80.2095568, 12.761081 ], [ 80.2089476, 12.7598631 ], [ 80.2083904, 12.7588999 ], [ 80.2076372, 12.7575483 ], [ 80.2072781, 12.7568965 ], [ 80.2072462, 12.7568386 ], [ 80.2061249, 12.7547946 ], [ 80.2058612, 12.7543234 ], [ 80.2054063, 12.7534847 ], [ 80.2050822, 12.7529415 ] ], [ [ 80.2154903, 12.7769707 ], [ 80.2154929, 12.7770054 ], [ 80.2155067, 12.7770375 ], [ 80.2155302, 12.7770638 ], [ 80.2155609, 12.7770815 ], [ 80.2155958, 12.7770889 ], [ 80.2158256, 12.7776309 ], [ 80.2158654, 12.7777238 ], [ 80.2159418, 12.7779026 ], [ 80.2161472, 12.7783422 ], [ 80.2166699, 12.7794058 ], [ 80.2171488, 12.7803042 ], [ 80.2172869, 12.7805963 ], [ 80.2180789, 12.7820112 ], [ 80.2184417, 12.7826536 ], [ 80.2185122, 12.782777 ], [ 80.2186454, 12.78301 ], [ 80.2186998, 12.7831039 ], [ 80.2188819, 12.7834181 ], [ 80.2190336, 12.7836798 ], [ 80.219335, 12.7841998 ], [ 80.2195547, 12.7846338 ], [ 80.2199216, 12.7853588 ], [ 80.2199553, 12.7854239 ], [ 80.2202857, 12.7860611 ], [ 80.2204098, 12.7863375 ], [ 80.2205514, 12.786773 ], [ 80.2206987, 12.7871784 ], [ 80.2209885, 12.7879201 ], [ 80.221369, 12.7889345 ], [ 80.2215813, 12.7895063 ], [ 80.2216076, 12.7895853 ], [ 80.2216357, 12.7896882 ], [ 80.2217546, 12.7901642 ], [ 80.2217929, 12.7903194 ], [ 80.2218732, 12.7906115 ], [ 80.2221424, 12.7916705 ], [ 80.2222833, 12.792143 ], [ 80.2223871, 12.7926382 ], [ 80.2224772, 12.7931702 ], [ 80.22253, 12.7935526 ], [ 80.2226575, 12.7944757 ], [ 80.2226641, 12.7945246 ], [ 80.2226682, 12.7945513 ], [ 80.2228775, 12.7959975 ], [ 80.2228984, 12.7960892 ], [ 80.2229272, 12.7962471 ], [ 80.2229431, 12.7963343 ], [ 80.2230082, 12.796691 ], [ 80.2231113, 12.797256 ], [ 80.2232301, 12.7979301 ], [ 80.2232416, 12.7980492 ], [ 80.223245, 12.7980846 ], [ 80.2233076, 12.798757 ], [ 80.2233184, 12.7988437 ], [ 80.2233351, 12.7989501 ], [ 80.2234962, 12.800683 ], [ 80.223501, 12.8007278 ], [ 80.2235042, 12.8007659 ], [ 80.2235401, 12.8011905 ], [ 80.2235669, 12.8014748 ], [ 80.22357, 12.801516 ], [ 80.2236966, 12.8028137 ], [ 80.2238314, 12.8040994 ], [ 80.2238524, 12.8045212 ], [ 80.2238873, 12.804852 ], [ 80.2240079, 12.8052435 ], [ 80.2241249, 12.8055562 ], [ 80.2241973, 12.8056786 ], [ 80.2242858, 12.8057996 ], [ 80.2243591, 12.8058951 ], [ 80.2245526, 12.80613 ], [ 80.2246954, 12.8062865 ], [ 80.2252999, 12.8069656 ], [ 80.225829, 12.8075625 ], [ 80.2258986, 12.8076443 ], [ 80.2259707, 12.8077291 ], [ 80.2261602, 12.8079513 ], [ 80.2262873, 12.8081011 ], [ 80.226414, 12.8082589 ] ], [ [ 80.2155181, 12.7769075 ], [ 80.215499, 12.7769369 ], [ 80.2154903, 12.7769707 ] ], [ [ 80.2156412, 12.7768779 ], [ 80.2156063, 12.776871 ] ], [ [ 80.2521534, 12.9850757 ], [ 80.2521848, 12.984954 ], [ 80.2521962, 12.98491 ], [ 80.2522179, 12.9848258 ], [ 80.2522404, 12.9847385 ], [ 80.2522465, 12.984714 ], [ 80.2526117, 12.983259 ], [ 80.2526566, 12.9828403 ], [ 80.2526657, 12.9827397 ], [ 80.2526935, 12.9819971 ], [ 80.2527321, 12.9808426 ], [ 80.2527349, 12.9807585 ], [ 80.2527409, 12.9804735 ], [ 80.2527453, 12.9799848 ], [ 80.2527419, 12.9799018 ], [ 80.2527349, 12.9798118 ], [ 80.2527284, 12.9797289 ], [ 80.2527228, 12.97966 ], [ 80.2527151, 12.9795645 ], [ 80.2526546, 12.9791733 ], [ 80.2525825, 12.9788105 ], [ 80.2524917, 12.9785686 ], [ 80.2523628, 12.9783334 ], [ 80.2522002, 12.9781245 ], [ 80.2520783, 12.9779765 ], [ 80.251729, 12.9775917 ], [ 80.2516158, 12.9774156 ], [ 80.2515775, 12.9773563 ], [ 80.2514972, 12.9772317 ], [ 80.2513516, 12.9769101 ], [ 80.251218, 12.9764335 ], [ 80.2509293, 12.9754176 ], [ 80.2508195, 12.9750312 ], [ 80.2507849, 12.9749096 ], [ 80.2504655, 12.9737859 ], [ 80.2504523, 12.9737393 ], [ 80.2504278, 12.9736532 ], [ 80.2503365, 12.9733321 ], [ 80.2502408, 12.9729954 ], [ 80.2500783, 12.9723835 ], [ 80.2497822, 12.9712364 ], [ 80.2497064, 12.9709997 ], [ 80.2495644, 12.9705247 ], [ 80.2492931, 12.9698191 ], [ 80.2490429, 12.969175 ], [ 80.2487886, 12.9685769 ], [ 80.2486451, 12.9682061 ], [ 80.248549, 12.9679525 ], [ 80.2483272, 12.9673849 ], [ 80.2482002, 12.9671249 ], [ 80.2480465, 12.9668203 ], [ 80.2478882, 12.9664883 ], [ 80.2475933, 12.9658235 ], [ 80.2474277, 12.9653769 ], [ 80.2472196, 12.9647409 ], [ 80.2470763, 12.9643732 ], [ 80.2469444, 12.9640103 ], [ 80.2469087, 12.9639028 ], [ 80.2468416, 12.9637218 ], [ 80.2467479, 12.9635279 ], [ 80.2467116, 12.9634407 ], [ 80.2466202, 12.9632636 ], [ 80.2465046, 12.9630201 ], [ 80.2462689, 12.9625455 ], [ 80.2459712, 12.9619476 ], [ 80.2456925, 12.9613069 ], [ 80.2455079, 12.9609199 ], [ 80.2454737, 12.9608441 ], [ 80.2453447, 12.9605579 ], [ 80.245325, 12.9605141 ], [ 80.245305, 12.9604698 ], [ 80.2451575, 12.9601186 ], [ 80.2450347, 12.9598317 ], [ 80.2446059, 12.9589116 ], [ 80.2442018, 12.9579337 ], [ 80.2441703, 12.95785 ], [ 80.244146, 12.9577877 ], [ 80.2438978, 12.9571503 ], [ 80.2438351, 12.9569892 ], [ 80.2436326, 12.9564715 ], [ 80.243553, 12.9562914 ], [ 80.2432235, 12.9555709 ], [ 80.2432053, 12.9555311 ], [ 80.2431497, 12.9553991 ], [ 80.242998, 12.9550389 ], [ 80.2429785, 12.9549935 ], [ 80.24296, 12.9549503 ], [ 80.2428995, 12.9548092 ], [ 80.2428613, 12.9547199 ], [ 80.2427885, 12.9545498 ], [ 80.2427865, 12.9545451 ], [ 80.2427405, 12.9544377 ], [ 80.2425278, 12.953924 ], [ 80.2422362, 12.9532196 ], [ 80.2420507, 12.9527189 ], [ 80.2419892, 12.9525529 ], [ 80.2416786, 12.9517144 ], [ 80.2416182, 12.9515257 ], [ 80.2415546, 12.9513351 ], [ 80.241426, 12.9509592 ], [ 80.2413725, 12.9507854 ], [ 80.2413198, 12.9506069 ], [ 80.2412689, 12.9504513 ], [ 80.2412483, 12.9503884 ], [ 80.2412309, 12.9503355 ], [ 80.2412199, 12.9503022 ], [ 80.2409162, 12.9493278 ], [ 80.2408088, 12.9490212 ], [ 80.2407669, 12.9489016 ], [ 80.2406647, 12.9486097 ], [ 80.240621, 12.9485076 ], [ 80.2404877, 12.9481829 ], [ 80.2403429, 12.94779 ], [ 80.2401801, 12.9473932 ], [ 80.2399919, 12.9469166 ], [ 80.2396157, 12.9459947 ], [ 80.2394728, 12.9457164 ], [ 80.2393112, 12.9454251 ], [ 80.2392109, 12.9452741 ], [ 80.2391276, 12.9451708 ], [ 80.2389381, 12.9449891 ], [ 80.2386294, 12.9446914 ], [ 80.2385653, 12.9446389 ], [ 80.2384995, 12.9445863 ], [ 80.2381701, 12.9442935 ], [ 80.238134, 12.9442611 ], [ 80.237864, 12.9440186 ], [ 80.237719, 12.943883 ], [ 80.2376395, 12.9438098 ], [ 80.2373735, 12.9435399 ], [ 80.2373035, 12.9434753 ], [ 80.2372821, 12.9434548 ], [ 80.2371344, 12.9432961 ], [ 80.2370551, 12.9432136 ], [ 80.2369405, 12.9430823 ], [ 80.2368744, 12.942988 ], [ 80.236818, 12.9429181 ], [ 80.236732, 12.942795 ], [ 80.2365806, 12.9424749 ], [ 80.2364993, 12.9422303 ], [ 80.2364417, 12.9419871 ], [ 80.2364168, 12.941845 ], [ 80.2363559, 12.9416368 ], [ 80.2363314, 12.9415274 ], [ 80.2362671, 12.9413044 ], [ 80.2362359, 12.9411933 ], [ 80.2361208, 12.9407339 ], [ 80.2359598, 12.9401507 ], [ 80.2356758, 12.9394938 ], [ 80.2354905, 12.9390987 ], [ 80.2353097, 12.9387266 ], [ 80.2348887, 12.9378814 ], [ 80.2347193, 12.9375408 ], [ 80.234455, 12.9369994 ], [ 80.2342023, 12.9364816 ], [ 80.2339585, 12.935971 ], [ 80.2338629, 12.9357689 ], [ 80.2337722, 12.9355775 ], [ 80.2331331, 12.9342106 ], [ 80.2329518, 12.9338444 ], [ 80.2328964, 12.9336989 ], [ 80.232513, 12.9327518 ], [ 80.2323845, 12.9324092 ], [ 80.2322533, 12.9320775 ], [ 80.2321703, 12.93181 ], [ 80.2320224, 12.9313662 ], [ 80.2317864, 12.9305425 ], [ 80.2316469, 12.9300525 ], [ 80.2316384, 12.9300198 ], [ 80.2315759, 12.9297803 ], [ 80.231533, 12.9295697 ], [ 80.2314976, 12.9294407 ], [ 80.2314376, 12.9292226 ], [ 80.2313918, 12.928989 ], [ 80.2313791, 12.928909 ], [ 80.2312988, 12.928273 ], [ 80.2312448, 12.9278072 ], [ 80.2312294, 12.9276597 ], [ 80.2310675, 12.9265679 ], [ 80.231035, 12.9263437 ], [ 80.2308832, 12.9250833 ], [ 80.2308151, 12.9245176 ], [ 80.2307923, 12.9243266 ], [ 80.2306728, 12.9234084 ], [ 80.2306133, 12.923007 ], [ 80.2304562, 12.9219477 ], [ 80.2302882, 12.9207068 ], [ 80.2300793, 12.919051 ], [ 80.2298815, 12.9175839 ], [ 80.2298244, 12.9171515 ], [ 80.2297466, 12.9164991 ], [ 80.229699, 12.9160994 ], [ 80.2296228, 12.9156171 ], [ 80.2295239, 12.9149361 ], [ 80.2294949, 12.9147277 ], [ 80.229416, 12.9141538 ], [ 80.2294092, 12.9140884 ], [ 80.2292825, 12.9132888 ], [ 80.2292646, 12.913149 ], [ 80.2292281, 12.9128636 ], [ 80.2291975, 12.912624 ], [ 80.2291954, 12.9126103 ], [ 80.2291538, 12.9123367 ], [ 80.229077, 12.9118318 ], [ 80.2289981, 12.9113131 ], [ 80.2289637, 12.9110874 ], [ 80.2289022, 12.9106833 ], [ 80.2288845, 12.9105667 ], [ 80.2286481, 12.9090125 ], [ 80.2286283, 12.9088649 ], [ 80.2285343, 12.9082589 ], [ 80.2284668, 12.9078237 ], [ 80.2284067, 12.9074366 ], [ 80.2283336, 12.9067263 ], [ 80.2283277, 12.9066364 ], [ 80.2282778, 12.9058703 ], [ 80.2282641, 12.9056589 ], [ 80.2282542, 12.9055075 ], [ 80.2282481, 12.9054144 ], [ 80.2282464, 12.905388 ], [ 80.2281675, 12.9041766 ], [ 80.2280294, 12.9015245 ], [ 80.228023, 12.901401 ], [ 80.2280165, 12.9012764 ], [ 80.2280116, 12.9011817 ], [ 80.2280056, 12.9010484 ], [ 80.2279993, 12.9010003 ], [ 80.2279964, 12.9009531 ], [ 80.2279903, 12.9009007 ], [ 80.2279796, 12.90077 ], [ 80.2279756, 12.9006819 ], [ 80.2279682, 12.9005561 ], [ 80.2279611, 12.9004356 ], [ 80.2279176, 12.8997116 ], [ 80.2278329, 12.8982671 ], [ 80.2278081, 12.8979192 ], [ 80.227793, 12.8976726 ], [ 80.2277421, 12.8967468 ], [ 80.2277351, 12.8966196 ], [ 80.2276903, 12.8958042 ], [ 80.2276238, 12.8945747 ], [ 80.2275867, 12.8938896 ], [ 80.2274301, 12.8925969 ], [ 80.2274215, 12.8925259 ], [ 80.2274202, 12.8924408 ], [ 80.2274105, 12.8917886 ], [ 80.2273779, 12.889593 ], [ 80.227364, 12.8882554 ], [ 80.2272812, 12.8875616 ], [ 80.2272348, 12.8871731 ], [ 80.2268321, 12.8856814 ], [ 80.226753, 12.88532 ], [ 80.2267467, 12.8850528 ], [ 80.2267388, 12.8847211 ], [ 80.2267204, 12.8841975 ], [ 80.2267405, 12.8836518 ], [ 80.2267488, 12.8824708 ], [ 80.2267681, 12.880753 ], [ 80.2267778, 12.8802023 ], [ 80.2267956, 12.879197 ], [ 80.2268151, 12.8789317 ], [ 80.2268363, 12.8786424 ], [ 80.2268599, 12.8784362 ], [ 80.226884, 12.8782259 ], [ 80.2269332, 12.8777962 ], [ 80.2269545, 12.8773504 ], [ 80.2269808, 12.8769831 ], [ 80.2269967, 12.8767207 ], [ 80.2270065, 12.87656 ], [ 80.2270086, 12.8765254 ], [ 80.2270095, 12.8765106 ], [ 80.227008, 12.876457 ], [ 80.2270074, 12.8764087 ], [ 80.2269771, 12.8753347 ], [ 80.2267893, 12.8739319 ], [ 80.2267202, 12.8730563 ], [ 80.2267109, 12.8729386 ], [ 80.2267022, 12.8727662 ], [ 80.2266644, 12.8709271 ], [ 80.2266043, 12.8702813 ], [ 80.2265927, 12.8701568 ], [ 80.2265643, 12.869903 ], [ 80.2265413, 12.8696967 ], [ 80.2264182, 12.8685936 ], [ 80.2264183, 12.8681145 ], [ 80.2265743, 12.8664798 ], [ 80.2266444, 12.8657454 ], [ 80.2266075, 12.8649207 ], [ 80.2266036, 12.8648329 ], [ 80.2265562, 12.8636255 ], [ 80.2265522, 12.8629397 ], [ 80.2266115, 12.8619308 ], [ 80.2266444, 12.8613712 ], [ 80.2265649, 12.8603814 ], [ 80.2265472, 12.8601615 ], [ 80.2263657, 12.8590994 ], [ 80.2263211, 12.8587611 ], [ 80.2263137, 12.8587052 ], [ 80.2262841, 12.8584804 ], [ 80.2262704, 12.857757 ], [ 80.2263529, 12.8568699 ], [ 80.2264908, 12.8555834 ], [ 80.2265986, 12.8545062 ], [ 80.2267135, 12.8533608 ], [ 80.2266989, 12.8524056 ], [ 80.2266988, 12.852397 ], [ 80.226697, 12.8523587 ], [ 80.2266272, 12.8509033 ], [ 80.2266055, 12.8500231 ], [ 80.2266039, 12.8498979 ], [ 80.2266012, 12.8496817 ], [ 80.2265943, 12.849125 ], [ 80.226601, 12.8480427 ], [ 80.2266162, 12.8464299 ], [ 80.2266265, 12.8460479 ], [ 80.2266367, 12.8458745 ], [ 80.2266475, 12.8452689 ], [ 80.2266675, 12.8447541 ], [ 80.2266707, 12.8447298 ], [ 80.226939, 12.8427975 ], [ 80.2269715, 12.8426788 ], [ 80.2270559, 12.84226 ], [ 80.2271209, 12.8419612 ], [ 80.2274805, 12.8406435 ], [ 80.2275662, 12.8403296 ], [ 80.2275832, 12.8402673 ], [ 80.2276322, 12.8400845 ], [ 80.227716, 12.8397718 ], [ 80.2279447, 12.8389357 ], [ 80.2281271, 12.8382259 ], [ 80.2281709, 12.8380488 ], [ 80.2282736, 12.8375432 ], [ 80.2283063, 12.8373822 ], [ 80.2283228, 12.8372626 ], [ 80.2286338, 12.8351848 ], [ 80.2286613, 12.8350012 ], [ 80.2287354, 12.8345061 ], [ 80.228999, 12.8330607 ], [ 80.2290055, 12.8330269 ], [ 80.2292239, 12.831883 ], [ 80.2292278, 12.8318624 ], [ 80.229236, 12.8318191 ], [ 80.2292638, 12.8317114 ], [ 80.2294292, 12.831181 ], [ 80.2294498, 12.8311267 ], [ 80.2295554, 12.8308496 ], [ 80.2296211, 12.830674 ], [ 80.2298787, 12.8299348 ], [ 80.230295, 12.8289612 ], [ 80.2305063, 12.8285772 ], [ 80.2306188, 12.8283727 ], [ 80.2306931, 12.8282376 ], [ 80.230778, 12.8280834 ], [ 80.2308237, 12.8280003 ], [ 80.2309566, 12.827782 ], [ 80.2312805, 12.8270772 ], [ 80.2313344, 12.8268592 ], [ 80.2313572, 12.8266825 ], [ 80.2313836, 12.8262511 ], [ 80.2313975, 12.8260109 ], [ 80.2314025, 12.8259425 ], [ 80.2314082, 12.8258486 ], [ 80.2314138, 12.8257575 ], [ 80.2314155, 12.8255711 ], [ 80.2314162, 12.8254918 ], [ 80.2314184, 12.8253143 ], [ 80.2314213, 12.8249407 ], [ 80.2313927, 12.8248083 ], [ 80.2313773, 12.8246245 ], [ 80.231369, 12.8245807 ], [ 80.2312244, 12.8240683 ], [ 80.2310936, 12.8235781 ], [ 80.2309171, 12.8229751 ], [ 80.2308838, 12.8228614 ], [ 80.2306617, 12.8221023 ], [ 80.2305364, 12.8217038 ], [ 80.2304949, 12.8211812 ], [ 80.2304957, 12.8210179 ], [ 80.2304989, 12.82032 ], [ 80.2304999, 12.8200931 ], [ 80.2305097, 12.8189279 ], [ 80.2304737, 12.8188138 ], [ 80.2304353, 12.8187131 ], [ 80.230019, 12.8178338 ], [ 80.2299625, 12.8177362 ], [ 80.2298377, 12.8174416 ], [ 80.2296811, 12.8170717 ], [ 80.2294692, 12.815944 ], [ 80.2292961, 12.8145135 ], [ 80.2292839, 12.8144664 ], [ 80.2292691, 12.8143997 ], [ 80.2292466, 12.8143038 ], [ 80.2291473, 12.8140162 ], [ 80.2289674, 12.8134734 ], [ 80.2287819, 12.8129135 ], [ 80.2287078, 12.8126899 ], [ 80.228675, 12.812591 ], [ 80.2282849, 12.8114948 ], [ 80.2282156, 12.8112764 ], [ 80.2281625, 12.8111321 ], [ 80.2280742, 12.8109298 ], [ 80.2278784, 12.8105305 ], [ 80.2278215, 12.8104264 ], [ 80.2277316, 12.810262 ], [ 80.2275286, 12.8098908 ], [ 80.2273964, 12.8096552 ], [ 80.2272089, 12.8093094 ], [ 80.2270279, 12.8089736 ], [ 80.2268447, 12.808545 ], [ 80.2267908, 12.8084072 ], [ 80.2267581, 12.8083305 ], [ 80.2267849, 12.8082726 ], [ 80.2267903, 12.8082092 ], [ 80.2267735, 12.8081478 ], [ 80.2267365, 12.8080955 ], [ 80.2266836, 12.8080583 ], [ 80.2266407, 12.8080461 ], [ 80.2266211, 12.8080406 ], [ 80.226556, 12.8080444 ], [ 80.226496, 12.8080692 ], [ 80.2264801, 12.8080836 ], [ 80.2264593, 12.8081023 ], [ 80.2263998, 12.8080769 ], [ 80.2263467, 12.8080441 ], [ 80.226271, 12.8079793 ], [ 80.2260551, 12.8077255 ], [ 80.2259496, 12.8076016 ], [ 80.2258846, 12.8075196 ], [ 80.2257897, 12.8074065 ], [ 80.2256974, 12.807296 ], [ 80.2247452, 12.8062484 ], [ 80.2244645, 12.8059329 ], [ 80.2243376, 12.8057674 ], [ 80.2242224, 12.8056029 ], [ 80.2241801, 12.8055236 ], [ 80.2240592, 12.8052343 ], [ 80.223953, 12.8048324 ], [ 80.2239154, 12.8044963 ], [ 80.2239072, 12.804098 ], [ 80.2238063, 12.8030802 ], [ 80.2236506, 12.8015095 ], [ 80.2236456, 12.8014712 ], [ 80.2235713, 12.8006419 ], [ 80.2235496, 12.8004707 ], [ 80.2235265, 12.8001784 ], [ 80.2235233, 12.8001456 ], [ 80.223504, 12.7999451 ], [ 80.2234819, 12.7997162 ], [ 80.2234401, 12.799283 ], [ 80.2234127, 12.7989596 ], [ 80.2233532, 12.7983841 ], [ 80.2233098, 12.7979343 ], [ 80.2231881, 12.7972379 ], [ 80.2230398, 12.7962891 ], [ 80.2230275, 12.7962149 ], [ 80.2230042, 12.7960749 ], [ 80.2229924, 12.7959862 ], [ 80.2229702, 12.795839 ], [ 80.2227874, 12.7947489 ], [ 80.2227564, 12.7945639 ], [ 80.2227514, 12.7945344 ], [ 80.2227469, 12.7945073 ], [ 80.2227411, 12.7944595 ], [ 80.2225787, 12.7931423 ], [ 80.2224731, 12.7925985 ], [ 80.2224366, 12.7924173 ], [ 80.2222576, 12.7916562 ], [ 80.2219126, 12.7902935 ], [ 80.2218303, 12.7900196 ], [ 80.2217599, 12.7897646 ], [ 80.2217165, 12.7896452 ], [ 80.2216768, 12.789524 ], [ 80.2216651, 12.789493 ], [ 80.2210627, 12.787893 ], [ 80.2207796, 12.7871576 ], [ 80.2204283, 12.7861984 ], [ 80.2203498, 12.7860519 ], [ 80.220223, 12.7857721 ], [ 80.2199479, 12.785201 ], [ 80.219594, 12.7845204 ], [ 80.2194724, 12.7842867 ], [ 80.2189804, 12.7834152 ], [ 80.218957, 12.7833737 ], [ 80.2189134, 12.7832964 ], [ 80.2187007, 12.7829198 ], [ 80.218538, 12.7826275 ], [ 80.2181512, 12.7819308 ], [ 80.2173959, 12.7805702 ], [ 80.217206, 12.7802282 ], [ 80.2169162, 12.7797079 ], [ 80.2167655, 12.7793667 ], [ 80.2166158, 12.7790592 ], [ 80.2164299, 12.7786981 ], [ 80.2162476, 12.7783426 ], [ 80.2160214, 12.7778483 ], [ 80.2158622, 12.77747 ], [ 80.2157777, 12.7772691 ], [ 80.2157054, 12.7770973 ], [ 80.2156867, 12.7770509 ], [ 80.2157052, 12.7770212 ], [ 80.2157072, 12.7770126 ], [ 80.2157132, 12.7769874 ], [ 80.21571, 12.7769529 ], [ 80.2156958, 12.7769211 ], [ 80.215672, 12.7768952 ], [ 80.2156412, 12.7768779 ] ], [ [ 80.2264879, 12.808377 ], [ 80.2266013, 12.8085635 ], [ 80.2267165, 12.8087603 ], [ 80.2267491, 12.808816 ], [ 80.2269518, 12.8091931 ], [ 80.2271435, 12.8095439 ], [ 80.2273508, 12.809888 ], [ 80.2275862, 12.8103006 ], [ 80.2276978, 12.8104952 ], [ 80.2278278, 12.810708 ], [ 80.2279734, 12.8109468 ], [ 80.2280728, 12.8111274 ], [ 80.2281262, 12.8112733 ], [ 80.2281755, 12.8114117 ], [ 80.2282237, 12.8115514 ], [ 80.2282541, 12.811647 ], [ 80.2285937, 12.8126125 ], [ 80.2286272, 12.8127079 ], [ 80.2289002, 12.8135001 ], [ 80.2289137, 12.8135394 ], [ 80.2291746, 12.8144161 ], [ 80.2291913, 12.8144991 ], [ 80.2292152, 12.8147305 ], [ 80.2292239, 12.8149857 ], [ 80.2292515, 12.8152021 ], [ 80.2292704, 12.8153544 ], [ 80.2293493, 12.8159808 ], [ 80.2293546, 12.8160091 ], [ 80.2294628, 12.816588 ], [ 80.2294903, 12.8167349 ], [ 80.2295918, 12.8170728 ], [ 80.2298399, 12.8177096 ], [ 80.2298577, 12.8177595 ], [ 80.230088, 12.8181909 ], [ 80.2303369, 12.8187142 ], [ 80.2304184, 12.8189503 ], [ 80.230418, 12.8190346 ], [ 80.2304159, 12.8194427 ], [ 80.2304125, 12.8201039 ], [ 80.2304121, 12.820191 ], [ 80.2304101, 12.8205884 ], [ 80.2304086, 12.8208807 ], [ 80.230408, 12.8209944 ], [ 80.2304071, 12.8211791 ], [ 80.2304411, 12.8215277 ], [ 80.2304621, 12.821743 ], [ 80.2305554, 12.8220772 ], [ 80.230566, 12.8221154 ], [ 80.2305791, 12.8221625 ], [ 80.2307741, 12.822896 ], [ 80.2309633, 12.8236078 ], [ 80.2311231, 12.8240937 ], [ 80.2312606, 12.8246167 ], [ 80.2313223, 12.8249371 ], [ 80.2313317, 12.8251004 ], [ 80.2313389, 12.8252242 ], [ 80.2313287, 12.825785 ], [ 80.2313276, 12.8258484 ], [ 80.2313188, 12.8259359 ], [ 80.2312989, 12.8262438 ], [ 80.2312555, 12.8267197 ], [ 80.2311785, 12.8270688 ], [ 80.2308633, 12.8277388 ], [ 80.2308339, 12.8278013 ], [ 80.2307403, 12.8279702 ], [ 80.2306982, 12.8280461 ], [ 80.2305377, 12.8283357 ], [ 80.2304182, 12.8285514 ], [ 80.2302146, 12.8289186 ], [ 80.2298141, 12.829915 ], [ 80.2297873, 12.8299817 ], [ 80.2293607, 12.8311571 ], [ 80.2292022, 12.8315939 ], [ 80.2291674, 12.8316899 ], [ 80.229128, 12.8317984 ], [ 80.2291163, 12.8318425 ], [ 80.2287999, 12.8336016 ], [ 80.2285092, 12.8353676 ], [ 80.2283553, 12.83641 ], [ 80.2282065, 12.8373145 ], [ 80.2280454, 12.8381517 ], [ 80.2280252, 12.8382481 ], [ 80.2278456, 12.8389161 ], [ 80.227837, 12.8389481 ], [ 80.2277702, 12.8391772 ], [ 80.2277495, 12.8392492 ], [ 80.2276126, 12.8397347 ], [ 80.2275668, 12.8399301 ], [ 80.2275628, 12.8399464 ], [ 80.2275311, 12.8400607 ], [ 80.2274857, 12.8402243 ], [ 80.2274806, 12.8402426 ], [ 80.2274632, 12.8403065 ], [ 80.2270193, 12.8419375 ], [ 80.2268361, 12.8427801 ], [ 80.2265666, 12.8447208 ], [ 80.2265224, 12.8457462 ], [ 80.226517, 12.8458712 ], [ 80.2264987, 12.8478159 ], [ 80.2264966, 12.8480419 ], [ 80.2265005, 12.8490668 ], [ 80.2265006, 12.8490835 ], [ 80.2265043, 12.8493409 ], [ 80.2265027, 12.8496832 ], [ 80.2265017, 12.8499039 ], [ 80.2265013, 12.8499881 ], [ 80.2265011, 12.8500249 ], [ 80.2265019, 12.8500568 ], [ 80.2265229, 12.8509067 ], [ 80.2265915, 12.8523513 ], [ 80.226609, 12.853357 ], [ 80.2264947, 12.8544963 ], [ 80.2263869, 12.8555732 ], [ 80.226249, 12.85686 ], [ 80.2261659, 12.8577533 ], [ 80.2261798, 12.8584878 ], [ 80.2262089, 12.8587082 ], [ 80.2262624, 12.8591143 ], [ 80.2262925, 12.8592905 ], [ 80.2264435, 12.8601739 ], [ 80.2264945, 12.8608087 ], [ 80.2265398, 12.8613723 ], [ 80.2265007, 12.8619691 ], [ 80.2264478, 12.8629371 ], [ 80.2264518, 12.8636277 ], [ 80.2264821, 12.8649335 ], [ 80.2265398, 12.8657429 ], [ 80.2264703, 12.866471 ], [ 80.2263139, 12.8681098 ], [ 80.2263138, 12.8685991 ], [ 80.2264611, 12.8699188 ], [ 80.2264888, 12.8701669 ], [ 80.2265045, 12.8702892 ], [ 80.2265308, 12.8704933 ], [ 80.2265367, 12.870539 ], [ 80.2265601, 12.8709328 ], [ 80.2265968, 12.8727274 ], [ 80.2265976, 12.8727679 ], [ 80.226607, 12.8729483 ], [ 80.2266854, 12.8739417 ], [ 80.2268525, 12.8753419 ], [ 80.2268498, 12.8763935 ], [ 80.2268496, 12.8764595 ], [ 80.2268495, 12.8764963 ], [ 80.2268488, 12.8765425 ], [ 80.2268426, 12.8769591 ], [ 80.2267905, 12.877778 ], [ 80.2267606, 12.8782168 ], [ 80.2267321, 12.8786354 ], [ 80.2267111, 12.8789226 ], [ 80.2266913, 12.8791924 ], [ 80.2266708, 12.8802014 ], [ 80.2266688, 12.8802997 ], [ 80.2266444, 12.8824699 ], [ 80.2266361, 12.8836496 ], [ 80.2266159, 12.8841974 ], [ 80.2266344, 12.884724 ], [ 80.2266475, 12.8852717 ], [ 80.2266489, 12.8853319 ], [ 80.2267305, 12.885705 ], [ 80.227132, 12.887192 ], [ 80.2272597, 12.8882622 ], [ 80.2273039, 12.8917917 ], [ 80.2273101, 12.8922865 ], [ 80.2273248, 12.8924237 ], [ 80.2274826, 12.8938982 ], [ 80.2275761, 12.895497 ], [ 80.2276378, 12.8966209 ], [ 80.2276448, 12.8967486 ], [ 80.2276629, 12.8970782 ], [ 80.2277285, 12.8982721 ], [ 80.227751, 12.8986817 ], [ 80.2278069, 12.8996039 ], [ 80.2278236, 12.899879 ], [ 80.2278337, 12.9000461 ], [ 80.2278567, 12.9004252 ], [ 80.2278602, 12.9004829 ], [ 80.227867, 12.9005951 ], [ 80.227874, 12.9006784 ], [ 80.2278821, 12.9007753 ], [ 80.2278862, 12.9009094 ], [ 80.2278943, 12.9010074 ], [ 80.2278981, 12.9010535 ], [ 80.2279132, 12.9014404 ], [ 80.2279176, 12.9015533 ], [ 80.2279207, 12.9016343 ], [ 80.2279749, 12.902559 ], [ 80.2279881, 12.9027889 ], [ 80.2280166, 12.9032855 ], [ 80.2280454, 12.9038382 ], [ 80.2280549, 12.9040216 ], [ 80.2280568, 12.9040582 ], [ 80.2280633, 12.9041824 ], [ 80.2280683, 12.9042671 ], [ 80.2281369, 12.9054204 ], [ 80.2281515, 12.9056665 ], [ 80.2281639, 12.9058749 ], [ 80.2282098, 12.906647 ], [ 80.2282141, 12.9067201 ], [ 80.2282418, 12.9069858 ], [ 80.2283136, 12.907558 ], [ 80.228355, 12.9078425 ], [ 80.2284253, 12.9083254 ], [ 80.228545, 12.9090283 ], [ 80.2285511, 12.9090682 ], [ 80.2287806, 12.9105774 ], [ 80.2287985, 12.9106951 ], [ 80.2288469, 12.9110133 ], [ 80.228898, 12.9113491 ], [ 80.2289588, 12.9117481 ], [ 80.229094, 12.9126378 ], [ 80.2291085, 12.9127511 ], [ 80.2293533, 12.9146658 ], [ 80.2295913, 12.9162234 ], [ 80.2296303, 12.91651 ], [ 80.2297191, 12.9171636 ], [ 80.229778, 12.9175972 ], [ 80.2298277, 12.9179653 ], [ 80.2299811, 12.9191004 ], [ 80.2301846, 12.9207197 ], [ 80.2303528, 12.9219618 ], [ 80.230525, 12.9231719 ], [ 80.2305447, 12.9233106 ], [ 80.2305511, 12.923431 ], [ 80.2306836, 12.9243653 ], [ 80.2307024, 12.9245173 ], [ 80.2309228, 12.926303 ], [ 80.2311287, 12.9277193 ], [ 80.231157, 12.9279404 ], [ 80.2312941, 12.9290109 ], [ 80.2314016, 12.9294669 ], [ 80.2315378, 12.930045 ], [ 80.2315761, 12.9301858 ], [ 80.2316817, 12.9305731 ], [ 80.231704, 12.9306552 ], [ 80.2317253, 12.9307333 ], [ 80.2317499, 12.9308087 ], [ 80.2320342, 12.9316788 ], [ 80.2320817, 12.9318242 ], [ 80.2322608, 12.9323861 ], [ 80.2323974, 12.9327484 ], [ 80.2325744, 12.9332116 ], [ 80.2326504, 12.9333862 ], [ 80.2327599, 12.933665 ], [ 80.2327904, 12.9337427 ], [ 80.2330841, 12.9343566 ], [ 80.2332642, 12.934733 ], [ 80.2336217, 12.9354866 ], [ 80.233681, 12.9356116 ], [ 80.233683, 12.9356158 ], [ 80.2337727, 12.9358085 ], [ 80.2338274, 12.9359261 ], [ 80.2338671, 12.9360115 ], [ 80.2342246, 12.936746 ], [ 80.2347919, 12.9379381 ], [ 80.2354395, 12.9392373 ], [ 80.2356568, 12.9396738 ], [ 80.2358341, 12.940102 ], [ 80.2359706, 12.9405693 ], [ 80.2362166, 12.941499 ], [ 80.2362378, 12.9415995 ], [ 80.2363147, 12.9418609 ], [ 80.2364494, 12.9423729 ], [ 80.2365762, 12.9426784 ], [ 80.2366305, 12.9428093 ], [ 80.2368948, 12.943178 ], [ 80.2371303, 12.9434423 ], [ 80.2373511, 12.9436561 ], [ 80.2375487, 12.9438418 ], [ 80.2375639, 12.9438621 ], [ 80.2376509, 12.9439253 ], [ 80.2378938, 12.9441779 ], [ 80.2380136, 12.9442851 ], [ 80.238063, 12.9443292 ], [ 80.2381015, 12.9443636 ], [ 80.2384668, 12.9446901 ], [ 80.2386779, 12.9448917 ], [ 80.2388007, 12.945009 ], [ 80.2390243, 12.94523 ], [ 80.2391846, 12.9454415 ], [ 80.2393129, 12.9456622 ], [ 80.2394085, 12.9458377 ], [ 80.2399912, 12.9472507 ], [ 80.240571, 12.9486826 ], [ 80.2406604, 12.9489332 ], [ 80.2406972, 12.9490503 ], [ 80.2407932, 12.9493353 ], [ 80.2408252, 12.9494359 ], [ 80.2409834, 12.949934 ], [ 80.2414436, 12.9513824 ], [ 80.2415005, 12.9515615 ], [ 80.241507, 12.9515796 ], [ 80.2417027, 12.9521214 ], [ 80.2418978, 12.9525828 ], [ 80.2419618, 12.9527341 ], [ 80.2424189, 12.9539713 ], [ 80.2425002, 12.9541608 ], [ 80.2427916, 12.9548261 ], [ 80.2428276, 12.9549082 ], [ 80.2430609, 12.9555488 ], [ 80.2430764, 12.9555799 ], [ 80.2430871, 12.9556013 ], [ 80.243094, 12.9556198 ], [ 80.243372, 12.9563625 ], [ 80.2434461, 12.9565447 ], [ 80.2436523, 12.957016 ], [ 80.243759, 12.9572405 ], [ 80.2438866, 12.9574961 ], [ 80.2440923, 12.9579758 ], [ 80.2444442, 12.9589172 ], [ 80.2446393, 12.9593559 ], [ 80.2447833, 12.9596795 ], [ 80.2450445, 12.9602668 ], [ 80.2451508, 12.960494 ], [ 80.2453426, 12.9609039 ], [ 80.2457245, 12.9617202 ], [ 80.2460678, 12.9624136 ], [ 80.2461631, 12.9625853 ], [ 80.2464205, 12.9630989 ], [ 80.24656, 12.9633959 ], [ 80.2466063, 12.9634896 ], [ 80.2466445, 12.9635751 ], [ 80.2468236, 12.9639993 ], [ 80.247205, 12.9650424 ], [ 80.2474344, 12.9657167 ], [ 80.2476014, 12.9661164 ], [ 80.2478886, 12.9667407 ], [ 80.2481425, 12.9672773 ], [ 80.2483046, 12.9676492 ], [ 80.2484505, 12.9680032 ], [ 80.2486642, 12.9685631 ], [ 80.2489452, 12.9692583 ], [ 80.249108, 12.9696505 ], [ 80.249301, 12.9701528 ], [ 80.2494569, 12.9705684 ], [ 80.2495059, 12.9707182 ], [ 80.2496297, 12.9710963 ], [ 80.2498835, 12.9720648 ], [ 80.24998, 12.9724256 ], [ 80.2500168, 12.9725635 ], [ 80.2500622, 12.9727504 ], [ 80.2502116, 12.9733663 ], [ 80.2503056, 12.9736865 ], [ 80.2503429, 12.9738162 ], [ 80.2506659, 12.9749391 ], [ 80.2508136, 12.9754527 ], [ 80.2510989, 12.9764448 ], [ 80.2512578, 12.976934 ], [ 80.2513625, 12.977216 ], [ 80.2514902, 12.9774481 ], [ 80.2515426, 12.9775267 ], [ 80.2516443, 12.9776546 ], [ 80.2517468, 12.9777831 ], [ 80.2518245, 12.9778666 ], [ 80.2522148, 12.9783214 ], [ 80.2523681, 12.9785883 ], [ 80.2524894, 12.9788467 ], [ 80.2525512, 12.9791603 ], [ 80.2525733, 12.9793751 ], [ 80.2525787, 12.9794593 ], [ 80.252598, 12.9796934 ], [ 80.2525992, 12.9797148 ], [ 80.2526097, 12.9798977 ], [ 80.252609, 12.9799864 ], [ 80.2526333, 12.9804711 ], [ 80.2525927, 12.9817908 ], [ 80.2525885, 12.9819283 ], [ 80.2525865, 12.9819928 ], [ 80.2525749, 12.9827478 ], [ 80.2525656, 12.9828273 ], [ 80.2525253, 12.9831713 ], [ 80.2525171, 12.9832409 ], [ 80.2525063, 12.983283 ], [ 80.2521471, 12.9846855 ], [ 80.2521171, 12.9848027 ], [ 80.252095, 12.9848875 ], [ 80.2520839, 12.98493 ], [ 80.2517351, 12.9862657 ] ] ] } }
]
}
