{
"type": "FeatureCollection",
"name": "railway_stations",
"crs": { "type": "name", "properties": { "name": "urn:ogc:def:crs:OGC:1.3:CRS84" } },
"features": [
{ "type": "Feature", "properties": { "label": "Royapuram", "hub_type": "construction", "railway": "station", "network": "IR", "operator": "SR", "ref": "RPM", "construction:railway": null }, "geometry": { "type": "Point", "coordinates": [ 80.293592461710475, 13.10429332392067 ] } },
{ "type": "Feature", "properties": { "label": "Chennai Beach", "hub_type": "construction", "railway": "station", "network": "IR", "operator": "SR", "ref": "MSB", "construction:railway": null }, "geometry": { "type": "Point", "coordinates": [ 80.29193855491576, 13.091586410295971 ] } },
{ "type": "Feature", "properties": { "label": "Chennai Fort", "hub_type": "construction", "railway": "station", "network": "IR", "operator": "SR", "ref": "MSF", "construction:railway": null }, "geometry": { "type": "Point", "coordinates": [ 80.282984665855537, 13.083529487436566 ] } },
{ "type": "Feature", "properties": { "label": "Basin Bridge Junction", "hub_type": "construction", "railway": "station", "network": "IR", "operator": "SR", "ref": "BBQ", "construction:railway": null }, "geometry": { "type": "Point", "coordinates": [ 80.271266206005606, 13.102102099945663 ] } },
{ "type": "Feature", "properties": { "label": "Villivakkam", "hub_type": "construction", "railway": "station", "network": "IR", "operator": "SR", "ref": "VLK", "construction:railway": null }, "geometry": { "type": "Point", "coordinates": [ 80.209148716321593, 13.110313283268807 ] } },
{ "type": "Feature", "properties": { "label": "Chennai Chetpet", "hub_type": "construction", "railway": "station", "network": "IR", "operator": "SR", "ref": "MSC", "construction:railway": null }, "geometry": { "type": "Point", "coordinates": [ 80.242421, 13.0743424 ] } },
{ "type": "Feature", "properties": { "label": "Pattaravakkam", "hub_type": "construction", "railway": "station", "network": "IR", "operator": "SR", "ref": "PVM", "construction:railway": null }, "geometry": { "type": "Point", "coordinates": [ 80.1663975, 13.1143904 ] } },
{ "type": "Feature", "properties": { "label": "Walajabad", "hub_type": "construction", "railway": "station", "network": "IR", "operator": "SR", "ref": "WJ", "construction:railway": null }, "geometry": { "type": "Point", "coordinates": [ 79.8185833, 12.7968265 ] } },
{ "type": "Feature", "properties": { "label": "Pattabiram Military Siding", "hub_type": "construction", "railway": "station", "network": "IR", "operator": "SR", "ref": "PTMS", "construction:railway": null }, "geometry": { "type": "Point", "coordinates": [ 80.0601177, 13.1373759 ] } },
{ "type": "Feature", "properties": { "label": "Anna Nagar West", "hub_type": "construction", "railway": "station", "network": "IR", "operator": "SR", "ref": "ANNG", "construction:railway": null }, "geometry": { "type": "Point", "coordinates": [ 80.2010061, 13.0985386 ] } },
{ "type": "Feature", "properties": { "label": "Palayasivaram", "hub_type": "construction", "railway": "station", "network": "IR", "operator": "SR", "ref": "PYV", "construction:railway": null }, "geometry": { "type": "Point", "coordinates": [ 79.8778012, 12.7767905 ] } },
{ "type": "Feature", "properties": { "label": "Chennai Park Town", "hub_type": "construction", "railway": "station", "network": "IR", "operator": "SR", "ref": "MPKT", "construction:railway": null }, "geometry": { "type": "Point", "coordinates": [ 80.2762947, 13.079587 ] } },
{ "type": "Feature", "properties": { "label": "Chennai Park", "hub_type": "construction", "railway": "station", "network": "IR", "operator": "SR", "ref": "MPK", "construction:railway": null }, "geometry": { "type": "Point", "coordinates": [ 80.2730879, 13.0807537 ] } },
{ "type": "Feature", "properties": { "label": "Kodambakkam", "hub_type": "construction", "railway": "station", "network": "IR", "operator": "SR", "ref": "MKK", "construction:railway": null }, "geometry": { "type": "Point", "coordinates": [ 80.2306892, 13.0516624 ] } },
{ "type": "Feature", "properties": { "label": "Mambalam", "hub_type": "construction", "railway": "station", "network": "IR", "operator": "SR", "ref": "MBM", "construction:railway": null }, "geometry": { "type": "Point", "coordinates": [ 80.2277752, 13.0380662 ] } },
{ "type": "Feature", "properties": { "label": "Saidapet", "hub_type": "construction", "railway": "station", "network": "IR", "operator": "SR", "ref": "SP", "construction:railway": null }, "geometry": { "type": "Point", "coordinates": [ 80.2237191, 13.0233098 ] } },
{ "type": "Feature", "properties": { "label": "Puratchi Thalaivar Dr. M. G. Ramachandran Central", "hub_type": "construction", "railway": "station", "network": "IR", "operator": "SR", "ref": "MAS", "construction:railway": null }, "geometry": { "type": "Point", "coordinates": [ 80.2759622, 13.0824232 ] } },
{ "type": "Feature", "properties": { "label": "Chepauk", "hub_type": "construction", "railway": "station", "network": "IR", "operator": "SR", "ref": "MCPK", "construction:railway": null }, "geometry": { "type": "Point", "coordinates": [ 80.280596, 13.0619312 ] } },
{ "type": "Feature", "properties": { "label": "Thiruvallikeni", "hub_type": "construction", "railway": "station", "network": "IR", "operator": "SR", "ref": "MTCN", "construction:railway": null }, "geometry": { "type": "Point", "coordinates": [ 80.2806044, 13.0559352 ] } },
{ "type": "Feature", "properties": { "label": "Minjur", "hub_type": "construction", "railway": "station", "network": "IR", "operator": "SR", "ref": "MJR", "construction:railway": null }, "geometry": { "type": "Point", "coordinates": [ 80.2602441, 13.2813398 ] } },
{ "type": "Feature", "properties": { "label": "Palavanthangal", "hub_type": "construction", "railway": "station", "network": "IR", "operator": "SR", "ref": "PZA", "construction:railway": null }, "geometry": { "type": "Point", "coordinates": [ 80.1879401, 12.9906385 ] } },
{ "type": "Feature", "properties": { "label": "Guindy", "hub_type": "construction", "railway": "station", "network": "IR", "operator": "SR", "ref": "GDY", "construction:railway": null }, "geometry": { "type": "Point", "coordinates": [ 80.2126063, 13.0086685 ] } },
{ "type": "Feature", "properties": { "label": "Avadi", "hub_type": "construction", "railway": "station", "network": "IR", "operator": "SR", "ref": "AVD", "construction:railway": null }, "geometry": { "type": "Point", "coordinates": [ 80.1015427, 13.1182744 ] } },
{ "type": "Feature", "properties": { "label": "Palur", "hub_type": "construction", "railway": "station", "network": "IR", "operator": "SR", "ref": "PALR", "construction:railway": null }, "geometry": { "type": "Point", "coordinates": [ 79.9069065, 12.766346 ] } },
{ "type": "Feature", "properties": { "label": "St. Thomas Mount", "hub_type": "construction", "railway": "station", "network": "IR", "operator": "SR", "ref": "STM", "construction:railway": null }, "geometry": { "type": "Point", "coordinates": [ 80.1993715, 12.9947654 ] } },
{ "type": "Feature", "properties": { "label": "Pallavaram", "hub_type": "construction", "railway": "station", "network": null, "operator": "SR", "ref": "PV", "construction:railway": null }, "geometry": { "type": "Point", "coordinates": [ 80.1520504, 12.9675742 ] } },
{ "type": "Feature", "properties": { "label": "Perungalattur", "hub_type": "construction", "railway": "station", "network": "IR", "operator": "SR", "ref": "PRGL", "construction:railway": null }, "geometry": { "type": "Point", "coordinates": [ 80.095046, 12.9052432 ] } },
{ "type": "Feature", "properties": { "label": "Tirusulam", "hub_type": "construction", "railway": "station", "network": "IR", "operator": "SR", "ref": "TLM", "construction:railway": null }, "geometry": { "type": "Point", "coordinates": [ 80.1657933, 12.9804609 ] } },
{ "type": "Feature", "properties": { "label": "Meenambakkam", "hub_type": "construction", "railway": "station", "network": "IR", "operator": "SR", "ref": "MN", "construction:railway": null }, "geometry": { "type": "Point", "coordinates": [ 80.1750925, 12.9846976 ] } },
{ "type": "Feature", "properties": { "label": "Chromepet", "hub_type": "construction", "railway": "station", "network": "IR", "operator": "SR", "ref": "CMP", "construction:railway": null }, "geometry": { "type": "Point", "coordinates": [ 80.1411677, 12.9521897 ] } },
{ "type": "Feature", "properties": { "label": "Kattangulathur", "hub_type": "construction", "railway": "station", "network": "IR", "operator": "SR", "ref": "CTM", "construction:railway": null }, "geometry": { "type": "Point", "coordinates": [ 80.0266339, 12.8055581 ] } },
{ "type": "Feature", "properties": { "label": "Ennore", "hub_type": "construction", "railway": "station", "network": "IR", "operator": "SR", "ref": "ENR", "construction:railway": null }, "geometry": { "type": "Point", "coordinates": [ 80.3216013, 13.2174681 ] } },
{ "type": "Feature", "properties": { "label": "Hindu College", "hub_type": "construction", "railway": "station", "network": "IR", "operator": "SR", "ref": "HC", "construction:railway": null }, "geometry": { "type": "Point", "coordinates": [ 80.0744298, 13.1184826 ] } },
{ "type": "Feature", "properties": { "label": "Pattabiram E Depot", "hub_type": "construction", "railway": "station", "network": "IR", "operator": "SR", "ref": "PRES", "construction:railway": null }, "geometry": { "type": "Point", "coordinates": [ 80.0686194, 13.1460141 ] } },
{ "type": "Feature", "properties": { "label": "Guduvancheri", "hub_type": "construction", "railway": "station", "network": "IR", "operator": "SR", "ref": "GI", "construction:railway": null }, "geometry": { "type": "Point", "coordinates": [ 80.0576503, 12.8452303 ] } },
{ "type": "Feature", "properties": { "label": "Korukkupet", "hub_type": "construction", "railway": "station", "network": "IR", "operator": "SR", "ref": "KOK", "construction:railway": null }, "geometry": { "type": "Point", "coordinates": [ 80.2784559, 13.1194248 ] } },
{ "type": "Feature", "properties": { "label": "Korattur", "hub_type": "construction", "railway": "station", "network": "IR", "operator": "SR", "ref": "KOTR", "construction:railway": null }, "geometry": { "type": "Point", "coordinates": [ 80.1841521, 13.1131424 ] } },
{ "type": "Feature", "properties": { "label": "Kotturpuram", "hub_type": "construction", "railway": "station", "network": "IR", "operator": "SR", "ref": "KTPM", "construction:railway": null }, "geometry": { "type": "Point", "coordinates": [ 80.2484517, 13.0137182 ] } },
{ "type": "Feature", "properties": { "label": "Manavur", "hub_type": "construction", "railway": "station", "network": "IR", "operator": "SR", "ref": "MAF", "construction:railway": null }, "geometry": { "type": "Point", "coordinates": [ 79.8012593, 13.096372 ] } },
{ "type": "Feature", "properties": { "label": "Chennai Egmore", "hub_type": "construction", "railway": "station", "network": "IR", "operator": "SR", "ref": "MS", "construction:railway": null }, "geometry": { "type": "Point", "coordinates": [ 80.2612572, 13.0777493 ] } },
{ "type": "Feature", "properties": { "label": "Perambur Carriage Works", "hub_type": "construction", "railway": "station", "network": "IR", "operator": "SR", "ref": "PCW", "construction:railway": null }, "geometry": { "type": "Point", "coordinates": [ 80.2388864, 13.1072814 ] } },
{ "type": "Feature", "properties": { "label": "Perambur", "hub_type": "construction", "railway": "station", "network": "IR", "operator": "SR", "ref": "PER", "construction:railway": null }, "geometry": { "type": "Point", "coordinates": [ 80.2444143, 13.107719 ] } },
{ "type": "Feature", "properties": { "label": "Perambur Loco Works", "hub_type": "construction", "railway": "station", "network": "IR", "operator": "SR", "ref": "PEW", "construction:railway": null }, "geometry": { "type": "Point", "coordinates": [ 80.2262155, 13.1084975 ] } },
{ "type": "Feature", "properties": { "label": "Tambaram", "hub_type": "construction", "railway": "station", "network": "IR", "operator": "SR", "ref": "TBM", "construction:railway": null }, "geometry": { "type": "Point", "coordinates": [ 80.1179194, 12.9257923 ] } },
{ "type": "Feature", "properties": { "label": "Tiruninravur", "hub_type": "construction", "railway": "station", "network": "IR", "operator": "SR", "ref": "TI", "construction:railway": null }, "geometry": { "type": "Point", "coordinates": [ 80.0297436, 13.123994 ] } },
{ "type": "Feature", "properties": { "label": "Vyasarpadi Jeeva", "hub_type": "construction", "railway": "station", "network": "IR", "operator": "SR", "ref": "VJM", "construction:railway": null }, "geometry": { "type": "Point", "coordinates": [ 80.2572195, 13.1091961 ] } },
{ "type": "Feature", "properties": { "label": "Ambattur", "hub_type": "construction", "railway": "station", "network": "IR", "operator": "SR", "ref": "ABU", "construction:railway": null }, "geometry": { "type": "Point", "coordinates": [ 80.1528611, 13.1140244 ] } },
{ "type": "Feature", "properties": { "label": "Annanur", "hub_type": "construction", "railway": "station", "network": "IR", "operator": "SR", "ref": "ANNR", "construction:railway": null }, "geometry": { "type": "Point", "coordinates": [ 80.1269127, 13.1163563 ] } },
{ "type": "Feature", "properties": { "label": "Veppampattu", "hub_type": "construction", "railway": "station", "network": "IR", "operator": "SR", "ref": "VEU", "construction:railway": null }, "geometry": { "type": "Point", "coordinates": [ 79.9984223, 13.1235994 ] } },
{ "type": "Feature", "properties": { "label": "Sevvapet Road", "hub_type": "construction", "railway": "station", "network": "IR", "operator": "SR", "ref": "SVR", "construction:railway": null }, "geometry": { "type": "Point", "coordinates": [ 79.9660618, 13.1252677 ] } },
{ "type": "Feature", "properties": { "label": "Tiruvallur", "hub_type": "construction", "railway": "station", "network": "IR", "operator": "SR", "ref": "TRL", "construction:railway": null }, "geometry": { "type": "Point", "coordinates": [ 79.9121601, 13.1161924 ] } },
{ "type": "Feature", "properties": { "label": "Kadambattur", "hub_type": "construction", "railway": "station", "network": "IR", "operator": "SR", "ref": "KBT", "construction:railway": null }, "geometry": { "type": "Point", "coordinates": [ 79.8631466, 13.0998547 ] } },
{ "type": "Feature", "properties": { "label": "Tondiarpet", "hub_type": "construction", "railway": "station", "network": "IR", "operator": "SR", "ref": "TNP", "construction:railway": null }, "geometry": { "type": "Point", "coordinates": [ 80.2819242, 13.1275202 ] } },
{ "type": "Feature", "properties": { "label": "Tiruvottiyur", "hub_type": "construction", "railway": "station", "network": "IR", "operator": "SR", "ref": "TVT", "construction:railway": null }, "geometry": { "type": "Point", "coordinates": [ 80.2962076, 13.1586407 ] } },
{ "type": "Feature", "properties": { "label": "Wimco Nagar", "hub_type": "construction", "railway": "station", "network": "IR", "operator": "SR", "ref": "WCN", "construction:railway": null }, "geometry": { "type": "Point", "coordinates": [ 80.3054594, 13.1796833 ] } },
{ "type": "Feature", "properties": { "label": "Attippattu", "hub_type": "construction", "railway": "station", "network": "IR", "operator": "SR", "ref": "AIP", "construction:railway": null }, "geometry": { "type": "Point", "coordinates": [ 80.2896478, 13.2608405 ] } },
{ "type": "Feature", "properties": { "label": "Anuppambattu", "hub_type": "construction", "railway": "station", "network": "IR", "operator": "SR", "ref": "APB", "construction:railway": null }, "geometry": { "type": "Point", "coordinates": [ 80.2309433, 13.3041904 ] } },
{ "type": "Feature", "properties": { "label": "Ponneri", "hub_type": "construction", "railway": "station", "network": "IR", "operator": "SR", "ref": "PON", "construction:railway": null }, "geometry": { "type": "Point", "coordinates": [ 80.1988838, 13.3323374 ] } },
{ "type": "Feature", "properties": { "label": "Kavaraippettai", "hub_type": "construction", "railway": "station", "network": "IR", "operator": "SR", "ref": "KVP", "construction:railway": null }, "geometry": { "type": "Point", "coordinates": [ 80.1476277, 13.3632212 ] } },
{ "type": "Feature", "properties": { "label": "Chintadaripet", "hub_type": "construction", "railway": "station", "network": "IR", "operator": "SR", "ref": "MCPT", "construction:railway": null }, "geometry": { "type": "Point", "coordinates": [ 80.2738611, 13.0737952 ] } },
{ "type": "Feature", "properties": { "label": "Light House", "hub_type": "construction", "railway": "station", "network": "IR", "operator": "SR", "ref": "MLHS", "construction:railway": null }, "geometry": { "type": "Point", "coordinates": [ 80.2769885, 13.0455374 ] } },
{ "type": "Feature", "properties": { "label": "Mundakakanni Amman Koil", "hub_type": "construction", "railway": "station", "network": "IR", "operator": "SR", "ref": "MKAK", "construction:railway": null }, "geometry": { "type": "Point", "coordinates": [ 80.2698818, 13.0406508 ] } },
{ "type": "Feature", "properties": { "label": "Thirumayilai", "hub_type": "construction", "railway": "station", "network": "IR", "operator": "SR", "ref": "MTMY", "construction:railway": null }, "geometry": { "type": "Point", "coordinates": [ 80.2675129, 13.0353976 ] } },
{ "type": "Feature", "properties": { "label": "Mandaveli", "hub_type": "construction", "railway": "station", "network": "IR", "operator": "SR", "ref": "MNDY", "construction:railway": null }, "geometry": { "type": "Point", "coordinates": [ 80.2606181, 13.0280931 ] } },
{ "type": "Feature", "properties": { "label": "Greenways Road", "hub_type": "construction", "railway": "station", "network": "IR", "operator": "SR", "ref": "GWYR", "construction:railway": null }, "geometry": { "type": "Point", "coordinates": [ 80.2527292, 13.0215846 ] } },
{ "type": "Feature", "properties": { "label": "Kasturiba Nagar", "hub_type": "construction", "railway": "station", "network": "IR", "operator": "SR", "ref": "KTBR", "construction:railway": null }, "geometry": { "type": "Point", "coordinates": [ 80.2478604, 13.0053823 ] } },
{ "type": "Feature", "properties": { "label": "Indira Nagar", "hub_type": "construction", "railway": "station", "network": "IR", "operator": "SR", "ref": "INDR", "construction:railway": null }, "geometry": { "type": "Point", "coordinates": [ 80.249716, 12.9960623 ] } },
{ "type": "Feature", "properties": { "label": "Tiruvanmiyur", "hub_type": "construction", "railway": "station", "network": "IR", "operator": "SR", "ref": "TYMR", "construction:railway": null }, "geometry": { "type": "Point", "coordinates": [ 80.2515865, 12.9889822 ] } },
{ "type": "Feature", "properties": { "label": "Taramani", "hub_type": "construction", "railway": "station", "network": "IR", "operator": "SR", "ref": "TRMN", "construction:railway": null }, "geometry": { "type": "Point", "coordinates": [ 80.2416441, 12.9786584 ] } },
{ "type": "Feature", "properties": { "label": "Perungudi", "hub_type": "construction", "railway": "station", "network": "IR", "operator": "SR", "ref": "PRGD", "construction:railway": null }, "geometry": { "type": "Point", "coordinates": [ 80.2321916, 12.9760584 ] } },
{ "type": "Feature", "properties": { "label": "Velachery", "hub_type": "construction", "railway": "station", "network": "IR", "operator": "SR", "ref": "VLCY", "construction:railway": null }, "geometry": { "type": "Point", "coordinates": [ 80.2195082, 12.9676192 ] } },
{ "type": "Feature", "properties": { "label": "Puzhudivakkam", "hub_type": "construction", "railway": "station", "network": "MRTS", "operator": "MRTS", "ref": null, "construction:railway": null }, "geometry": { "type": "Point", "coordinates": [ 80.2054236, 12.9771578 ] } },
{ "type": "Feature", "properties": { "label": "Adambakkam", "hub_type": "construction", "railway": "station", "network": "MRTS", "operator": "MRTS", "ref": null, "construction:railway": "station" }, "geometry": { "type": "Point", "coordinates": [ 80.1968882, 12.9823811 ] } },
{ "type": "Feature", "properties": { "label": "Vandalur", "hub_type": "construction", "railway": "station", "network": "IR", "operator": "SR", "ref": "VDR", "construction:railway": null }, "geometry": { "type": "Point", "coordinates": [ 80.084974, 12.8916061 ] } },
{ "type": "Feature", "properties": { "label": "Tambaram Sanatorium", "hub_type": "construction", "railway": "station", "network": "IR", "operator": "SR", "ref": "TBMS", "construction:railway": null }, "geometry": { "type": "Point", "coordinates": [ 80.1307034, 12.9369591 ] } },
{ "type": "Feature", "properties": { "label": "Nungambakkam", "hub_type": "construction", "railway": "station", "network": "IR", "operator": "SR", "ref": "NBK", "construction:railway": null }, "geometry": { "type": "Point", "coordinates": [ 80.232839, 13.065841 ] } },
{ "type": "Feature", "properties": { "label": "Washermanpet", "hub_type": "construction", "railway": "station", "network": "IR", "operator": "SR", "ref": "WST", "construction:railway": null }, "geometry": { "type": "Point", "coordinates": [ 80.2820095, 13.1089648 ] } }
]
}
